NPL Status,Region,EPA ID,Name,Address ,City or County,State,Latitude,Longitude,Construction Complete ,Wildfire ,SLR 0 ft ,SLR 1 ft ,SLR 3 ft ,SLR 8 ft ,SLR Unmapped,SLOSH Category 1,SLOSH Category 4 or 5,Flooding 1 Percent,Flooding Other,Flooding Unknown ,Flooding Minimal
F,06,TXD980513956,SIKES DISPOSAL PITS,US HWY 90,CROSBY,TX,29.881669,-95.086669,Y,0,0,0,0,1,0,1,1,1,1,0,0
F,06,TXD980514814,"FRENCH, LTD.",SAN JACINTO RIVER CROSSING,CROSBY,TX,29.8796,-95.0739,Y,0,0,0,0,0,0,1,1,1,1,0,1
F,06,TXD980514996,HIGHLANDS ACID PIT,611 BATTLEBELL - CLEAR LAKE ROAD,HIGHLANDS,TX,29.8141,-95.0786,Y,0,1,1,1,1,0,1,1,1,0,0,0
F,06,TXD980623904,"KOPPERS CO., INC. (TEXARKANA PLANT)",WEST 3RD ST,TEXARKANA,TX,33.416669,-94.065,Y,0,0,0,0,0,0,0,0,1,1,0,1
D,06,TXD980625453,"BRIO REFINING, INC.",2501 DIXIE FARM ROAD,FRIENDSWOOD,TX,29.57,-95.203331,Y,0,0,0,0,0,0,0,1,1,1,0,0
F,06,TXD980629851,"MOTCO, INC.",JCT HIGHWAYS 3 6 & 75,LA MARQUE,TX,29.334719,-94.933331,Y,0,0,0,1,1,0,1,1,0,0,1,0
D,06,TXD980697114,ODESSA CHROMIUM #2 (ANDREWS HIGHWAY),5201 ANDREWS HWY,ODESSA,TX,31.8934,-102.3905,Y,0,0,0,0,0,0,0,0,0,0,0,1
D,06,TXD980699656,PESSES CHEMICAL CO.,2301 S MAIN ST,FORT WORTH,TX,32.7174,-97.3256,Y,0,0,0,0,0,0,0,0,0,0,0,1
F,06,TXD980745574,UNITED CREOSOTING CO.,2ND & HILBIG,CONROE,TX,30.331669,-95.456669,Y,0,0,0,0,0,0,0,0,1,1,0,1
D,06,TXD980745582,HARRIS (FARLEY STREET),1000'S OF GENOA RED BLUFF RD,HOUSTON,TX,29.6244,-95.1627,Y,0,0,0,0,0,0,0,1,0,0,0,1
F,06,TXD980748453,GENEVA INDUSTRIES/FUHRMANN ENERGY,9334 CANIFF RD,HOUSTON,TX,29.66,-95.25,Y,0,0,0,0,0,0,0,0,1,1,0,1
F,06,TXD980810386,SOUTH CAVALCADE STREET,SE OF CAVALCADE AND MAURY/BTWN BH&T RR,HOUSTON,TX,29.798331,-95.347781,Y,0,0,0,0,0,0,0,0,0,0,0,1
D,06,TXD980864649,BAILEY WASTE DISPOSAL,HWY 87 S @ RAINBOW BRIDGE,BRIDGE CITY,TX,29.99055,-93.879169,Y,1,1,1,1,1,0,1,1,0,0,1,0
D,06,TXD980864763,CRYSTAL CITY AIRPORT,101 E DIMMIT,CRYSTAL CITY,TX,28.6969,-99.8176,Y,0,0,0,0,0,0,0,0,0,0,1,0
F,06,TXD980864789,MALONE SERVICE CO - SWAN LAKE PLANT,LOOP 197 S,TEXAS CITY,TX,29.333056,-94.902778,Y,0,1,1,1,1,0,1,1,0,0,1,0
F,06,TXD980867279,ODESSA CHROMIUM #1,4318 BRAZOS AVE,ODESSA,TX,31.881669,-102.4033,Y,0,0,0,0,0,0,0,0,1,0,0,1
F,06,TXD980873327,SOL LYNN/INDUSTRIAL TRANSFORMERS,"1415, 1417, 1419 S LOOP WEST",HOUSTON,TX,29.678889,-95.398611,Y,0,0,0,0,0,0,0,0,0,0,0,1
F,06,TXD980873343,NORTH CAVALCADE STREET,NE OF CAVALCADE AND MAURY/BTWN BH&T RR,HOUSTON,TX,29.806669,-95.349169,Y,0,0,0,0,0,0,0,1,0,0,0,1
F,06,TXD980873350,"PETRO-CHEMICAL SYSTEMS, INC. (TURTLE BAYOU)",1 MI E OF FM563/7 MI N OF I-10,LIBERTY,TX,29.92,-94.688061,Y,0,0,0,0,0,0,0,0,0,0,0,1
F,06,TXD988034328,DELFASCO FORGE,114 NE 28TH STREET,GRAND PRAIRIE,TX,32.750269,-96.963228,N,0,0,0,0,0,0,0,0,0,0,0,1
F,06,TXD990707010,CRYSTAL CHEMICAL CO.,3502 ROGERDALE RD,HOUSTON,TX,29.7206,-95.5644,Y,0,0,0,0,0,0,0,0,1,0,0,1
F,06,TXN000605240,"LANE PLATING WORKS, INC",5322 Bonnie View Road,DALLAS,TX,32.687886,-96.769485,N,0,0,0,0,0,0,0,0,1,1,0,1
F,10,AK0001897602,SALT CHUCK MINE,"4 MI SW CY,  T72S R84E S17, COPPER RIVER",THORNE BAY,AK,55.626442,-132.558853,N,0,0,0,0,0,0,0,0,0,0,1,0
F,06,TXN000605460,JONES ROAD GROUND WATER PLUME,Postal Address is unavailable for the Site,HOUSTON,TX,29.938372,-95.585473,N,0,0,0,0,0,0,0,0,0,0,0,1
D,10,AKD004904215,ALASKA BATTERY ENTERPRISES,157 OLD RICHARDSON HIGHWAY,FAIRBANKS,AK,64.8203,-147.7038,Y,0,0,0,0,0,0,0,0,1,1,0,0
F,06,TXN000605649,SANDY BEACH ROAD GROUND WATER PLUME,1653 JASON COURT,PELICAN BAY,TX,32.928472,-97.525,N,0,0,0,0,0,0,0,0,0,0,0,1
D,10,AKD980988158,ARCTIC SURPLUS,BADGER RD AND OLD RICHARDSON WAY MI. 6,FAIRBANKS,AK,64.8122,-147.5643,Y,0,0,0,0,0,0,0,0,0,1,0,1
F,06,TXN000606565,BANDERA ROAD GROUND WATER PLUME,INTERSECTION OF BANDERA ROAD AND,SAN ANTONIO,TX,29.494433,-98.6205,N,0,0,0,0,0,0,0,0,1,1,0,1
F,04,ALD001221902,CIBA-GEIGY CORP. (MCINTOSH PLANT),OFF HWY 43,MCINTOSH,AL,31.279,-87.9955,Y,1,0,0,0,0,0,0,0,1,0,0,1
F,06,TXN000606611,SAN JACINTO RIVER WASTE PITS,"W BANK OF SAN JACINTO RIVER, N OF HWY 10",Channelview,TX,29.7944,-95.0625,N,0,1,1,1,1,0,1,1,1,0,0,0
F,06,TXN000606614,EAST 67TH STREET GROUND WATER PLUME,"102 23', 23.36"" WEST, 31, 54', 22.26""",ODESSA,TX,31.908611,-102.385833,N,0,0,0,0,0,0,0,0,1,1,0,1
F,04,ALD004022448,"ALABAMA PLATING COMPANY, INC.",570 HIGHWAY 231 NORTH,VINCENT,AL,33.399722,-86.405,Y,1,0,0,0,0,0,0,0,1,0,0,1
F,06,TXN000606668,MIDESSA GROUND WATER PLUME,INTERSECTION OF COUNTY RD 1290 & CR 128,MIDLAND,TX,31.90635,-102.233669,N,0,0,0,0,0,0,0,0,0,0,1,0
F,04,ALD007454085,T.H. AGRICULTURE & NUTRITION CO. (MONTGOMERY PLANT),3017 BIRMINGHAM HWY,MONTGOMERY,AL,32.3761,-86.3791,Y,0,0,0,0,0,0,0,0,0,1,0,1
F,06,TXN000606716,HIGHWAY 18 GROUND WATER,INTERSECTION OF HIGHWAY 18 AND JEFFEE DRIVE,KERMIT,TX,31.852,-103.090681,N,0,0,0,0,0,0,0,0,0,0,1,0
F,04,ALD008161176,STAUFFER CHEMICAL CO. (LEMOYNE PLANT),13440 Highway 43 North,AXIS,AL,30.969439,-88.0175,N,1,0,0,0,0,0,0,0,0,0,0,1
F,06,TXN000606760,NORTH EAST 2ND STREET SITE,201 NORTH GORDON STREET,Happy,TX,34.745,-101.853333,N,0,0,0,0,0,0,0,0,0,0,1,1
F,04,ALD008188708,OLIN CORP. (MCINTOSH PLANT),OLIN RD,MCINTOSH,AL,31.263889,-87.99445,N,1,0,0,0,0,0,0,0,1,0,0,1
F,06,TXN000606915,RIVER CITY METAL FINISHING,12040 POTRANCO ROAD,SAN ANTONIO,TX,29.430489,-98.731875,N,0,0,0,0,0,0,0,0,0,0,0,1
D,04,ALD031618069,MOWBRAY ENGINEERING CO.,JCT OF 2ND & BEELAND STS,GREENVILLE,AL,31.831669,-86.61305,Y,0,0,0,0,0,0,0,0,1,1,0,1
F,06,TXN000606965,CIRCLE COURT GROUND WATER PLUME,117 CIRCLE COURT,WILLOW PARK,TX,32.744778,-97.679763,N,0,0,0,0,0,0,0,0,0,0,0,1
F,04,ALD041906173,INTERSTATE LEAD CO. (ILCO),"8551 Borden Ave. SE,",LEEDS,AL,33.539016,-86.533258,Y,0,0,0,0,0,0,0,0,1,1,0,1
F,06,TXN000606992,WEST COUNTY ROAD 112 GROUND WATER,INT. BETWEEN CTY ROAD (CR) 112 & CR 1205,MIDLAND,TX,31.964129,-102.094921,N,1,0,0,0,0,0,0,0,0,0,1,0
F,06,TXN000607093,US OIL RECOVERY,400 AND 200 N. RICHEY STREET,PASADENA,TX,29.718389,-95.221528,N,0,1,1,1,1,0,1,1,1,1,0,1
F,04,ALD095688875,STAUFFER CHEMICAL CO. (COLD CREEK PLANT),13500 US HWY 43 North,BUCKS,AL,30.975,-88.021389,N,1,0,0,0,0,0,0,0,0,0,0,1
F,06,TXN000607441,MAIN STREET GROUND WATER PLUME,COUNTY ROAD 340,BURNET,TX,30.737148,-98.22544,N,0,0,0,0,0,0,0,0,1,0,0,1
D,04,ALD980728703,PERDIDO GROUND WATER CONTAMINATION,COUNTY RD 47 S,PERDIDO,AL,31.0125,-87.625,Y,1,0,0,0,0,0,0,0,0,0,0,1
F,06,TXSFN0605177,STATE ROAD 114 GROUNDWATER PLUME,W. STATE ROAD 114,LEVELLAND,TX,33.599883,-102.405561,Y,0,0,0,0,0,0,0,0,0,0,1,0
D,04,ALD980844385,"REDWING CARRIERS, INC. (SARALAND)",527 US HWY 43,SARALAND,AL,30.808331,-88.073061,Y,1,0,0,0,0,0,0,1,0,1,0,1
F,08,UT0001119296,BOUNTIFUL/WOODS CROSS 5TH S. PCE PLUME,"500 SOUTH 800 WEST, BOUNTIFUL/WOODS CROS",BOUNTIFUL,UT,40.887689,-111.904342,N,0,0,0,0,0,0,0,0,1,0,0,1
F,04,ALD981868466,AMERICAN BRASS INC.,HIGHWAY 134 WEST,HEADLAND,AL,31.325,-85.404167,Y,0,0,0,0,0,0,0,0,0,0,0,1
F,08,UT0001277359,INTERMOUNTAIN WASTE OIL REFINERY,995 SOUTH 500 WEST,BOUNTIFUL,UT,40.879358,-111.890792,Y,0,0,0,0,0,0,0,0,0,0,0,1
F,04,ALD983166299,TRIANA/TENNESSEE RIVER,USAMICOM DRSMI KL,LIMESTONE/MORGAN,AL,34.6235032,-86.694499,Y,0,0,0,0,0,0,0,0,1,0,0,0
D,08,UT0002240158,EUREKA MILLS,1.25 MILE W OF THE UTAH-JUAB COUNTY LINE,EUREKA,UT,39.955556,-112.115556,Y,0,0,0,0,0,0,0,0,1,1,0,1
F,06,ARD000023440,"VERTAC, INC.",MARSHALL RD,JACKSONVILLE,AR,34.878,-92.1312,Y,0,0,0,0,0,0,0,0,1,0,0,1
F,06,ARD008049207,MACMILLAN RING FREE OIL,MACMILLAN ROAD OFF ARKANSAS HIGHWAY 335,NORPHLET,AR,33.30836,-92.65688,N,0,0,0,0,0,0,0,0,1,0,0,1
F,08,UT0002391472,JACOBS SMELTER,NEAR INTERSECTION OF SMITH & JOHNSON STS,STOCKTON,UT,40.422185,-112.385736,N,1,0,0,0,0,0,0,0,0,0,1,0
F,06,ARD008052508,"POPILE, INC.",SOUTHFIELD RD. APPROX. 1/2 MI S OF CITY,EL DORADO,AR,33.1825,-92.673333,Y,0,0,0,0,0,0,0,0,1,1,0,1
D,06,ARD035662469,GURLEY PIT,1 MI N OF EDMONDSON,EDMONDSEN,AR,35.1209,-90.3116,Y,0,0,0,0,0,0,0,0,1,1,0,0
F,08,UTD000716399,WASATCH CHEMICAL CO. (LOT 6),1979 S 7TH W,SALT LAKE CITY,UT,40.729002,-111.909924,Y,0,0,0,0,0,0,0,0,1,1,0,1
F,06,ARD042755231,OUACHITA NEVADA WOOD TREATER,N OF HWY 368 APPROX. 1/4 MI N OF READER,READER,AR,33.759453,-93.104258,Y,0,0,0,0,0,0,0,0,0,0,1,1
D,08,UTD081834277,MIDVALE SLAG,"JORDAN RIVER, 6400 SOUTH, 700 WEST",MIDVALE,UT,40.62154,-111.916014,Y,0,0,0,0,0,0,0,0,0,1,0,1
D,08,UTD093119196,PETROCHEM RECYCLING CORP./EKOTEK PLANT,1628 N CHICAGO ST,SALT LAKE CITY,UT,40.80319,-111.917713,Y,0,0,0,0,0,0,0,0,0,0,0,1
F,06,ARD049658628,MOUNTAIN PINE PRESSURE TREATING,HIGHWAY 28,PLAINVIEW,AR,34.984167,-93.302222,Y,0,0,0,0,0,0,0,0,1,0,0,1
D,08,UTD093120921,INTERNATIONAL SMELTING AND REFINING,2.5 MILES NE OF TOOELE,TOOELE,UT,40.55269,-112.227965,Y,1,0,0,0,0,0,0,0,0,0,1,0
D,08,UTD980635452,ROSE PARK SLUDGE PIT,1420 N 1100 W,SALT LAKE CITY,UT,40.799952,-111.92288,Y,0,0,0,0,0,0,0,0,0,1,0,1
D,06,ARD059636456,FRIT INDUSTRIES,INDUSTRIAL PARK,WALNUT RIDGE,AR,36.105,-90.941669,N,0,0,0,0,0,0,0,0,1,0,0,1
D,08,UTD980667208,MONTICELLO RADIOACTIVELY CONTAMINATED PROPERTIES,9 N 3RD E ST,MONTICELLO,UT,37.871092,-109.337034,Y,0,0,0,0,0,0,0,0,0,0,1,0
F,08,UTD980667240,UTAH POWER & LIGHT/AMERICAN BARREL CO.,600 W SOUTH TEMPLE,SALT LAKE CITY,UT,40.770342,-111.90658,Y,0,0,0,0,0,0,0,0,0,0,0,1
F,06,ARD084930148,"ARKWOOD, INC.",S. OF CITY @ CRICKETT RR JUNC.,OMAHA,AR,36.445,-93.1964,Y,0,0,0,0,0,0,0,0,0,0,0,1
F,04,FLD004092532,STAUFFER CHEMICAL CO (TAMPA),ORIENT RD & 10TH AV & TAMPA BYPASS CANAL,TAMPA,FL,27.963056,-82.370556,Y,0,0,0,1,1,0,1,1,1,0,0,1
F,08,UTD980718670,PORTLAND CEMENT (KILN DUST 2 & 3),1000 SO. REDWOOD ROAD,SALT LAKE CITY,UT,40.747464,-111.943991,Y,0,0,0,0,0,0,0,0,1,0,0,1
F,06,ARD092916188,MID-SOUTH WOOD PRODUCTS,HWY 71 SOUTH,MENA,AR,34.5697,-94.2566,Y,0,0,0,0,0,0,0,0,0,0,1,0
F,04,FLD004119681,HOLLINGSWORTH SOLDERLESS TERMINAL,700 NW 57TH PLACE,FORT LAUDERDALE,FL,26.198331,-80.152219,Y,0,0,0,0,1,0,0,1,1,1,0,1
D,08,UTD980951388,SHARON STEEL CORP. (MIDVALE TAILINGS),"7800 SOUTH, 700 WEST",MIDVALE,UT,40.607022,-111.910576,Y,0,0,0,0,0,0,0,0,0,0,0,1
D,06,ARD980496186,CECIL LINDSEY,SEC 32 T12N R2W,NEWPORT,AR,35.6349,-91.2255,Y,0,0,0,0,0,0,0,0,1,1,0,1
D,04,FLD004126520,STANDARD AUTO BUMPER CORP.,2500 WEST 3RD COURT,HIALEAH,FL,25.844444,-80.289721,Y,0,0,0,0,1,0,0,1,1,0,0,1
D,08,UTD988075719,DAVENPORT AND FLAGSTAFF SMELTERS,1 MILE W OF INTERSECTION USH 209 AND 210,SANDY,UT,40.573611,-111.791944,Y,0,0,0,0,0,0,0,0,1,1,0,1
D,06,ARD980496368,INDUSTRIAL WASTE CONTROL,BONANZA ROAD,FORT SMITH,AR,35.2402,-94.3525,Y,0,0,0,0,0,0,0,0,0,0,0,1
F,04,FLD004145140,AIRCO PLATING CO.,3636 NW 46TH STREET,MIAMI,FL,25.8152,-80.2559,Y,0,0,0,0,1,0,0,1,1,0,0,1
D,06,ARD980496723,SOUTH 8TH STREET LANDFILL,SOUTH EIGHTH STREET,WEST MEMPHIS,AR,35.124444,-90.169444,Y,0,0,0,0,0,0,0,0,1,0,0,0
F,08,UTN000802654,FIVE POINTS PCE PLUME,APPROX. 1500 SOUTH & STATE HIGHWAY 106,WOODS CROSS/BOUNTIFUL,UT,40.874243,-111.885892,N,0,0,0,0,0,0,0,0,0,0,0,1
D,04,FLD004146346,WOODBURY CHEMICAL CO. (PRINCETON PLANT),13920 SW 248TH ST,PRINCETON,FL,25.5367,-80.4124,Y,0,0,0,0,1,0,0,1,0,0,0,1
F,06,ARD980745665,MIDLAND PRODUCTS,1/2 MI E ON HIGHWAY 10,OLA/BIRTA,AR,35.025,-93.203889,Y,0,0,0,0,0,0,0,0,0,0,0,1
F,08,UTN000802704,US MAGNESIUM,15 MILES N OF ROWLEY EXIT ON I-80,TOOELE COUNTY,UT,40.915581,-112.734253,N,0,0,0,0,0,0,0,0,0,0,1,0
D,04,FLD004574190,"B&B CHEMICAL CO., INC.",875 W 20TH ST,HIALEAH,FL,25.839581,-80.300139,Y,0,1,1,1,1,0,0,1,1,0,0,1
D,06,ARD980809941,JACKSONVILLE MUNICIPAL LANDFILL,GRAHAM RD,JACKSONVILLE,AR,34.863331,-92.071661,Y,0,0,0,0,0,0,0,0,1,0,0,1
F,04,FLD008161994,"AMERICAN CREOSOTE WORKS, INC. (PENSACOLA PLANT)",701 S J ST,PENSACOLA,FL,30.404719,-87.236661,N,0,0,0,0,1,0,0,1,1,0,0,1
F,03,VAD003117389,SAUNDERS SUPPLY CO.,KINGS HWY BY CRITTENDEN & GODW,CHUCKATUCK,VA,36.86055,-76.581669,Y,0,0,0,0,0,0,0,1,1,0,0,1
D,06,ARD980864110,MONROE AUTO EQUIPMENT CO. (PARAGOULD PIT),HWY 358 2 1/2 MI W OF TOWN,PARAGOULD,AR,36.020831,-90.575,Y,0,0,0,0,0,0,0,0,0,0,0,1
F,04,FLD008168346,ESCAMBIA WOOD - PENSACOLA,3910 N PALAFOX ST.,PENSACOLA,FL,30.4553,-87.2317,N,0,0,0,0,0,0,0,0,0,0,0,1
F,03,VAD003125374,GREENWOOD CHEMICAL CO.,PO BOX 26 OFF STATE RTE 690,NEWTOWN,VA,38.044719,-78.786389,Y,0,0,0,0,0,0,0,0,0,0,0,1
D,06,ARD981055809,ROGERS ROAD MUNICIPAL LANDFILL,ROGER RD 2/10MI S OF GRAHAM RD,JACKSONVILLE,AR,34.8627,-92.0778,Y,0,0,0,0,0,0,0,0,1,0,0,1
F,04,FLD010596013,STAUFFER CHEMICAL CO. (TARPON SPRINGS),877 ANCLOTE BOULEVARD,TARPON SPRINGS,FL,28.166666,-82.775694,N,0,1,1,1,1,0,1,1,1,1,0,1
F,03,VAD003127578,SALTVILLE WASTE DISPOSAL PONDS,168 PERRYVILLE RD,SALTVILLE,VA,36.883339,-81.783331,N,0,0,0,0,0,0,0,0,1,1,0,1
F,06,ARD990660649,CEDAR CHEMICAL CORPORATION,49 PHILLIPS ROAD 311 (HIGHWAY 242 SOUTH),WEST HELENA,AR,34.518611,-90.6525,N,0,0,0,0,0,0,0,0,0,1,0,1
F,04,FLD012978862,ALARIC AREA GW PLUME,NEAR N. 71ST STREET AND 14TH AVENUE,TAMPA,FL,27.964083,-82.375139,Y,0,0,0,0,0,0,0,1,0,0,0,1
F,03,VAD007972482,L.A. CLARKE & SON,ROUTE 608,SPOTSYLVANIA,VA,38.236111,-77.4325,N,0,0,0,0,0,0,0,0,1,0,0,1
D,09,ASD980637656,TAPUTIMU FARM,TAPUTIMU ISLAND OF TUTUILA,PAGO PAGO,AS,-14.3601,-170.772,Y,0,1,1,1,1,0,0,0,1,0,0,1
D,04,FLD020536538,ANACONDA ALUMINUM CO./MILGO ELECTRONICS CORP.,3630 NW 76TH ST,MIAMI,FL,25.843061,-80.256531,Y,0,0,0,0,1,0,0,1,1,0,0,1
F,03,VAD042916361,"ARROWHEAD ASSOCIATES, INC./SCOVILL CORP.",RTE 3,MONTROSS,VA,38.086669,-76.791111,Y,0,0,0,0,0,0,0,0,0,0,0,1
F,09,AZ0000309013,IRON KING MINE - HUMBOLDT SMELTER,"PARTS OF SECS 15,16&22, TWP 13N, RNG 1E",Dewey-Humboldt,AZ,34.5,-112.25,N,1,0,0,0,0,0,0,0,0,0,0,1
F,04,FLD032544587,"PEPPER STEEL & ALLOYS, INC.",11100 NW S RIVER DR,MEDLEY,FL,25.873611,-80.353331,Y,0,0,1,1,1,0,0,1,1,0,0,1
F,03,VAD049957913,"C & R BATTERY CO., INC.",1320 BELLWOOD RD,CHESTERFIELD COUNTY,VA,37.418,-77.415,Y,0,1,1,1,1,0,1,1,1,1,0,1
F,09,AZD008399263,APACHE POWDER CO.,1436 S APACHE POWDER RD,SAINT DAVID,AZ,31.88,-110.24,Y,0,0,0,0,0,0,0,0,0,0,0,1
F,04,FLD032728032,SANFORD DRY CLEANERS,121 SOUTH PALMETTO AVENUE,SANFORD,FL,28.811217,-81.265606,Y,0,0,0,0,0,0,0,0,1,1,0,1
F,03,VAD059165282,"CULPEPER WOOD PRESERVERS, INC.",RTE 666,CULPEPER,VA,38.483331,-77.96,N,0,0,0,0,0,0,0,0,0,0,0,1
F,09,AZD009004177,"MOTOROLA, INC. (52ND STREET PLANT)",5005 E MCDOWELL RD,PHOENIX,AZ,33.461669,-111.9708,N,0,0,0,0,0,0,0,0,0,1,0,0
F,04,FLD039049101,KERR-MCGEE CHEMICAL CORP - JACKSONVILLE,1611 TALLEYRAND AVENUE,JACKSONVILLE,FL,30.3442,-81.6265,N,0,1,1,1,1,0,0,1,1,1,0,1
D,09,AZD980496780,NINETEENTH AVENUE LANDFILL,19TH AVE,PHOENIX,AZ,33.416669,-112.0917,Y,1,0,0,0,0,0,0,0,1,1,0,0
D,04,FLD041140344,PARRAMORE SURPLUS,US HWY 90 W,MOUNT PLEASANT,FL,30.660689,-84.69375,Y,1,0,0,0,0,0,0,0,1,0,0,1
F,03,VAD070358684,"AVTEX FIBERS, INC.",404 KENDRICK LANE,FRONT ROYAL,VA,38.925561,-78.211669,Y,0,0,0,0,0,0,0,0,1,1,0,1
F,09,AZD980695902,PHOENIX-GOODYEAR AIRPORT AREA,BETWEEN LWR BUCKEYE ROAD & VAN BUREN,GOODYEAR,AZ,33.429719,-112.3653,N,0,0,0,0,0,0,0,0,0,1,0,0
F,03,VAD071040752,"RENTOKIL, INC. (VIRGINIA WOOD PRESERVING DIVISION)",OAKVIEW AVE & PEYTON STS,RICHMOND,VA,37.635831,-77.503611,Y,0,0,0,0,0,0,0,0,0,0,0,1
D,04,FLD041184383,"WILSON CONCEPTS OF FLORIDA, INC.",1408 SW 8TH STREET,POMPANO BEACH,FL,26.218675,-80.142768,Y,0,0,0,0,1,0,0,1,1,1,0,1
F,09,AZD980695969,INDIAN BEND WASH AREA,MCDOWELL RD & HAYDEN,SCOTTSDALE,AZ,33.466669,-111.9083,Y,0,0,0,0,0,0,0,0,0,0,0,1
D,04,FLD041495441,ALPHA CHEMICAL CORP.,4620 N GALLOWAY RD,LAKELAND,FL,28.100831,-82.009719,Y,0,0,0,0,0,0,0,0,1,1,0,1
F,03,VAD077923449,KIM-STAN LANDFILL,VA ROUTE 696,SELMA,VA,37.800278,-79.861667,Y,0,0,0,0,0,0,0,0,1,1,0,1
F,09,AZD980735666,HASSAYAMPA LANDFILL,OLD WICKENBURG RD,HASSAYAMPA,AZ,33.368331,-112.7483,Y,0,0,0,0,0,0,0,0,0,1,0,0
F,04,FLD042110841,LANDIA CHEMICAL COMPANY,1405 WEST OLIVE STREET,LAKELAND,FL,28.039444,-81.979167,N,0,0,0,0,0,0,0,0,1,0,0,1
F,03,VAD089027973,BUCKINGHAM COUNTY LANDFILL,ST RTE 640 W OF US RTE 15,BUCKINGHAM,VA,37.514169,-78.516669,Y,0,0,0,0,0,0,0,0,0,0,0,1
D,09,AZD980735724,MOUNTAIN VIEW MOBILE HOME ESTATES,RTE 77,GLOBE,AZ,33.3728,-110.7332,Y,1,0,0,0,0,0,0,0,0,1,0,1
F,05,IND982073785,LUSHER STREET GROUND WATER CONTAMINATION,IN THE VICINITY OF 1619 AVALON STREET,Elkhart,IN,41.672922,-85.996225,N,0,0,0,0,0,0,0,0,1,0,0,1
F,04,FLD043861392,SHERWOOD MEDICAL INDUSTRIES,2010 HWY 92,DELAND,FL,29.060831,-81.265,Y,1,0,0,0,0,0,0,0,1,0,0,1
F,03,VAD123933426,FORMER NANSEMOND ORDNANCE DEPOT,STATE ROUTE 135,SUFFOLK,VA,36.899722,-76.434722,N,0,0,0,1,1,0,0,1,1,1,0,1
F,09,AZD980737530,TUCSON INTERNATIONAL AIRPORT AREA,NOGALES HWY,TUCSON,AZ,32.105561,-110.9333,N,0,0,0,0,0,0,0,0,0,0,0,1
F,05,INN000508142,JACOBSVILLE NEIGHBORHOOD SOIL CONTAMINATION,MAIN AND ILLINOIS,EVANSVILLE,IN,37.979297,-87.563989,N,0,0,0,0,0,0,0,0,0,0,0,1
F,04,FLD045459526,SOLITRON MICROWAVE,5675 SE Grouper Ave,STUART,FL,27.136667,-80.199167,Y,0,0,0,0,1,0,0,1,1,0,0,1
F,03,VAD980539878,"H & H INC., BURN PIT",10 MILES N RTE 33,FARRINGTON,VA,37.7243,-77.5857,Y,0,0,0,0,0,0,0,0,0,0,0,1
F,09,CA0001576081,AMCO CHEMICAL,1414 THIRD STREET,OAKLAND,CA,37.8025,-122.29375,N,0,0,0,0,1,0,0,0,0,0,0,1
F,05,INN000508642,GARDEN CITY GROUND WATER PLUME,Intersection of Jonesville Road (State Road 11),GARDEN CITY,IN,39.186075,-85.930472,N,0,0,0,0,0,0,0,0,1,1,0,1
F,04,FLD049985302,ZELLWOOD GROUND WATER CONTAMINATION,803 JONES AVE,ZELLWOOD,FL,28.73195,-81.613331,Y,1,0,0,0,0,0,0,0,1,0,0,1
F,03,VAD980551683,ABEX CORP.,RANDOLPH + GREEN ST,PORTSMOUTH,VA,36.8265,-76.3045,N,0,0,0,0,1,0,1,1,1,1,0,0
F,09,CA0001900463,NEW IDRIA MERCURY MINE,"TOWNSHIP: 17S, RANGE: 12E",IDRIA,CA,36.418392,-120.672511,N,1,0,0,0,0,0,0,0,0,0,0,1
F,05,INN000508678,PIKE AND MULBERRY STREETS PCE PLUME,INTERSECTION OF PIKE AND MULBERRY STREET,MARTINSVILLE,IN,39.428661,-86.431789,N,0,0,0,0,0,0,0,0,0,1,0,1
D,03,VAD980552095,DIXIE CAVERNS COUNTY LANDFILL,RTE 778,SALEM,VA,37.259719,-80.193611,Y,0,0,0,0,0,0,0,0,0,0,0,1
F,04,FLD050432251,FLORIDA STEEL CORP.,18300 SW Warfield Blvd.,INDIANTOWN,FL,27.041111,-80.506111,Y,1,0,0,0,0,1,0,0,0,0,0,1
F,09,CA1141190578,KLAU/BUENA VISTA MINE,344 KLAU MINE RD.,PASO ROBLES,CA,35.6259,-120.8967,N,1,0,0,0,0,0,0,0,0,0,0,1
F,05,INN000509938,ELM STREET GROUND WATER CONTAMINATION,ELM STREET AND HIGHWAY 41,TERRE HAUTE,IN,39.476586,-87.414319,N,0,0,0,0,0,0,0,0,0,0,0,1
F,03,VAD980554984,FIRST PIEDMONT CORP. ROCK QUARRY (ROUTE 719),RTE 360 STATE RD 719,PITTSYLVANIA COUNTY,VA,36.665831,-79.348611,Y,0,0,0,0,0,0,0,0,1,1,0,1
D,04,FLD052172954,BMI-TEXTRON,1121 SILVER BEACH RD,LAKE PARK,FL,26.7937,-80.0738,Y,0,0,0,0,0,0,0,0,1,0,0,1
F,09,CAD000074120,MGM BRAKES,HWY 101 & SANTANA RD,CLOVERDALE,CA,38.784,-123.0109,Y,1,0,0,0,0,0,0,0,0,0,0,1
F,05,INN000510229,LANE STREET GROUND WATER CONTAMINATION,LANE STREET AT COUNTY ROAD 106,ELKHART,IN,41.716847,-85.921006,N,0,0,0,0,0,0,0,0,0,0,0,1
F,03,VAD980705404,U.S. TITANIUM,RTE 151,PINEY RIVER,VA,37.708331,-79.016669,Y,0,0,0,0,0,0,0,0,1,1,0,1
F,04,FLD053502696,HELENA CHEMICAL CO. (TAMPA PLANT),2405 N 71TH ST,TAMPA,FL,27.963931,-82.374813,N,0,0,0,0,0,0,0,1,0,0,0,1
F,05,INN000510399,KEYSTONE CORRIDOR GROUND WATER CONTAMINATION,INTERSECTION OF N. KEYSTONE AVE,INDIANAPOLIS,IN,39.834722,-86.121667,N,0,0,0,0,0,0,0,0,1,1,0,1
F,09,CAD000625731,J.H. BAXTER & CO.,422 MILL ST,WEED,CA,41.4364,-122.3707,Y,0,0,0,0,0,0,0,0,0,0,0,1
F,03,VAD980712913,CHISMAN CREEK,WOLF TRAP RD,YORK COUNTY,VA,37.177,-76.4631,Y,0,0,0,0,0,0,0,1,0,0,0,1
F,05,INN000510479,KOKOMO CONTAMINATED GROUND WATER PLUME,INTERSECTION OF S. ELIZABETH ST. AND E. VAILE AVE,KOKOMO,IN,40.479444,-86.114128,N,0,0,0,0,0,0,0,0,0,1,0,1
F,04,FLD055945653,"CITY INDUSTRIES, INC.",3920 FORSYTH RD,ORLANDO,FL,28.601389,-81.3,Y,0,0,0,0,0,0,0,0,1,0,0,1
D,09,CAD000626176,DEL NORTE PESTICIDE STORAGE,2650 WASHINGTON BLVD,CRESCENT CITY,CA,41.773331,-124.2317,Y,1,0,0,0,0,0,0,0,1,0,0,1
F,05,INN000510915,BROADWAY STREET CORRIDOR GROUNDWATER CONTAMINATION,INTERSECTION OF BROADWAY STREET AND GRAND AVENUE,ANDERSON,IN,40.1184,-85.6789,N,0,0,0,0,0,0,0,0,1,1,0,1
D,03,VAD980712970,MATTHEWS ELECTROPLATING,ROUTE 796,ROANOKE,VA,37.2569,-80.1675,Y,0,0,0,0,0,0,0,0,0,0,0,1
D,04,FLD056116965,PIONEER SAND CO.,5800 Saufley Pines Road,PENSACOLA,FL,30.474169,-87.351389,Y,0,0,0,1,1,0,0,1,1,0,0,1
F,05,INN000510959,FRANKLIN STREET GROUNDWATER CONTAMINATION,INTERSECTION OF S. MONTGOMERY STREET AND W.,SPENCER,IN,39.2849,-86.7645,N,0,0,0,0,0,0,0,0,1,1,0,1
F,09,CAD001864081,WESTINGHOUSE ELECTRIC CORP. (SUNNYVALE PLANT),401 HENDY AVENUE,SUNNYVALE,CA,37.3787,-122.0225,Y,0,0,0,0,0,0,0,0,1,1,0,0
F,05,INSFN0507828,NORTH SHORE DRIVE,NORTH SHORE DRIVE,ELKHART,IN,41.684722,-86.055,N,0,0,0,0,0,0,0,0,1,0,0,1
F,03,VAD980829030,HIDDEN LANE LANDFILL,"OFF OF PERSIMMON LN, ~3/4 MILE N OF RT 7",Sterling,VA,39.056131,-77.424175,N,0,0,0,0,0,0,0,0,0,0,0,1
D,04,FLD062794003,SCHUYLKILL METALS CORP.,402 S WOODROW WILSON DR,PLANT CITY,FL,28.010831,-82.143061,Y,0,0,0,0,0,0,0,0,1,0,0,1
F,09,CAD008242711,MONTROSE CHEMICAL CORP.,20201 S NORMANDIE AVE,TORRANCE,CA,33.848331,-118.2983,N,0,0,0,0,0,0,0,0,0,0,0,1
D,03,VAD980831796,RHINEHART TIRE FIRE DUMP,MT FALLS,FREDERICK COUNTY,VA,39.188333,-78.310429,Y,0,0,0,0,0,0,0,0,1,0,0,1
D,04,FLD070864541,"TRI-CITY OIL CONSERVATIONIST, INC",8767 1/2 N 50TH ST,TAMPA,FL,28.0318,-82.4015,Y,0,0,0,0,0,0,0,0,0,0,0,1
D,05,INT190010876,INTERNATIONAL MINERALS (E. PLANT),LOCKPORT RD,TERRE HAUTE,IN,39.437781,-87.391389,Y,0,0,0,0,0,0,0,0,0,0,0,1
F,09,CAD008339467,JERVIS B. WEBB CO.,9301 RAYO AVE AND 5030 FIRESTONE BLVD,SOUTH GATE,CA,33.950325,-118.178017,N,0,0,0,0,0,0,0,0,0,1,0,0
D,03,VAD980917983,SUFFOLK CITY LANDFILL,UNOBTAINABLE,SUFFOLK,VA,36.6784,-76.5839,Y,0,0,0,0,0,0,0,0,1,0,0,1
F,07,KSD000829846,PESTER REFINERY CO.,N TOPEKA ST,EL DORADO,KS,37.839364,-96.857611,Y,0,0,0,0,0,0,0,0,1,1,0,1
D,04,FLD071307680,GOLD COAST OIL CORP.,2835 SW 71 AVE,MIAMI,FL,25.7434,-80.3112,Y,0,0,0,1,1,0,0,1,1,1,0,1
D,07,KSD007135429,HYDRO-FLEX INC.,2101 NW BRICKYARD RD,TOPEKA,KS,39.087078,-95.725792,Y,0,0,0,0,0,0,0,0,0,1,0,1
F,09,CAD009103318,JASCO CHEMICAL CORP.,1710 VILLA ST,MOUNTAIN VIEW,CA,37.3988,-122.0882,Y,0,0,0,0,0,0,0,0,1,1,0,0
F,03,VAD990710410,"ATLANTIC WOOD INDUSTRIES, INC.",3950 ELM ST,PORTSMOUTH,VA,36.8065,-76.299,N,0,1,1,1,1,0,1,1,1,1,0,1
F,04,FLD076027820,MIAMI DRUM SERVICES,6601 NW 72nd Avenue,MIAMI,FL,25.837219,-80.313061,Y,0,0,0,0,1,0,0,1,0,1,0,1
D,07,KSD007241656,29TH & MEAD GROUND WATER CONTAMINATION,412 E 29TH N 26S 1E SW 1/4 S 33,WICHITA,KS,37.735692,-97.33325,N,0,0,0,0,0,0,0,0,0,1,0,1
D,09,CAD009106220,T.H. AGRICULTURE & NUTRITION CO.,7183 E MCKINLEY AVE,FRESNO,CA,36.764728,-119.660501,Y,0,0,0,0,0,0,0,0,0,1,0,1
F,07,KSD031349624,"CHEMICAL COMMODITIES, INC.",S. KEELER ST,OLATHE,KS,38.878244,-94.805603,Y,0,0,0,0,0,0,0,0,0,0,0,1
F,03,VAN000306115,PECK IRON AND METAL,3850 ELM AVENUE,PORTSMOUTH,VA,36.809464,-76.308822,N,0,1,1,1,1,0,1,1,1,1,0,1
D,04,FLD080174402,"CHEMFORM, INC.",1410 SW 8TH ST,POMPANO BEACH,FL,26.219055,-80.141374,Y,0,0,0,0,1,0,0,1,1,1,0,1
F,07,KSD046746731,ACE SERVICES,345 CONVESSE,COLBY,KS,39.396267,-101.040361,Y,0,0,0,0,0,0,0,0,0,0,1,0
F,09,CAD009106527,MCCORMICK & BAXTER CREOSOTING CO.,1214 W WASHINGTON ST,STOCKTON,CA,37.947851,-121.306635,N,0,0,0,0,0,0,0,0,1,1,0,1
F,07,KSD065735912,"PLATING, INC.",8801 WEST SIXTH STREET,Great Bend,KS,38.346542,-98.84946,N,0,0,0,0,0,0,0,0,0,1,0,0
D,02,VID980651095,ISLAND CHEMICAL CORP/VIRGIN ISLANDS CHEMICAL CORP.,MELVIN-EVANS HIGHWAY (ROUTE 66),CHRISTIANSTED,VI,17.709722,-64.790833,Y,0,0,0,0,0,0,0,0,1,0,0,1
F,04,FLD083111005,FLASH CLEANERS,4131 NORTH FEDERAL HIGHWAY,Pompano Beach,FL,26.2824,-80.0969,Y,0,0,0,0,1,0,0,1,1,1,0,1
D,07,KSD980500789,ARKANSAS CITY DUMP,HWY 166 S,ARKANSAS CITY,KS,37.056317,-97.050025,Y,0,0,0,0,0,0,0,0,0,0,0,1
F,09,CAD009111444,TELEDYNE SEMICONDUCTOR,1300 TERRA BELLA AVE,MOUNTAIN VIEW,CA,37.4108,-122.0797,Y,0,0,0,0,0,0,0,0,1,1,0,0
F,02,VID982272569,TUTU WELLFIELD,TUTU AREA ANNA'S RETREAT,TUTU,VI,18.341667,-64.885,Y,0,0,0,0,0,0,0,0,1,0,0,1
D,04,FLD084535442,MUNISPORT LANDFILL,152ND ST NE & BISCAYNE BLVD,NORTH MIAMI,FL,25.908331,-80.154169,Y,0,0,1,1,1,0,1,1,1,0,0,1
F,07,KSD980631766,OBEE ROAD,OBEE RD,HUTCHINSON,KS,38.063503,-97.857775,Y,1,0,0,0,0,0,0,0,1,1,0,0
D,07,KSD980631980,JOHNS' SLUDGE POND,29TH ST NE OF HYDRAULIC,WICHITA,KS,37.736936,-97.316475,Y,0,0,0,0,0,0,0,0,1,1,0,1
F,09,CAD009112087,"KOPPERS CO., INC. (OROVILLE PLANT)",BAGGETT-MARYSVILLE RD,OROVILLE,CA,39.470831,-121.5643,Y,0,0,0,0,0,0,0,0,0,0,0,1
D,01,VTD000509174,"TANSITOR ELECTRONICS, INC.",WEST RD,BENNINGTON,VT,42.877781,-73.266669,Y,0,0,0,0,0,0,0,0,0,0,0,1
F,04,FLD088787585,MRI CORP (TAMPA),9220 STANNUM STREET,TAMPA,FL,27.96,-82.355833,Y,0,0,0,0,0,0,0,1,1,0,0,1
F,07,KSD980632301,DOEPKE DISPOSAL (HOLLIDAY),HOLLIDAY DR,SHAWNEE MISSION,KS,39.036314,-94.794083,Y,0,0,0,0,0,0,0,0,0,0,0,1
D,07,KSD980686174,BIG RIVER SAND CO.,4900 W 21ST,WICHITA,KS,37.727839,-97.400417,Y,0,0,0,0,0,0,0,0,0,1,0,1
F,09,CAD009138488,"SPECTRA-PHYSICS, INC.",1250 W MIDDLEFIELD RD,MOUNTAIN VIEW,CA,37.40805,-122.0786,Y,0,0,0,0,0,0,0,0,0,1,0,0
F,04,FLD091471904,"TRANS CIRCUITS, INC.",210 NEWMAN ROAD,LAKE PARK,FL,26.795278,-80.073889,Y,0,0,0,0,0,0,0,0,1,0,0,1
F,01,VTD000860239,OLD SPRINGFIELD LANDFILL,WILL DEAN RD,SPRINGFIELD,VT,43.272781,-72.466669,Y,0,0,0,0,0,0,0,0,1,1,0,1
F,07,KSD980741862,CHEROKEE COUNTY,SOUTHEAST PORTION OF THE  STATE OF KS,GALENA,KS,37.079653,-94.724186,N,0,0,0,0,0,0,0,0,0,0,0,1
F,09,CAD009159088,"TRW MICROWAVE, INC (BUILDING 825)",825 STEWART DR,SUNNYVALE,CA,37.3846,-122.0085,Y,0,0,0,0,0,0,0,0,1,1,0,0
D,04,FLD094590916,CALLAWAY & SON DRUM SERVICE,890 EAST LAKE ALFRED DRIVE,LAKE ALFRED,FL,28.098056,-81.714722,Y,0,0,0,0,0,0,0,0,1,1,0,1
F,07,KSD980862726,STROTHER FIELD INDUSTRIAL PARK,NE 1/4 SEC 19 T33S R4E,WINFIELD,KS,37.172031,-97.028919,Y,0,0,0,0,0,0,0,0,1,0,0,1
F,01,VTD003965415,BURGESS BROTHERS LANDFILL,RTE 9,WOODFORD,VT,42.878061,-73.150139,Y,0,0,0,0,0,0,0,0,0,0,0,1
F,07,KSD981710247,57TH AND NORTH BROADWAY STREETS SITE,57TH & N BROADWAY STREETS,WICHITA,KS,37.783636,-97.337547,Y,0,0,0,0,0,0,0,0,1,1,0,1
F,04,FLD098924038,"UNITED METALS, INC.",1690 Highway 71,MARIANNA,FL,30.685833,-85.168056,Y,0,0,0,0,0,0,0,0,1,0,0,1
F,09,CAD009205097,RAYTHEON CORP.,350 ELLIS ST,MOUNTAIN VIEW,CA,37.3975,-122.0533,Y,0,0,0,0,0,0,0,0,0,1,0,0
F,01,VTD048141741,"JARD COMPANY, INC.",259 BOWEN ROAD,BENNINGTON,VT,42.888861,-73.189111,N,0,0,0,0,0,0,0,0,1,1,0,1
F,07,KSD984985929,WRIGHT GROUND WATER CONTAMINATION,7 MILES NE OF DODGE CITY OFF HWY 50/56,WRIGHT,KS,37.780781,-99.889442,Y,0,0,0,0,0,0,0,0,0,0,0,1
F,04,FLD980221857,AGRICO CHEMICAL CO.,118 E FAIRFIELD DR @ I-110,PENSACOLA,FL,30.4512,-87.2256,Y,0,0,0,0,0,0,0,0,0,0,0,1
F,09,CAD009212838,"CTS PRINTEX, INC.",PLYMOUTH & COLONY STS,MOUNTAIN VIEW,CA,37.4165,-122.0872,Y,0,0,0,0,1,0,0,0,1,1,0,0
F,01,VTD069910354,POWNAL TANNERY,ROUTE 346,POWNAL,VT,42.797167,-73.26575,Y,0,0,0,0,0,0,0,0,1,1,0,1
F,07,KSN000705026,FORMER UNITED ZINC & ASSOCIATED SMELTERS,HIGHWAY 54 & KANSAS DRIVE,IOLA,KS,37.92228,-95.3859,N,0,0,0,0,0,0,0,0,1,1,0,1
F,09,CAD009688052,HALACO ENGINEERING COMPANY,6200 PERKINS,OXNARD,CA,34.138889,-119.181944,N,0,0,0,0,1,0,0,0,1,1,0,0
D,04,FLD980494660,BEULAH LANDFILL,ROUTE 9 US HWY 90,PENSACOLA,FL,30.513061,-87.345139,Y,1,0,0,0,0,0,0,1,1,1,0,1
F,01,VTD098352545,COMMERCE STREET PLUME,96 COMMERCE STREET (FORMLY 15 COMMERCE STREET),WILLISTON,VT,44.452583,-73.121389,N,0,0,0,0,0,0,0,0,0,0,0,1
F,04,KYD006370167,B.F. GOODRICH,KY HWY 1523,CALVERT CITY,KY,37.0503,-88.3234,Y,0,0,0,0,0,0,0,0,1,1,0,1
F,09,CAD020748125,CASMALIA RESOURCES,3300 NTU ROAD,CASMALIA,CA,34.863125,-120.544303,N,0,0,0,0,0,0,0,0,0,0,0,1
F,04,FLD980494959,TAYLOR ROAD LANDFILL,TAYLOR RD,SEFFNER,FL,28.009719,-82.29305,Y,1,0,0,0,0,0,0,0,0,0,0,1
D,04,KYD006371074,GENERAL TIRE & RUBBER CO. (MAYFIELD LANDFILL),1 GENERAL ST,MAYFIELD,KY,36.7906,-88.6358,Y,0,0,0,0,0,0,0,0,1,0,0,1
F,01,VTD980520092,BFI SANITARY LANDFILL (ROCKINGHAM),RTE 5,ROCKINGHAM,VT,43.226389,-72.439719,Y,0,0,0,0,0,0,0,0,1,1,0,1
F,04,KYD041981010,AIRCO,HWY 1523,CALVERT CITY,KY,37.0496,-88.3225,Y,0,0,0,0,0,0,0,0,1,1,0,1
F,09,CAD029295706,LORENTZ BARREL & DRUM CO.,1515 S 10TH ST,SAN JOSE,CA,37.318611,-121.8644,Y,0,0,0,0,0,0,0,0,0,0,1,0
F,04,FLD980556351,PICKETTVILLE ROAD LANDFILL,5150 PICKETTVILLE RD,JACKSONVILLE,FL,30.368611,-81.738889,Y,1,0,1,1,1,0,1,1,1,1,0,1
F,04,KYD045738291,"CALDWELL LACE LEATHER CO., INC.",111 E CALDWELL ST,AUBURN,KY,36.8725,-86.746389,Y,0,0,0,0,0,0,0,0,0,0,0,1
D,01,VTD980520118,DARLING HILL DUMP,OFF RTE 114,LYNDON,VT,44.5545,-71.9844,Y,0,0,0,0,0,0,0,0,0,0,1,0
F,09,CAD029452141,SELMA PRESSURE TREATING COMPANY,1735 DOCKERY AVE & ADJOINING,SELMA,CA,36.556669,-119.6017,Y,0,0,0,0,0,0,0,0,0,0,0,1
D,04,KYD049062375,NATIONAL SOUTHWIRE ALUMINUM CO.,JCT KY HWY 271 & 334,HAWESVILLE,KY,37.944999,-86.787778,Y,0,0,0,0,0,0,0,0,1,1,0,1
D,04,FLD980602288,DAVIE LANDFILL,Vista View Park 4001 SW 142nd Ave.,DAVIE,FL,26.0696,-80.3426,Y,0,0,0,0,1,0,0,0,1,0,0,1
F,04,KYD097267413,SMITH'S FARM,PRYOR VALLEY RD,BROOKS,KY,38.0375,-85.733331,Y,0,0,0,0,0,0,0,0,1,0,0,1
F,01,VTD980523062,PINE STREET CANAL,PINE STREET,BURLINGTON,VT,44.466669,-73.218061,Y,0,0,0,0,0,0,0,0,1,0,0,1
F,09,CAD029544731,DEL AMO,DEL AMO BLVD AND VERMONT AVE,LOS ANGELES,CA,33.846639,-118.289472,N,0,0,0,0,0,0,0,0,1,1,0,1
D,04,FLD980602346,VARSOL SPILL,MIAMI INT'L AIRPORT,MIAMI,FL,25.8047,-80.2772,Y,0,0,0,0,1,0,0,1,1,0,0,1
D,04,KYD980500961,A.L. TAYLOR (VALLEY OF DRUMS),ST HWY 1020,BROOKS,KY,38.081939,-85.725,Y,0,0,0,0,0,0,0,0,0,0,0,1
F,04,KYD980501019,BRANTLEY LANDFILL,6875 HWY-85 East,ISLAND,KY,37.44625,-87.156111,Y,0,0,0,0,0,0,0,0,0,0,0,1
F,01,VTD981062441,PARKER SANITARY LANDFILL,LILY POND RD.,LYNDON,VT,44.518611,-71.989439,Y,0,0,0,0,0,0,0,0,0,0,1,0
D,04,FLD980602643,NORTHWEST 58TH STREET LANDFILL,NW 58TH ST,HIALEAH,FL,25.833331,-80.347219,Y,1,0,0,0,0,0,0,0,0,0,0,1
F,09,CAD041472341,INTERSIL INC./SIEMENS COMPONENTS,10900 N TANTAU AVE/19000 HOMESTEAD RD,CUPERTINO,CA,37.3361,-122.0015,Y,0,0,0,0,0,0,0,0,1,1,0,0
F,04,KYD980501076,"GREEN RIVER DISPOSAL, INC.",KELLY CEMETARY RD,MACEO,KY,37.88945,-86.973611,Y,0,0,0,0,0,0,0,0,0,0,0,1
D,04,KYD980501191,HOWE VALLEY LANDFILL,HAWKINS DR,HOWE VALLEY,KY,37.6685,-86.1242,Y,0,0,0,0,0,0,0,0,0,0,0,1
F,01,VTD981064223,BENNINGTON MUNICIPAL SANITARY LANDFILL,OFF HOUGHTON LANE,BENNINGTON,VT,42.922219,-73.197781,Y,0,0,0,0,0,0,0,0,0,0,0,1
D,04,FLD980602767,WHITEHOUSE OIL PITS,ONE HALF MILE N OF HWY 90,WHITEHOUSE,FL,30.3201,-81.8513,Y,0,0,0,0,0,0,0,0,1,1,0,1
F,09,CAD041472986,NATIONAL SEMICONDUCTOR CORP.,2900 SEMICONDUCTOR AVE,SANTA CLARA,CA,37.375281,-121.9989,Y,0,0,0,0,0,0,0,0,0,1,0,0
D,04,KYD980557052,LEE'S LANE LANDFILL,LEES LN @ OHIO RIV,LOUISVILLE,KY,38.191111,-85.883061,Y,0,0,0,0,0,0,0,0,1,1,0,1
F,04,FLD980602882,SAPP BATTERY SALVAGE,COUNTY RD C-280,COTTONDALE,FL,30.728331,-85.3925,Y,0,0,0,0,0,0,0,0,1,0,0,1
F,01,VTD988366571,ELY COPPER MINE,TOWN HIGHWAY 38,VERSHIRE,VT,43.927447,-72.285506,N,0,0,0,0,0,0,0,0,0,0,1,0
F,09,CAD042245001,OMEGA CHEMICAL CORPORATION,12504 AND 12512 E. WHITTIER BOULEVARD,WHITTIER,CA,33.969722,-118.042222,N,0,0,0,0,0,0,0,0,0,1,0,1
F,04,KYD980601975,DISTLER FARM,BLEVINS GAP RD,JEFFERSON COUNTY,KY,38.006939,-85.931111,Y,0,0,0,0,0,0,0,0,1,0,0,0
F,01,VTD988366621,ELIZABETH MINE,MINE ROAD,STRAFFORD,VT,43.823889,-72.328889,N,0,0,0,0,0,0,0,0,0,0,1,0
F,04,KYD980602155,DISTLER BRICKYARD,US HWYS 31 & 60,WEST POINT,KY,37.989719,-85.951389,Y,0,0,0,0,0,0,0,0,1,0,0,1
F,04,FLD980709356,CABOT/KOPPERS,MAIN ST & 23RD AVE,GAINESVILLE,FL,29.675,-82.323061,N,0,0,0,0,0,0,0,0,0,0,0,1
F,09,CAD042728840,APPLIED MATERIALS,3050 BOWERS AVE,SANTA CLARA,CA,37.3777,-121.9777,Y,0,0,0,0,0,0,0,0,0,1,0,0
F,04,KYD980729107,MAXEY FLATS NUCLEAR DISPOSAL,MAXEY FLATS RD,HILLSBORO,KY,38.2608,-83.5692,Y,0,0,0,0,0,0,0,0,0,0,0,1
F,01,VTD988366720,PIKE HILL COPPER MINE,PIKE HILL ROAD,CORINTH,VT,44.057333,-72.306917,N,0,0,0,0,0,0,0,0,0,0,1,0
D,04,FLD980709802,HIPPS ROAD LANDFILL,HIPPS RD,DUVAL COUNTY,FL,30.216939,-81.805561,Y,0,0,0,0,0,0,0,0,0,0,0,1
F,04,KYD980844625,FORT HARTFORD COAL CO. STONE QUARRY,1881 Underwood RD,OLATON,KY,37.538889,-86.702769,Y,0,0,0,0,0,0,0,0,0,0,0,1
F,09,CAD048634059,"ADVANCED MICRO DEVICES, INC.",901 THOMPSON PL,SUNNYVALE,CA,37.3825,-122.0086,Y,0,0,0,0,0,0,0,0,0,1,0,0
F,04,KYD981028350,TRI-CITY DISPOSAL CO.,RTE. 1526 AT THE GRAVEL ROAD,SHEPHERDSVILLE,KY,38.047781,-85.768331,Y,0,0,0,0,0,0,0,0,0,0,0,1
F,10,WA0000026534,PALERMO WELL FIELD GROUND WATER CONTAMINATION,PALERMO AVENUE & O STREET,TUMWATER,WA,47.001667,-122.904167,Y,0,0,0,0,0,0,0,0,1,1,0,1
D,04,KYD981469794,RED PENN SANITATION CO. LANDFILL,SR 362 (ASH AVE),PEEWEE VALLEY,KY,38.2881,-85.4654,Y,0,0,0,0,0,0,0,0,1,0,0,1
D,04,FLD980727820,KASSAUF-KIMERLING BATTERY DISPOSAL,The end of N. 58th St. north of E. Columbus Dr.,TAMPA,FL,27.967219,-82.39,Y,0,0,0,0,0,0,0,1,1,0,0,1
F,09,CAD048645444,BECKMAN INSTRUMENTS (PORTERVILLE PLANT),167 W POPLAR AVE,PORTERVILLE,CA,36.049,-119.0201,Y,0,0,0,0,0,0,0,0,0,1,0,1
D,04,KYD985066380,NEWPORT DUMP,LICKING PIKE AND QUEEN CITY AV,NEWPORT,KY,39.070725,-84.491228,Y,0,0,0,0,0,0,0,0,1,1,0,1
F,10,WA0002329803,LOWER DUWAMISH WATERWAY,RK 2.5 TO RK 10.8,SEATTLE,WA,47.510081,-122.29285,N,0,1,1,1,1,0,0,0,0,0,1,0
F,04,KYD985069954,NATIONAL ELECTRIC COIL CO./COOPER INDUSTRIES,OLD HIGHWAY 119,DAYHOIT,KY,36.843889,-83.371389,Y,0,0,0,0,0,0,0,0,1,1,0,1
F,09,CAD049236201,MONOLITHIC MEMORIES,1165 E ARQUES AVE,SUNNYVALE,CA,37.3816,-121.9968,Y,0,0,0,0,0,0,0,0,0,1,0,0
D,04,FLD980728877,SIXTY-SECOND STREET DUMP,2914 N. 62nd Street,TAMPA,FL,27.969439,-82.386389,Y,0,0,0,0,0,0,0,1,0,0,0,1
D,06,LA0000187518,MALLARD BAY LANDING BULK PLANT,0.6 MI. FROM CAMERON PARISH RD (PR) 109,GRAND CHENIERE,LA,29.934014,-92.655469,Y,1,1,1,1,1,0,1,1,1,1,0,0
F,10,WAD000065508,KAISER ALUMINUM (MEAD WORKS),HAWTHORNE RD-1.2 M FROM DIV.RD,MEAD,WA,47.755,-117.3767,N,0,0,0,0,0,0,0,0,0,0,0,1
D,04,FLD980728935,BROWN WOOD PRESERVING,JCT GOLDKISS BLVD & SNOWMILL,LIVE OAK,FL,30.3025,-83.01305,Y,1,0,0,0,0,0,0,0,1,0,0,1
F,06,LAD000239814,"AMERICAN CREOSOTE WORKS, INC. (WINNFIELD PLANT)",1006 FRONT STREET,WINNFIELD,LA,31.918611,-92.634722,Y,0,0,0,0,0,0,0,0,0,0,1,0
F,09,CAD052384021,"BROWN & BRYANT, INC. (ARVIN PLANT)",600 S DERBY RD,ARVIN,CA,35.203061,-118.822,N,0,0,0,0,0,0,0,0,1,0,0,0
D,06,LAD008149015,SOUTHERN SHIPBUILDING,999 CANULETTE ROAD,SLIDELL,LA,30.2725,-89.800833,Y,1,1,1,1,1,0,1,1,0,0,1,0
F,10,WAD000641548,NORTH MARKET STREET,E 3225 LINCOLN RD,SPOKANE,WA,47.7297,-117.3626,Y,0,0,0,0,0,0,0,0,0,0,0,1
F,04,FLD980798698,PETROLEUM PRODUCTS CORP.,14000 BLOCK PEMBROKE ROAD,PEMBROKE PARK,FL,25.9926,-80.1696,N,0,0,0,0,1,0,0,1,1,1,0,1
F,09,CAD055753370,COOPER DRUM CO.,9316 ATLANTIC AVE,SOUTH GATE,CA,33.946972,-118.179694,N,0,0,0,0,0,0,0,0,0,1,0,0
D,06,LAD008187940,CENTRAL WOOD PRESERVING CO.,N AND S OF STATE HW 959 & EAST OF HW 67,SLAUGHTER,LA,30.758889,-91.009444,Y,0,0,0,0,0,0,0,0,0,0,0,1
F,10,WAD000643577,FMC CORP. (YAKIMA),4 W WASHINGTON AV,YAKIMA,WA,46.566669,-120.4933,Y,0,0,0,0,0,0,0,0,0,0,0,1
D,04,FLD980844179,YELLOW WATER ROAD,1190 YELLOW WATER ROAD,BALDWIN,FL,30.2803,-81.9717,Y,1,0,0,0,0,0,0,0,1,0,0,1
F,06,LAD008434185,SBA SHIPYARD,END of State Hwy 3166 Adj to W Bank Mermentau,JENNINGS,LA,30.160603,-92.612236,N,0,0,1,1,1,0,1,1,1,0,0,1
F,09,CAD061620217,INTEL CORP. (MOUNTAIN VIEW PLANT),365 E MIDDLEFIELD RD,MOUNTAIN VIEW,CA,37.3962,-122.0566,Y,0,0,0,0,0,0,0,0,0,1,0,0
F,06,LAD008473142,MARION PRESSURE TREATING,STATE HIGHWAY 551 NEAR SH 33 JUNCTION,MARION,LA,32.908333,-92.252944,N,0,0,0,0,0,0,0,0,1,0,0,1
F,10,WAD001865450,GENERAL ELECTRIC CO. (SPOKANE APPARATUS SERVICE SHOP),E 4323 MISSION AV,SPOKANE,WA,47.6729,-117.3441,Y,0,0,0,0,0,0,0,0,1,1,0,1
F,04,FLD981014368,"ANODYNE, INC.",1270 NW 165 STREET,NORTH MIAMI BEACH,FL,25.923189,-80.221531,N,0,0,0,0,1,0,0,1,1,1,0,0
F,09,CAD063015887,COAST WOOD PRESERVING,PLANT RD & TAYLOR DR,UKIAH,CA,39.1125,-123.193,N,0,0,0,0,0,0,0,0,1,1,0,1
D,06,LAD052510344,DELATTE METALS,1541 WEINBERGER ROAD,PONCHATOULA,LA,30.4225,-90.410833,Y,0,0,0,0,1,0,1,1,1,1,0,1
F,10,WAD008957243,OESER CO.,730 MARINE DRIVE,BELLINGHAM,WA,48.770278,-122.514444,Y,0,0,0,0,0,0,0,0,0,0,0,1
F,06,LAD057482713,"PETRO-PROCESSORS OF LOUISIANA, INC.",BROOKLAWN DRIVE,SCOTLANDVILLE,LA,30.583331,-91.243331,Y,0,0,0,0,0,0,0,0,1,0,0,1
F,04,FLD981019235,MADISON COUNTY SANITARY LANDFILL,2060 Rocky Ford Road,MADISON,FL,30.501111,-83.39375,Y,1,0,0,0,0,0,0,0,0,0,0,1
F,09,CAD063020143,"VALLEY WOOD PRESERVING, INC.",2237 S GOLDEN STATE BLVD,TURLOCK,CA,37.4727,-120.8239,Y,0,0,0,0,0,0,0,0,0,0,0,1
D,10,WAD009045279,ALCOA (VANCOUVER SMELTER),5509 LOWER RIVER RD,VANCOUVER,WA,45.649439,-122.7318,Y,0,0,0,0,0,0,0,0,1,1,0,1
F,06,LAD058475419,DELTA SHIPYARD,200 DEAN COURT,HOUMA,LA,29.565818,-90.705141,N,0,1,1,1,1,0,1,1,0,0,1,0
F,04,FLD981021470,WINGATE ROAD MUNICIPAL INCINERATOR DUMP,1300 N. W. 34TH AVENUE,FORT LAUDERDALE,FL,26.1444,-80.1847,Y,0,0,0,0,1,0,0,0,1,1,0,1
D,09,CAD065021594,LOUISIANA-PACIFIC CORP.,HWY 70 GEORGIA PACIFIC WAY,OROVILLE,CA,39.4743,-121.5703,Y,1,0,0,0,0,0,0,0,0,0,0,1
F,10,WAD009248287,PACIFIC SOUND RESOURCES,2801 SW FLORIDA ST.,SEATTLE,WA,47.582332,-122.366667,Y,0,1,1,1,1,0,0,0,0,0,1,0
F,06,LAD072606627,"COMBUSTION, INC.",RT 1; NE OF DENHAM SPRINGS,DENHAM SPRINGS,LA,30.5129,-90.8939,Y,0,0,0,0,0,0,0,0,1,1,0,1
F,09,CAD071530380,FRONTIER FERTILIZER,COUNTY ROAD 32A,DAVIS,CA,38.552588,-121.703615,Y,0,0,0,0,0,0,0,0,0,0,0,1
F,04,FLD982130098,CONTINENTAL CLEANERS,798 NORTHWEST 62ND STREET,MIAMI,FL,25.831842,-80.210178,N,0,0,0,0,0,0,0,1,1,0,0,1
F,10,WAD009248295,WYCKOFF CO./EAGLE HARBOR,5350 CREOSOTE PL NE,BAINBRIDGE ISLAND,WA,47.621669,-122.5167,N,0,1,1,1,1,0,0,0,1,0,0,1
D,06,LAD980501456,CLEVE REBER,SEC 36 T10S R3E,SORRENTO,LA,30.155,-90.873339,Y,0,0,0,1,1,0,1,1,1,0,0,0
F,09,CAD092212497,INTEL MAGNETICS,3000 OAKMEAD VILLAGE DR,SANTA CLARA,CA,37.3756,-121.9801,Y,0,0,0,0,0,0,0,0,0,1,0,0
F,04,FLD984184127,FLORIDA PETROLEUM REPROCESSORS,3211 S.W. 50TH AVENUE,FORT LAUDERDALE,FL,26.081944,-80.215556,Y,0,0,0,0,1,0,0,1,1,1,0,1
F,10,WAD009249210,PACIFIC CAR & FOUNDRY CO.,1400 N 4TH ST,RENTON,WA,47.488889,-122.1964,Y,0,0,0,0,0,0,0,0,0,0,1,0
D,06,LAD980745533,OLD INGER OIL REFINERY,HWY 75 4 1/2 MI N OF TOWN,DARROW,LA,30.1647,-90.9955,Y,0,1,1,1,1,0,0,1,1,1,0,0
F,09,CAD095989778,FAIRCHILD SEMICONDUCTOR CORP. (MOUNTAIN VIEW PLANT),"369, 515 N Whisman, 313 Fairchild & 401 National",MOUNTAIN VIEW,CA,37.4012,-122.0542,Y,0,0,0,0,0,0,0,0,0,1,0,0
D,06,LAD980745541,BAYOU SORREL,CNFLNCE PAT BAYOU & UPR GRAND,BAYOU SORREL,LA,30.2244,-91.4095,Y,0,0,0,1,1,0,1,1,1,0,0,0
F,04,FLD984227249,RALEIGH STREET DUMP,WESTERN END OF RALEIGH STREET,TAMPA,FL,27.914417,-82.410861,Y,0,1,1,1,1,0,1,1,1,0,0,0
F,10,WAD009487513,"WESTERN PROCESSING CO., INC.",7215 S 196TH ST,KENT,WA,47.425,-122.2417,Y,0,0,0,0,0,0,0,0,0,0,1,0
F,06,LAD980745632,BAYOU BONFOUCA,BAYOU BONFOUCA,SLIDELL,LA,30.282219,-89.784161,Y,0,1,1,1,1,0,1,1,0,0,1,0
F,09,CAD097012298,FAIRCHILD SEMICONDUCTOR CORP. (SOUTH SAN JOSE PLANT),101 BERNAL ROAD,SAN JOSE,CA,37.2326,-121.7748,Y,0,0,0,0,0,0,0,0,0,0,1,0
D,04,FLD991279894,COLEMAN-EVANS WOOD PRESERVING CO.,101 CELERY ST,WHITEHOUSE,FL,30.313889,-81.842781,Y,0,0,0,0,0,0,0,0,0,0,0,1
F,10,WAD009624453,BOOMSNUB/AIRCO,7608 NORTHEAST 47TH AVENUE,VANCOUVER,WA,45.677222,-122.621667,N,0,0,0,0,0,0,0,0,0,0,0,1
D,06,LAD980749139,"PAB OIL & CHEMICAL SERVICE, INC.","Approx. 3 miles north of Abbeville, LA on US 167",ABBEVILLE,LA,30.0159,-92.1154,Y,0,0,0,0,0,0,0,1,0,0,0,1
D,06,LAD980750137,GULF COAST VACUUM SERVICES,P-7-31 OFF LA335,ABBEVILLE,LA,29.9581,-92.1857,Y,0,0,0,0,1,0,1,1,1,1,0,1
F,09,CAD098229214,ALARK HARD CHROME,2777 MAIN STREET,RIVERSIDE,CA,33.991886,-117.367186,N,0,0,0,0,0,0,0,0,0,0,0,1
D,10,WAD027315621,NORTHWEST TRANSFORMER (SOUTH HARKNESS STREET),107 S HARKNESS,EVERSON,WA,48.9197,-122.3431,Y,0,0,0,0,0,0,0,0,1,1,0,1
F,04,FLN000410232,JJ SEIFERT MACHINE,4202-4212 OLD US HIGHWAY 41,RUSKIN,FL,27.678611,-82.477778,Y,0,0,0,0,0,0,0,1,0,0,0,1
D,06,LAD980879449,DUTCHTOWN TREATMENT PLANT,I10 & HWY 74,ASCENSION PARISH,LA,30.256669,-90.98,Y,0,0,0,0,0,0,0,1,1,1,0,0
D,10,WAD040187890,YAKIMA PLATING CO.,1804 S 3RD AV,YAKIMA,WA,46.5723,-120.5089,Y,0,0,0,0,0,0,0,0,0,0,0,1
F,09,CAD980358832,AEROJET GENERAL CORP.,HWY US 50 & AEROJET RD,RANCHO CORDOVA,CA,38.608331,-121.2,N,1,0,0,0,0,0,0,0,0,0,0,1
F,06,LAD981056997,AGRICULTURE STREET LANDFILL,ABUNDANCE STREET,NEW ORLEANS,LA,29.98866,-90.040165,Y,0,0,0,0,0,0,1,1,1,1,0,0
F,04,FLR000091322,GENERAL DYNAMICS LONGWOOD,1333 NORTH US HIGHWAY 17/92,LONGWOOD,FL,28.71662,-81.32122,N,1,0,0,0,0,0,0,0,1,1,0,1
D,06,LAD981058019,"D.L. MUD, INC.",408 SOUTHEAST ST./LA HWY 335,ABBEVILLE,LA,29.9555,-92.1867,Y,0,0,0,0,1,0,1,1,1,1,0,1
F,10,WAD050075662,LAKEWOOD,"E. OF NEW YORK AVE, S. OF PACIFIC HWY S.",LAKEWOOD,WA,47.14341,-122.51295,Y,0,0,0,0,0,0,0,0,0,0,0,1
F,09,CAD980496863,ATLAS ASBESTOS MINE,LOS GATOS CREEK RD NW OF FRESNO,COALINGA,CA,36.321669,-120.5867,Y,1,0,0,0,0,0,0,0,0,0,0,1
F,06,LAD981522998,MADISONVILLE CREOSOTE WORKS,"STATE HGWY 22, 2.5 MILES W OF CITY",MADISONVILLE,LA,30.427222,-90.198611,Y,0,0,0,0,1,0,0,1,0,0,1,0
F,04,FLSFN0406909,ARKLA TERRA PROPERTY,11706 US HWY 301,THONOTOSASSA,FL,28.057778,-82.3175,N,1,0,0,0,0,0,0,0,0,0,0,1
D,10,WAD053614988,"FRONTIER HARD CHROME, INC.",113 Y ST,VANCOUVER,WA,45.6215,-122.644,Y,0,0,0,0,0,0,0,0,1,0,0,1
D,06,LAD985185107,RUSTON FOUNDRY,1010 BOGAN STREET,ALEXANDRIA,LA,31.29722,-92.439583,Y,0,0,0,0,0,0,0,0,0,0,1,0
D,09,FMD980637987,PCB WASTES,"PALAU,YAP,TRUK,PONAPE,KOSARE",PALAU,FM,7.416667,151.783722,Y,0,0,0,0,0,0,0,0,0,0,1,0
F,09,CAD980498455,CRAZY HORSE SANITARY LANDFILL,350 CRAZY HORSE CANYON ROAD,SALINAS,CA,36.8026,-121.6186,N,1,0,0,0,0,0,0,0,0,0,0,1
F,06,LAN000604293,AMERICAN CREOSOTE DERIDDER,Washington St/Post Plant Rd,DERIDDER,LA,30.831693,-93.276863,N,1,0,0,0,0,0,0,0,0,0,0,1
F,06,LAN000605517,EVR-WOOD TREATING/EVANGELINE REFINING COMPANY,"HWY 97N,1 MILE EAST OF INTERSTATE HWY 10",EVANGELINE,LA,30.248056,-92.6175,N,0,0,1,1,1,0,1,1,1,0,0,0
F,10,WAD057311094,AMERICAN CROSSARM & CONDUIT CO.,99 CHEHALIS AV SW,CHEHALIS,WA,46.656944,-122.968889,Y,0,0,0,0,0,0,0,0,1,1,0,1
D,04,GAD001700699,MONSANTO CORP. (AUGUSTA PLANT),1610 MARVIN GRIFFIN RD,AUGUSTA,GA,33.38945,-81.993061,Y,1,0,0,0,0,0,0,0,1,0,0,1
F,09,CAD980498612,IRON MOUNTAIN MINE,OFF HWY 299 9 MI NW OF,REDDING,CA,40.671669,-122.5278,N,1,0,0,0,0,0,0,0,0,0,0,1
F,06,LAN000607134,COLONIAL CREOSOTE,HICKORY AVE,BOGALUSA,LA,30.768056,-89.863889,N,1,0,0,0,0,0,0,0,0,0,0,1
F,01,MAD000192393,SILRESIM CHEMICAL CORP.,86 TANNER ST,LOWELL,MA,42.628889,-71.313889,Y,0,0,0,0,0,0,0,0,1,0,0,1
D,10,WAD120513957,PESTICIDE LAB (YAKIMA),3706 W NOB HILL RD,YAKIMA,WA,46.5846,-120.5556,Y,0,0,0,0,0,0,0,0,0,0,0,1
F,04,GAD003269578,"WOOLFOLK CHEMICAL WORKS, INC.",E MAIN ST P O BOX 938,FORT VALLEY,GA,32.549581,-83.884161,N,1,0,0,0,0,0,0,0,0,0,0,1
F,01,MAD001002252,"W.R. GRACE & CO., INC. (ACTON PLANT)",50 INDEPENDENCE RD,ACTON,MA,42.45055,-71.427781,Y,0,0,0,0,0,0,0,0,0,0,0,1
F,09,CAD980498695,MCCOLL,ROSECRANS & SUNNY RIDGE,FULLERTON,CA,33.8953,-117.9712,Y,0,0,0,0,0,0,0,0,0,0,0,1
F,10,WAD980511539,HIDDEN VALLEY LANDFILL (THUN FIELD),THUN FLD 17975 MERIDIAN S,PIERCE COUNTY,WA,47.095,-122.2878,Y,0,0,0,0,0,0,0,0,0,0,0,1
F,01,MAD001026319,ATLAS TACK CORP.,PLEASANT ST,FAIRHAVEN,MA,41.635561,-70.89445,Y,0,1,1,1,1,0,1,1,1,1,0,1
F,04,GAD003302676,MACON NAVAL ORDNANCE PLANT,600 GUY PAINE ROAD,MACON,GA,32.777658,-83.639675,N,0,0,0,0,0,0,0,0,0,0,0,1
F,01,MAD001031574,CREESE & COOK TANNERY (FORMER),55 CLINTON AVENUE,DANVERS,MA,42.553111,-70.926722,N,0,1,1,1,1,0,1,1,1,1,0,1
F,09,CAD980636781,PACIFIC COAST PIPE LINES,67 E TELEGRAPH RD,FILLMORE,CA,34.404169,-118.9028,Y,1,0,0,0,0,0,0,0,1,1,0,1
F,10,WAD980511661,MICA LANDFILL,"T24N R44E S11,14",MICA,WA,47.579169,-117.2111,Y,0,0,0,0,0,0,0,0,0,0,0,1
F,01,MAD001041987,BAIRD & MCGUIRE,775 SOUTH ST,HOLBROOK,MA,42.149719,-71.028611,Y,0,0,0,0,0,0,0,0,1,1,0,1
F,04,GAD008212409,CAMILLA WOOD PRESERVING COMPANY,131 EAST BENNETT STREET,CAMILLA,GA,31.2225,-84.20333,Y,1,0,0,0,0,0,0,0,0,0,0,1
F,10,WAD980511745,QUEEN CITY FARMS,S 1/2 SEC 28-MAPLE VALLEY QUAD,MAPLE VALLEY,WA,47.45,-122.0417,Y,0,0,0,0,0,0,0,0,0,0,1,0
D,01,MAD001060805,HATHEWAY & PATTERSON,15 COUNTY ROAD,MANSFIELD,MA,42.038194,-71.2225,Y,0,0,0,0,0,0,0,0,1,1,0,1
F,09,CAD980636914,FRESNO MUNICIPAL SANITARY LANDFILL,SW COR OF JENSEN & W AVE,FRESNO,CA,36.704169,-119.8261,N,0,0,0,0,0,0,0,0,0,0,0,1
F,10,WAD980511778,NORTHSIDE LANDFILL,W 5502 NINEMILE RD,SPOKANE,WA,47.7275,-117.4828,Y,0,0,0,0,0,0,0,0,0,0,0,1
F,01,MAD001197755,WALTON & LONSBURY INC.,78 NORTH AVENUE,ATTLEBORO,MA,41.957778,-71.296944,N,0,0,0,0,0,0,0,0,1,1,0,1
F,04,GAD033582461,ALTERNATE ENERGY RESOURCES INC,2736 WALDEN DR,AUGUSTA,GA,33.454194,-82.036944,Y,0,0,0,0,0,0,0,0,0,0,0,1
F,10,WAD980514541,COLBERT LANDFILL,ELK-CHATTEROY RD,SPOKANE,WA,47.861669,-117.3483,Y,0,0,0,0,0,0,0,0,0,0,0,1
D,09,CAD980638860,CELTOR CHEMICAL WORKS,BETW NORTON FLD & TRINITY RIV,HOOPA,CA,41.1027,-123.6911,Y,1,0,0,0,0,0,0,0,0,0,1,0
F,01,MAD001403104,OLIN CHEMICAL,51 EAMES ST,WILMINGTON,MA,42.528056,-71.153889,N,0,0,0,0,0,0,0,0,0,1,0,1
F,04,GAD042101261,T.H. AGRICULTURE & NUTRITION CO. (ALBANY PLANT),1401 SCHLEY AVE,ALBANY,GA,31.617361,-84.181661,N,0,0,0,0,0,0,0,0,1,0,1,1
F,01,MAD001409408,MICROFAB INC (FORMER),106 HAVERHILL RD (RTE 110),AMESBURY,MA,42.842394,-70.959842,N,0,0,0,0,0,0,0,0,1,0,0,1
F,10,WAD980514608,GREENACRES LANDFILL,LIBERTY LK,SPOKANE COUNTY,WA,47.6627,-117.1169,Y,0,0,0,0,0,0,0,0,0,0,0,1
F,09,CAD980673685,LEVIATHAN MINE,LEVIATHAN MINE,MARKLEEVILLE,CA,38.703889,-119.656111,N,1,0,0,0,0,0,0,0,0,0,1,0
F,01,MAD003809266,CHARLES GEORGE RECLAMATION TRUST LANDFILL,CORNER DUNSTABLE & CUMMINGS RD,TYNGSBOROUGH,MA,42.66945,-71.443339,Y,0,0,0,0,0,0,0,0,0,0,0,1
F,10,WAD980638910,MIDWAY LANDFILL,24800 PACIFIC HWY S.,KENT,WA,47.38,-122.2933,Y,0,0,0,0,0,0,0,0,0,0,1,0
D,04,GAD095840674,"CEDARTOWN INDUSTRIES, INC.",404 S. FURNACE STREET,CEDARTOWN,GA,34.0082,-85.2636,Y,1,0,0,0,0,0,0,0,1,1,0,1
F,01,MAD051787323,IRON HORSE PARK,HIGH ST,BILLERICA,MA,42.583331,-71.265269,N,0,0,0,0,0,0,0,0,0,0,0,1
F,10,WAD980639215,QUENDALL TERMINALS,4503 LK WASHINGTON BLVD N,RENTON,WA,47.533333,-122.2,N,0,0,0,0,1,0,0,0,0,0,1,0
F,09,CAD980677355,SAN GABRIEL VALLEY (AREA 1),PECK RD & REAL,EL MONTE,CA,34.125,-118,N,0,0,0,0,0,0,0,0,0,0,0,1
F,01,MAD062166335,"NUCLEAR METALS, INC.",2229 MAIN STREET,CONCORD,MA,42.441667,-71.421944,N,0,0,0,0,0,0,0,0,1,1,0,1
F,04,GAD099303182,LCP CHEMICALS GEORGIA,4014 ROSS RD,BRUNSWICK,GA,31.189444,-81.508333,N,1,1,1,1,1,0,1,1,1,1,0,1
D,10,WAD980639256,TULALIP LANDFILL,TULALIP INDIAN RESERVATION,MARYSVILLE,WA,48.041667,-122.182222,Y,0,1,1,1,1,0,0,0,1,1,0,0
F,01,MAD076580950,INDUSTRI-PLEX,COMMERCE & ATLANTIC,WOBURN,MA,42.516669,-71.141669,Y,0,0,0,0,0,0,0,0,1,1,0,1
F,09,CAD980736151,"PURITY OIL SALES, INC.",3265 S MAPLE AVE,MALAGA,CA,36.6874,-119.7467,Y,0,0,0,0,0,0,0,0,1,0,0,1
F,10,WAD980639462,SEATTLE MUNICIPAL LANDFILL (KENT HIGHLANDS),NE OF MILITARY RD AND KENT DES MOINES RD,KENT,WA,47.391669,-122.2792,Y,0,0,0,0,0,0,0,0,0,0,1,0
D,04,GAD980495402,CEDARTOWN MUNICIPAL LANDFILL,WEST OF N. TENTH ST AND GIRARD AVE,CEDARTOWN,GA,34.015969,-85.282639,Y,1,0,0,0,0,0,0,0,0,0,0,1
D,01,MAD079510780,CANNON ENGINEERING CORP. (CEC),FIRST ST,BRIDGEWATER,MA,41.9727,-71.0256,Y,0,0,0,0,0,0,0,0,1,0,0,1
D,10,WAD980722789,SILVER MOUNTAIN MINE,"SEC 34, T38N, R26E, WM",LOOMIS,WA,48.745,-119.557,Y,0,0,0,0,0,0,0,0,0,0,1,0
D,04,GAD980496954,POWERSVILLE SITE,GA HWY 49 N,BYRON,GA,32.60889,-83.7936,Y,1,0,0,0,0,0,0,0,1,0,0,1
D,01,MAD980503973,SHPACK LANDFILL,UNION RD,NORTON/ATTLEBORO,MA,41.943331,-71.235,Y,0,0,0,0,0,0,0,0,1,1,0,1
F,09,CAD980736284,INDUSTRIAL WASTE PROCESSING,7140 N HARRISON,FRESNO,CA,36.8425,-119.8094,Y,0,0,0,0,0,0,0,0,0,0,0,1
F,01,MAD980520621,"RE-SOLVE, INC.",N HIXVILLE RD,DARTMOUTH,MA,41.688061,-71.033889,Y,0,0,0,0,0,0,0,0,1,0,0,1
F,10,WAD980722839,HARBOR ISLAND (LEAD),MOUTH OF DUWAMISH RIVER,SEATTLE,WA,47.5794,-122.3522,N,0,0,1,1,1,0,0,0,0,0,1,0
F,04,GAD980556906,HERCULES 009 LANDFILL,BENEDICT RD & ROUTE 25,BRUNSWICK,GA,31.2049,-81.4858,Y,0,0,0,0,0,0,0,1,0,0,0,1
F,09,CAD980737092,PEMACO MAYWOOD,5050 SLAUSON BOULEVARD,MAYWOOD,CA,33.985417,-118.17125,Y,0,0,0,0,0,0,0,0,0,1,0,1
F,01,MAD980520696,SUTTON BROOK DISPOSAL AREA,OFF OF SOUTH STREET,TEWKSBURY,MA,42.598222,-71.183194,Y,0,0,0,0,0,0,0,0,1,1,0,1
F,01,MAD980523336,HAVERHILL MUNICIPAL LANDFILL,OLD GROVELAND RD,HAVERHILL,MA,42.753889,-71.046669,N,0,1,1,1,1,0,1,1,1,1,0,1
D,10,WAD980723506,TOFTDAHL DRUMS,22033 NE 189 ST,BRUSH PRAIRIE,WA,45.7549,-122.4464,Y,0,0,0,0,0,0,0,0,0,0,0,1
F,04,GAD980838619,MATHIS BROTHERS LANDFILL (SOUTH MARBLE TOP ROAD),S MARBLE TOP RD,KENSINGTON,GA,34.797781,-85.377781,Y,1,0,0,0,0,0,0,0,0,0,0,1
D,09,CAD980737613,JIBBOOM JUNKYARD,240 - 260 JIBBOOM ST,SACRAMENTO,CA,38.591669,-121.5033,Y,0,0,0,0,0,0,0,0,1,1,0,1
F,01,MAD980524169,ROSE DISPOSAL PIT,BALANCE ROCK RD,LANESBORO,MA,42.5055,-73.2748,Y,0,0,0,0,0,0,0,0,0,0,1,0
F,10,WAD980726301,"COMMENCEMENT BAY, SOUTH TACOMA CHANNEL",SOUTH TACOMA CHANNEL OF COMMEN,TACOMA,WA,47.229439,-122.4714,Y,0,0,0,0,0,0,0,0,0,0,0,1
D,01,MAD980525232,PLYMOUTH HARBOR/CANNON ENGINEERING CORP.,CORDAGE PARK,PLYMOUTH,MA,41.9796,-70.6854,Y,0,1,1,1,1,0,1,1,1,0,0,1
F,04,GAD981024466,BRUNSWICK WOOD PRESERVING,PERRY LANE ROAD,BRUNSWICK,GA,31.242222,-81.528056,Y,0,0,0,0,1,0,1,1,0,1,0,1
D,09,CAD980816466,SOUTHERN CALIFORNIA EDISON CO. (VISALIA POLEYARD),432 BEN MADDOX WAY,VISALIA,CA,36.333331,-119.2767,Y,0,0,0,0,0,0,0,0,1,1,0,0
D,01,MAD980525240,SALEM ACRES,57 MARLBORO RD,SALEM,MA,42.503,-70.9313,Y,0,0,0,0,0,0,0,0,0,0,0,1
F,10,WAD980726368,"COMMENCEMENT BAY, NEAR SHORE/TIDE FLATS",ADJ TO RUSTON WAY & TIDEFLATS IND. AREA,TACOMA,WA,47.266667,-122.416667,N,0,1,1,1,1,0,0,0,1,0,0,1
D,09,CAD980817217,COALINGA ASBESTOS MINE,PINE CYN 15 MI NW OF,COALINGA,CA,36.31,-120.5283,Y,1,0,0,0,0,0,0,0,0,0,0,1
F,04,GAD990741092,DIAMOND SHAMROCK CORP. LANDFILL,W. GIRARD AVENUE,CEDARTOWN,GA,34.0207,-85.2717,Y,0,0,0,0,0,0,0,0,1,1,0,1
D,01,MAD980670566,NORWOOD PCBS,NEAR RTE 1 & DEAN STREET,NORWOOD,MA,42.180831,-71.1925,Y,0,0,0,0,0,0,0,0,1,1,0,1
D,10,WAD980833974,NORTHWEST TRANSFORMER,6882 MISSION ST,EVERSON,WA,48.8905,-122.3534,Y,0,0,0,0,0,0,0,0,0,0,0,1
F,01,MAD980731335,NEW BEDFORD,ACUSHNET ESTUARY,NEW BEDFORD,MA,41.643171,-70.919887,N,0,1,1,1,1,0,1,1,1,1,0,0
F,09,CAD980817985,SAN GABRIEL VALLEY (AREA 4),STIMSON AVE & OLD VALLEY BLVD,LA PUENTE,CA,34.016669,-117.9583,N,0,0,0,0,0,0,0,0,0,0,0,1
F,04,GAD990855074,FIRESTONE TIRE & RUBBER CO. (ALBANY PLANT),3300 SYLVESTER RD,ALBANY,GA,31.565831,-84.053889,Y,1,0,0,0,0,0,0,0,0,0,0,1
F,01,MAD980731343,SULLIVAN'S LEDGE,HATHAWAY RD,NEW BEDFORD,MA,41.654719,-70.957219,Y,0,0,0,0,0,0,0,0,0,0,0,1
F,10,WAD980836662,CENTRALIA MUNICIPAL LANDFILL,1313 S TOWER,CENTRALIA,WA,46.696669,-122.9633,Y,0,0,0,0,0,0,0,0,1,0,1,1
F,01,MAD980731483,PSC RESOURCES,10 WATER ST,PALMER,MA,42.153331,-72.330281,Y,0,0,0,0,0,0,0,0,1,1,0,1
F,09,CAD980818512,SAN GABRIEL VALLEY (AREA 2),SUNSET & SAN BERNARDINO FREEWAY,BALDWIN PARK,CA,34.073611,-117.9361,N,0,0,0,0,0,0,0,0,0,1,0,0
F,04,GAD991275686,MARZONE INC./CHEVRON CHEMICAL CO.,GOLDEN ROAD,TIFTON,GA,31.4289,-83.5017,N,1,0,0,0,0,0,0,0,1,0,0,1
F,01,MAD980732168,WELLS G&H,ABERJONA RIVER VALLEY,WOBURN,MA,42.494719,-71.130839,N,0,0,0,0,0,0,0,0,1,1,0,1
F,10,WAD980978753,MIDNITE MINE,35 MILES NORTHWEST OF SPOKANE,WELLPINIT,WA,47.9375,-118.094167,N,0,0,0,0,0,0,0,0,0,0,1,0
F,01,MAD980732317,GROVELAND WELLS,JOHNSON CREEK WATERSHED,GROVELAND,MA,42.753331,-71.038889,Y,0,1,1,1,1,0,0,1,1,1,0,1
D,10,WAD980982557,OLD INLAND PIT,N SULLIVAN RD & KIERNAN RD,SPOKANE,WA,47.689719,-117.1983,Y,0,0,0,0,0,0,0,0,0,0,0,1
F,09,CAD980818579,SAN GABRIEL VALLEY (AREA 3),MAIN ST & GAFIELD AVE,ALHAMBRA,CA,34.1,-118.125,N,0,0,0,0,0,0,0,0,0,0,0,1
F,04,GAN000407449,PEACH ORCHARD RD PCE GROUNDWATER PLUME SITE,INTERSECTION OF PEACH ORCHARD ROAD & LUMPKIN ROAD,AUGUSTA,GA,33.421178,-82.015139,Y,0,0,0,0,0,0,0,0,1,0,0,1
F,01,MAD980732341,HOCOMONCO POND,FISHER ST,WESTBOROUGH,MA,42.272781,-71.650831,Y,0,0,0,0,0,0,0,0,1,0,0,1
D,10,WAD981767296,SPOKANE JUNKYARD/ASSOCIATED PROPERTIES,N 3322 COOK ST.,SPOKANE,WA,47.689444,-117.37082,Y,0,0,0,0,0,0,0,0,0,0,0,1
F,09,CAD980884209,HEWLETT-PACKARD (620-640 PAGE MILL ROAD),620 - 640 PAGE MILL RD.,PALO ALTO,CA,37.4214,-122.1434,Y,0,0,0,0,0,0,0,0,0,1,0,0
F,01,MAD982191363,BLACKBURN & UNION PRIVILEGES,SOUTH ST.,WALPOLE,MA,42.138749,-71.251667,N,0,0,0,0,0,0,0,0,1,1,0,1
F,10,WAD988466355,MOSES LAKE WELLFIELD CONTAMINATION,GRANT CO. AIRPORT,MOSES LAKE,WA,47.204722,-119.315556,N,0,0,0,0,0,0,0,0,0,0,0,1
F,04,GAN000410033,ARMSTRONG WORLD INDUSTRIES,4520 BROADWAY ROAD,MACON,GA,32.773497,-83.6516,N,1,0,0,0,0,0,0,0,0,0,0,1
F,01,MAD990685422,NYANZA CHEMICAL WASTE DUMP,MEGUNKO RD,ASHLAND,MA,42.258611,-71.473611,N,0,0,0,0,0,0,0,0,0,0,0,1
D,10,WAD988475158,VANCOUVER WATER STATION #4 CONTAMINATION,5TH + BLANDFORD ST,VANCOUVER,WA,45.6195,-122.622472,Y,0,0,0,0,0,0,0,0,0,1,0,1
F,09,CAD980884357,"WASTE DISPOSAL, INC.",12731 E LOS NIETOS RD,SANTA FE SPRINGS,CA,33.95,-118.055,Y,0,0,0,0,0,0,0,0,0,0,0,1
F,01,MAN000106144,BJAT LLC,300 FISHER STREET,FRANKLIN,MA,42.074417,-71.410806,N,0,0,0,0,0,0,0,0,1,1,0,1
F,09,GUD980637649,ORDOT LANDFILL,SAN CARLOS STREET ORDOT,AGANA,GU,13.439169,144.7474,Y,0,0,0,0,0,0,0,0,1,0,0,1
D,10,WAD988519708,VANCOUVER WATER STATION #1 CONTAMINATION,E. RESERVE AND N.E. FOURTH PLAIN BLVD.,VANCOUVER,WA,45.638471,-122.645417,Y,0,0,0,0,0,0,0,0,0,0,0,1
F,03,MDD000218008,"SPECTRON, INC.",111 PROVIDENCE RD,ELKTON,MD,39.691249,-75.877778,N,0,0,0,0,0,0,0,0,1,0,0,1
F,10,WAD991281874,PASCO SANITARY LANDFILL,KAHLOTUS RD & HWY 12,PASCO,WA,46.255281,-119.0478,N,0,0,0,0,0,0,0,0,0,0,1,0
F,09,CAD980893234,WATKINS-JOHNSON CO. (STEWART DIVISION PLANT),440 KINGS VILLAGE RD,SCOTTS VALLEY,CA,37.051111,-122.029028,Y,0,0,0,0,0,0,0,0,0,0,0,1
F,03,MDD003061447,CENTRAL CHEMICAL (HAGERSTOWN),MITCHELL AVE,HAGERSTOWN,MD,39.656667,-77.723611,N,0,0,0,0,0,0,0,0,0,0,0,1
F,09,HID980637631,DEL MONTE CORP. (OAHU PLANTATION),94-1000 KUNIA RD,KUNIA,HI,21.458333,-158.066667,Y,0,0,0,0,0,0,0,0,0,0,1,0
F,10,WAN001002655,LOCKHEED WEST SEATTLE,3443 W. MARGINAL WAY,SEATTLE,WA,47.583889,-122.3625,N,0,1,1,1,1,0,0,0,0,0,1,0
D,03,MDD064882889,"MID-ATLANTIC WOOD PRESERVERS, INC.",P O BOX 58 SHIPLEY AVE,HARMANS,MD,39.163611,-76.698331,Y,0,0,0,0,0,0,0,0,1,0,0,1
F,09,CAD980893275,SULPHUR BANK MERCURY MINE,SULPHUR BANK ROAD,CLEARLAKE OAKS,CA,39.00555,-122.6703,N,0,0,0,0,0,0,0,0,1,1,0,1
F,03,MDD980504195,BUSH VALLEY LANDFILL,BUSH RD POB 246,ABINGDON,MD,39.467219,-76.26195,Y,0,0,1,1,1,0,1,1,1,1,0,1
F,07,IA0001610963,RAILROAD AVENUE GROUNDWATER CONTAMINATION,12TH & MAPLE,WEST DES MOINES,IA,41.578333,-93.702222,Y,0,0,0,0,0,0,0,0,0,1,1,0
F,10,WAN001002857,MAKAH RESERVATION WARMHOUSE BEACH DUMP,UNNAMED ROAD LEADING TO KOITLAH POINT,NEAH BAY,WA,48.388353,-124.656711,N,0,0,0,0,0,1,0,0,0,0,1,0
F,03,MDD980504344,WOODLAWN COUNTY LANDFILL,FIRE TOWER & WAIBEL RDS.,COLORA,MD,39.641669,-76.09,Y,0,0,0,0,0,0,0,0,0,0,0,1
F,10,WAN001002907,BREMERTON GASWORKS,1725 PENNSYLVANIA AVENUE,BREMERTON,WA,47.578544,-122.642136,N,0,1,1,1,1,0,0,0,1,0,0,1
D,09,CAD980894679,WESTERN PACIFIC RAILROAD CO.,SEC 19 T19N R4E 2 MI S OF,OROVILLE,CA,39.483061,-121.5525,Y,1,0,0,0,0,0,0,0,0,0,0,1
F,03,MDD980691588,LIMESTONE ROAD,LIMESTONE RD OFF RTE 51,CUMBERLAND,MD,39.626389,-78.722219,Y,0,0,0,0,0,0,0,0,0,0,1,0
F,07,IAD000606038,LAWRENCE TODTZ FARM,RR 1,CAMANCHE,IA,41.787781,-90.292639,Y,0,0,0,0,0,0,0,0,1,1,0,1
F,09,CAD980894885,SOUTH BAY ASBESTOS AREA,FT OF LIBERTY ST GUADALUPE RIV,ALVISO,CA,37.429861,-121.9811,Y,0,1,1,1,1,0,0,0,1,0,0,0
D,03,MDD980704852,SOUTHERN MARYLAND WOOD TREATING,STATE ROUTE 235,HOLLYWOOD,MD,38.3589,-76.5882,Y,0,0,0,0,0,0,0,0,0,0,0,1
F,10,WAN001003081,GRAIN HANDLING FACILITY AT FREEMAN,SOUTH 14603 HIGHWAY 27,FREEMAN,WA,47.519528,-117.194297,N,0,0,0,0,0,0,0,0,0,0,0,1
F,09,CAD980894893,SAN FERNANDO VALLEY (AREA 1),NORTH HOLLYWOOD WELLFIELD AREA,NORTH HOLLYWOOD,CA,34.19,-118.3514,N,0,0,0,0,0,0,0,0,1,1,0,1
D,03,MDD980705099,MIDDLETOWN ROAD DUMP,MIDDLETOWN RD,ANNAPOLIS,MD,39.031004,-76.467145,Y,0,0,0,0,0,0,0,0,0,0,0,1
F,07,IAD005279039,"ELECTRO-COATINGS, INC.",911 SHAVER RD NE,CEDAR RAPIDS,IA,41.9953,-91.671389,Y,0,0,0,0,0,0,0,0,1,1,0,1
F,10,WASFN1002174,HAMILTON/LABREE ROADS GW CONTAMINATION,HAMILTON & LABREE ROADS,CHEHALIS,WA,46.623472,-122.933056,N,0,0,0,0,0,0,0,0,1,1,0,1
F,09,CAD980894901,SAN FERNANDO VALLEY (AREA 2),CRYSTAL SPRINGS WELLFIELD AREA,GLENDALE,CA,34.163139,-118.286,N,0,0,0,0,0,0,0,0,0,0,0,1
F,03,MDD980705164,"SAND, GRAVEL AND STONE",RTE 40,ELKTON,MD,39.615281,-75.896389,N,0,0,0,0,0,0,0,0,0,0,0,1
F,05,WID000712950,JANESVILLE ASH BEDS,BLACK BRIDGE RD,JANESVILLE,WI,42.703061,-89.0275,Y,0,0,0,0,0,0,0,0,0,0,0,1
D,07,IAD005291182,JOHN DEERE (OTTUMWA WORKS LANDFILLS),VINE & MADISON,OTTUMWA,IA,41.0025,-92.409719,Y,0,0,0,0,0,0,0,0,0,0,1,0
F,03,MDD980923783,KANE & LOMBARD STREET DRUMS,KANE & LOMBARD STS,BALTIMORE,MD,39.2956,-76.5419,N,0,0,0,0,0,0,0,0,1,1,0,1
F,09,CAD980894976,SAN FERNANDO VALLEY (AREA 4),POLLOCK WELLFIELD,LOS ANGELES,CA,34.112081,-118.2539,N,0,0,0,0,0,0,0,0,1,0,0,1
F,05,WID000713180,MUSKEGO SANITARY LANDFILL,HIGHWAY 24 & CROWBAR ROAD,MUSKEGO,WI,42.8929,-88.1829,Y,0,0,0,0,0,0,0,0,0,0,0,1
F,03,MDD981038334,SAUER DUMP,4225 LYNHURST ROAD,DUNDALK,MD,39.270267,-76.45271,N,0,1,1,1,1,0,1,1,1,1,0,1
D,09,CAD980894984,SAN FERNANDO VALLEY (AREA 3),GLORIETTA WELLFIELD AREA,GLENDALE,CA,34.2276,-118.4135,Y,0,0,0,0,0,0,0,0,0,0,0,1
D,07,IAD022193577,FARMERS' MUTUAL COOPERATIVE,HWY 60 & PINE ST,HOSPERS,IA,43.074169,-95.905,Y,0,0,0,0,0,0,0,0,0,0,1,0
D,05,WID000808568,OMEGA HILLS NORTH LANDFILL,W124 N9451 BOUNDARY ROAD,GERMANTOWN,WI,43.194439,-88.072219,Y,0,0,0,0,0,0,0,0,1,0,0,1
F,03,MDD982364341,"ORDNANCE PRODUCTS, INC.",1079 MECHANICS VALLEY RD,NORTH EAST,MD,39.630833,-75.923889,Y,0,0,0,0,0,0,0,0,1,0,0,1
D,09,CAD981171523,"SOLA OPTICAL USA, INC.",3600 LAKEVILLE HWY,PETALUMA,CA,38.2332,-122.5931,Y,0,0,0,0,0,0,0,0,0,0,0,1
F,05,WID006073225,KOHLER CO. LANDFILL,444 HIGHLAND DRIVE,KOHLER,WI,43.7375,-87.763889,Y,0,0,0,0,0,0,0,0,1,1,0,1
F,03,MDD985366756,DWYER PROPERTY GROUND WATER PLUME,NE OF INT. OF MD RTE 545 AND MD RTE 279,ELKTON,MD,39.612007,-75.844474,N,0,1,1,1,1,0,0,1,1,1,0,1
F,09,CAD981434517,NEWMARK GROUND WATER CONTAMINATION,BUNKER HILL GROUND WATER BASIN,SAN BERNARDINO,CA,34.171811,-117.3131,N,0,0,0,0,0,0,0,0,1,1,0,0
F,07,IAD039954300,PCE FORMER DRY CLEANER,1205 East 7th Street,ATLANTIC,IA,41.403717,-94.995764,N,0,0,0,0,0,0,0,0,0,0,0,1
F,05,WID006100275,"OCONOMOWOC ELECTROPLATING CO., INC.",W2573 OAK STREET,ASHIPPUN,WI,43.2141,-88.5221,Y,0,0,0,0,0,0,0,0,1,1,0,1
D,01,MED042143883,"UNION CHEMICAL CO., INC.",RTE 17,SOUTH HOPE,ME,44.21444,-69.189027,Y,0,0,0,0,0,0,0,0,0,0,0,1
F,09,CAD981436363,UNITED HECKATHORN CO.,8TH & WRIGHT,RICHMOND,CA,37.9226,-122.3654,N,0,1,1,1,1,0,0,0,1,1,0,1
F,01,MED980504393,SACO MUNICIPAL LANDFILL,FOSS RD,SACO,ME,43.5302,-70.4815,Y,0,0,0,0,0,0,0,0,1,0,0,1
D,09,CAD981995947,RALPH GRAY TRUCKING CO.,SOWELL AVE & GOLDEN WEST ST,WESTMINSTER,CA,33.75,-118,Y,0,0,0,0,0,0,0,0,1,1,0,0
D,07,IAD042581256,AIDEX CORP.,I-29 & HIGHWAY 370,MINEOLA,IA,41.143839,-95.813556,Y,0,0,0,0,0,0,0,0,0,0,1,0
F,05,WID006176945,PENTA WOOD PRODUCTS,"8682 STATE RD 70, DANIELS TOWNSHIP",DANIELS,WI,45.784508,-92.431204,Y,0,0,0,0,0,0,0,0,0,0,0,1
F,01,MED980504435,WINTHROP LANDFILL,ANNABESSACOOK RD,WINTHROP,ME,44.275831,-69.988331,Y,0,0,0,0,0,0,0,0,1,1,0,1
F,09,CAD981997752,MODESTO GROUND WATER CONTAMINATION,NEAR MODESTO,MODESTO,CA,37.6591,-120.9964,N,0,0,0,0,0,0,0,0,0,0,0,1
D,05,WID006183826,NORTHERN ENGRAVING CO.,803 S BLACK RIVER ST,SPARTA,WI,43.934439,-90.81445,Y,0,0,0,0,0,0,0,0,1,1,0,1
D,01,MED980520241,SACO TANNERY WASTE PITS,FLAG POND RD,SACO,ME,43.56055,-70.426389,Y,0,0,0,0,0,0,0,0,1,0,0,1
D,07,IAD065210734,WHITE FARM EQUIPMENT CO. DUMP,S.E. CORNER OF KELLOGG AVENUE AND,CHARLES CITY,IA,43.085,-92.680781,Y,0,0,0,0,0,0,0,0,1,1,0,1
F,09,CAD983618893,LAVA CAP MINE,14501 LAVA CAP MINE ROAD,NEVADA CITY,CA,39.228056,-120.969861,N,1,0,0,0,0,0,0,0,0,0,0,1
F,01,MED980524078,MCKIN CO.,MAYALL RD,GRAY,ME,43.8841,-70.2942,Y,0,0,0,0,0,0,0,0,0,0,1,0
F,05,WID006196174,"NATIONAL PRESTO INDUSTRIES, INC.",3925 N HASTINGS WAY,EAU CLAIRE,WI,44.8601,-91.452,Y,0,0,0,0,0,0,0,0,0,0,0,1
F,09,CAD983650011,ARGONAUT MINE,ARGONAUT LANE,JACKSON,CA,38.353333,-120.78575,N,1,0,0,0,0,0,0,0,0,0,0,1
F,07,IAD069625655,MIDWEST MANUFACTURING/NORTH FARM,101 HIGH ST,KELLOGG,IA,41.746811,-92.893061,Y,0,0,0,0,0,0,0,0,1,0,0,1
F,01,MED980524128,CALLAHAN MINING CORP,HARBORSIDE,BROOKSVILLE (CAPE ROSIER),ME,44.351639,-68.810139,N,0,1,1,1,1,0,1,1,1,0,0,1
D,01,MED980731475,O'CONNOR CO.,"EASTERN AVE, RT 17",AUGUSTA,ME,44.301916,-69.736944,Y,0,0,0,0,0,0,0,0,1,0,0,1
F,05,WID039052626,"MOSS-AMERICAN CO., INC. (KERR-MCGEE OIL CO.)",8716 N GRANVILLE ROAD,MILWAUKEE,WI,43.1772,-88.0417,Y,0,0,0,0,0,0,0,0,1,1,0,1
D,09,CAD990793887,FIRESTONE TIRE & RUBBER CO. (SALINAS PLANT),340 EL CAMINO REAL S,SALINAS,CA,36.6249,-121.5901,Y,0,0,0,0,0,0,0,0,1,0,0,1
D,07,IAD085824688,MID-AMERICA TANNING CO.,PORT NEAL ROAD,SERGEANT BLUFF,IA,42.3375,-96.352219,Y,0,0,0,0,0,0,0,0,1,1,0,1
D,01,MED980732291,PINETTE'S SALVAGE YARD,GARDNER CREEK RD,WASHBURN,ME,46.7782,-68.1701,Y,0,0,0,0,0,0,0,0,0,0,1,0
F,05,WID046536785,"SCRAP PROCESSING CO., INC.",510 W ALLMAN,MEDFORD,WI,45.1456,-90.3529,Y,0,0,0,0,0,0,0,0,0,0,1,0
F,01,MED980915474,EASTLAND WOOLEN MILL,MAIN STREET,CORINNA,ME,44.921667,-69.261111,Y,0,0,0,0,0,0,0,0,0,0,1,0
F,09,CAD990832735,"SYNERTEK, INC. (BUILDING 1)",3050 CORONADO BLVD,SANTA CLARA,CA,37.3773,-121.9719,Y,0,0,0,0,0,0,0,0,1,1,0,0
F,01,MED981073711,EASTERN SURPLUS,ROUTE 191,MEDDYBEMPS,ME,45.038889,-67.358333,Y,0,0,0,0,0,0,0,0,0,0,0,1
F,05,WID052906088,HECHIMOVICH SANITARY LANDFILL,EAST END OF RAASCH HILL ROAD,WILLIAMSTOWN,WI,43.459531,-88.554139,Y,0,0,0,0,0,0,0,0,0,0,0,1
F,09,CAN000905902,SOUTHERN AVENUE INDUSTRIAL AREA,5211 SOUTHERN AVENUE,SOUTH GATE,CA,33.946178,-118.176922,N,0,0,0,0,0,0,0,0,1,1,0,0
F,07,IAD980630487,VOGEL PAINT & WAX CO.,GRANT AVENUE BETWEEN 490TH ST.,MAURICE,IA,42.934439,-96.193339,Y,0,0,0,0,0,0,0,0,0,0,1,0
F,01,MED985466168,WEST SITE/HOWS CORNERS,CAMBELL/SAWYER ROAD,PLYMOUTH,ME,44.740278,-69.182222,Y,0,0,0,0,0,0,0,0,0,0,1,0
F,09,CAN000905945,"ROCKETS, FIREWORKS, AND FLARES SITE",3196 NORTH LOCUST AVENUE,RIALTO,CA,34.153683,-117.416567,N,0,0,0,0,0,0,0,0,0,0,0,1
F,05,WID056247208,LEMBERGER TRANSPORT & RECYCLING,RTE 1 2MI N OF WHITELAW,FRANKLIN TOWNSHIP,WI,44.1655,-87.8448,Y,0,0,0,0,0,0,0,0,0,0,0,1
F,01,MEN000103584,LEEDS METAL,OFF OF BLUE ROCK ROAD,LEEDS,ME,44.237083,-70.08025,N,0,0,0,0,0,0,0,0,0,0,0,1
F,07,IAD980630560,SHAW AVENUE DUMP,SHAW AVE,CHARLES CITY,IA,43.0563,-92.6631,Y,0,0,0,0,0,0,0,0,1,1,0,1
F,09,CAN000906063,BLUE LEDGE MINE,"SECTIONS 34, TOWNSHIP 48 N, RANGE 11 W",ROGUE RIVER-SISKIYOU NF,CA,41.959961,-123.107442,N,1,0,0,0,0,0,0,0,0,0,1,0
F,01,MEN000106078,KEDDY MILL,7 DEPOT STREET,WINDHAM,ME,43.734953,-70.424514,N,0,0,0,0,0,0,0,0,0,0,1,0
F,05,WID058735994,LAUER I SANITARY LANDFILL,W124 N8925 BOUNDARY RD,MENOMONEE FALLS,WI,43.181389,-88.066669,Y,0,0,0,0,0,0,0,0,1,0,0,1
F,09,CAT000612184,INTEL CORP. (SANTA CLARA III),2880 NORTHWESTERN PKWY,SANTA CLARA,CA,37.3737,-121.9717,Y,0,0,0,0,0,0,0,0,1,1,0,0
D,07,IAD980630750,SHELLER-GLOBE CORP. DISPOSAL,AIRPORT RD (34OTH ST) AND 260TH AVENUE,KEOKUK,IA,40.4666,-91.4139,Y,0,0,0,0,0,0,0,0,0,0,0,1
F,05,MI0001119106,AIRCRAFT COMPONENTS (D & L SALES),671 NORTH SHORE DRIVE,BENTON HARBOR,MI,42.126944,-86.454444,Y,0,0,0,0,0,0,0,0,1,1,0,1
F,05,WID078934403,MADISON METROPOLITAN SEWERAGE DISTRICT LAGOONS,1610 MOORLAND RD,BLOOMING GROVE,WI,43.034311,-89.346281,Y,0,0,0,0,0,0,0,0,1,1,0,1
D,09,CAT000646208,LIQUID GOLD OIL CORP.,HOFFMAN BLVD & S 47TH ST,RICHMOND,CA,37.908333,-122.325,Y,0,1,1,1,1,0,0,0,1,1,0,1
D,05,MI0001271535,H & K SALES,BRIDGE STREET,BELDING,MI,43.098611,-85.228333,Y,0,0,0,0,0,0,0,0,1,0,0,1
D,07,IAD980631063,LABOUNTY,910 S GRAND AVE,CHARLES CITY,IA,43.058,-92.6696,Y,0,0,0,0,0,0,0,0,1,1,0,1
F,09,CAT080012024,"OPERATING INDUSTRIES, INC., LANDFILL",900 N POTRERO GRANDE DR,MONTEREY PARK,CA,34.033333,-118.105556,Y,0,0,0,0,0,0,0,0,0,0,0,1
F,05,MID000260281,KENTWOOD LANDFILL,4900 WALMA AVENUE,KENTWOOD,MI,42.8738,-85.5906,Y,0,0,0,0,0,0,0,0,0,0,1,0
F,05,WID083290981,"N.W. MAUTHE CO., INC.",725 SOUTH OUTAGAMIE STREET,APPLETON,WI,44.25555,-88.43,Y,0,0,0,0,0,0,0,0,0,0,0,1
F,09,CAT080012826,STRINGFELLOW,3490 PYRITE ST,MIRA LOMA,CA,34.023056,-117.45833,N,1,0,0,0,0,0,0,0,0,0,0,1
D,07,IAD980632509,RED OAK CITY LANDFILL,US 34 HWY 48 1 MI W ON HWY 34,RED OAK,IA,41.036444,-95.249111,Y,0,0,0,0,0,0,0,0,1,1,0,1
F,05,MID000268136,SPARTA LANDFILL,10322 ALPINE AVENUE,SPARTA TOWNSHIP,MI,43.1525,-85.68195,Y,0,0,0,0,0,0,0,0,0,0,1,0
F,09,CAT080034234,"ADVANCED MICRO DEVICES, INC. (BUILDING 915)",915 DEGUIGNE,SUNNYVALE,CA,37.3868,-122.0066,Y,0,0,0,0,0,0,0,0,1,1,0,0
D,05,MID000605717,BERLIN & FARRO,8322 S MOORISH RD,SWARTZ CREEK,MI,42.904,-83.8348,Y,0,0,0,0,0,0,0,0,0,0,0,1
F,05,WID980511919,HUNTS DISPOSAL LANDFILL,CO LINE RD & FOLEY RD,CALEDONIA,WI,42.835,-87.88,Y,0,0,0,0,0,0,0,0,1,1,0,1
F,08,CO0002259588,VASQUEZ BOULEVARD AND I-70,VASQUEZ BOULEVARD AND 1-70,DENVER,CO,39.774854,-104.962435,N,0,0,0,0,0,0,0,0,0,0,0,1
D,07,IAD980685804,"E.I. DU PONT DE NEMOURS & CO., INC. (COUNTY ROAD X23)",FF X23 3.5 MI S OF,WEST POINT,IA,40.656467,-91.432639,Y,0,0,0,0,0,0,0,0,0,0,0,1
F,05,MID000722439,VELSICOL CHEMICAL CORP. (MICHIGAN),500 N BANKSON STREET,ST. LOUIS,MI,43.410561,-84.618611,Y,0,0,0,0,0,0,0,0,1,0,0,1
F,08,CO0002378230,STANDARD MINE,"COUNTY ROAD 12, RUBY MINING DISITRICT",GUNNISON NATIONAL FOREST,CO,38.880894,-107.072129,N,0,0,0,0,0,0,0,0,0,0,0,1
F,05,MID000724930,SCA INDEPENDENT LANDFILL,BROADWAY & BROOKS,MUSKEGON HEIGHTS,MI,43.201111,-86.1425,Y,0,0,0,0,0,0,0,0,1,0,0,1
F,05,WID980610059,HAGEN FARM,2318 COUNTY TRUNK HIGHWAY A,STOUGHTON,WI,42.9089,-89.1832,Y,0,0,0,0,0,0,0,0,0,0,0,1
F,07,IAD980687933,DES MOINES TCE,SEC 8 & 9 T78N R24W,DES MOINES,IA,41.5781,-93.636,Y,0,0,0,0,0,0,0,0,0,0,1,0
F,08,COD000110254,BRODERICK WOOD PRODUCTS,5600 HURON ST,DENVER,CO,39.803684,-104.998554,Y,0,0,0,0,0,0,0,0,0,0,0,1
F,05,MID000775957,MICHIGAN DISPOSAL SERVICE (CORK STREET LANDFILL),2800 E CORK ST,KALAMAZOO,MI,42.2545,-85.5433,Y,0,0,0,0,0,0,0,0,1,0,0,1
F,05,WID980610141,SAUK COUNTY LANDFILL,LANDFILL ROAD 10 MILE WEST BARABOO,EXCELSIOR,WI,43.5145,-89.8775,Y,0,0,0,0,0,0,0,0,0,0,0,1
F,08,COD007063274,URAVAN URANIUM PROJECT (UNION CARBIDE CORP.),NEAR URAVAN ON HWY 141,URAVAN,CO,38.369015,-108.747527,Y,1,0,0,0,0,0,0,0,0,0,0,1
D,07,IAD980852461,NORTHWESTERN STATES PORTLAND CEMENT CO.,SEC 33 T97N R20W,MASON CITY,IA,43.175,-93.205,Y,0,0,0,0,0,0,0,0,1,1,0,1
D,05,MID002931228,ANDERSON DEVELOPMENT CO.,1415 EAST MICHIGAN STREET,ADRIAN,MI,41.893611,-84.017219,Y,0,0,0,0,0,0,0,0,0,0,1,0
F,05,MID005068143,ELECTROVOICE,600 CECIL STREET,BUCHANAN,MI,41.8206,-86.3545,Y,0,0,0,0,0,0,0,0,0,0,0,1
F,08,COD007431620,CHEMICAL SALES CO.,4661 MONACO ST.,DENVER,CO,39.822695,-104.911952,Y,0,0,0,0,0,0,0,0,0,0,0,1
F,05,WID980610190,RIPON CITY LANDFILL,S OF COUNTY HWY FF,FOND DU LAC COUNTY,WI,43.866806,-88.870556,Y,0,0,0,0,0,0,0,0,1,0,0,1
F,07,IAD980852578,PEOPLES NATURAL GAS CO.,502 E 11TH ST,DUBUQUE,IA,42.505281,-90.658889,Y,0,0,0,0,0,0,0,0,1,1,0,1
F,05,MID005107222,BENDIX CORP./ALLIED AUTOMOTIVE,3737 RED ARROW HIGHWAY,ST. JOSEPH,MI,42.04945,-86.51195,Y,0,0,0,0,0,0,0,0,0,0,0,1
F,08,COD042167858,LINCOLN PARK,2 MI S OF CANON CY,CANON CITY,CO,38.405864,-105.219379,N,0,0,0,0,0,0,0,0,1,0,0,1
F,05,MID005339676,MCGRAW EDISON CORP.,704 N CLARK ST,ALBION,MI,42.252219,-84.733061,Y,0,0,0,0,0,0,0,0,0,0,0,1
D,05,WID980610299,TOMAH ARMORY,1MI NE OF LAKE TOMAH,TOMAH,WI,43.9927,-90.5004,Y,0,0,0,0,0,0,0,0,1,1,0,1
F,07,IAD980969190,MASON CITY COAL GASIFICATION PLANT,"5TH ST, BETWEEN DELAWARE & PENNSYLVANIA",MASON CITY,IA,43.1476,-93.1992,Y,0,0,0,0,0,0,0,0,1,1,0,1
F,08,COD081961518,EAGLE MINE,W OF US HWY 24,MINTURN,CO,39.549005,-106.402863,Y,0,0,0,0,0,0,0,0,0,0,1,0
F,05,MID005340088,"ROTO-FINISH CO., INC.",3700 MILHAM ROAD,KALAMAZOO,MI,42.2292,-85.5443,Y,0,0,0,0,0,0,0,0,0,0,0,1
F,08,COD980499248,LOWRY LANDFILL,4200 S GUN CLUB RD,UNINCORPORATED ARAPAHOE COUNTY,CO,39.646081,-104.709141,Y,0,0,0,0,0,0,0,0,0,0,0,1
F,05,MID005341714,HI-MILL MANUFACTURING CO.,1704 E HIGHLAND RD,HIGHLAND,MI,42.649831,-83.593089,Y,0,0,0,0,0,0,0,0,0,0,0,1
F,05,WID980610307,TOMAH MUNICIPAL SANITARY LANDFILL,WEST 24TH AVENUE,TOMAH,WI,43.9944,-90.522,Y,0,0,0,0,0,0,0,0,1,0,0,1
F,07,IAD981124167,FAIRFIELD COAL GASIFICATION PLANT,101 S 7TH ST,FAIRFIELD,IA,41.0062,-91.9724,Y,0,0,0,0,0,0,0,0,0,0,1,0
F,08,COD980499255,MARSHALL LANDFILL,1600 S 66TH STREET,BOULDER,CO,39.950304,-105.20126,Y,0,0,0,0,0,0,0,0,0,0,0,1
F,05,MID005480900,NORTH BRONSON INDUSTRIAL AREA,135 INDUSTRIAL AVE,BRONSON,MI,41.880281,-85.193339,N,0,0,0,0,0,0,0,0,0,0,0,1
D,08,COD980667075,WOODBURY CHEMICAL CO.,5400 JACKSON ST,COMMERCE CITY,CO,39.795025,-104.945326,Y,0,0,0,0,0,0,0,0,0,0,0,1
F,05,WID980610380,ALGOMA MUNICIPAL LANDFILL,SEC32 T25N R25E TOWN OF AHNAPEE,ALGOMA,WI,44.597,-87.4912,Y,0,0,0,0,0,0,0,0,0,0,1,0
F,05,MID006007306,"ALLIED PAPER, INC./PORTAGE CREEK/KALAMAZOO RIVER",320 EAST ALCOTT STREET,KALAMAZOO,MI,42.303333,-85.576083,N,0,0,0,0,0,0,0,0,1,1,0,1
D,10,IDD000800961,ARRCOM (DREXLER ENTERPRISES),"STATE HIGHWAY 53, 2.8 MI SW OF CY",RATHDRUM,ID,47.7847,-116.9458,Y,0,0,0,0,0,0,0,0,1,0,0,1
F,05,MID006013049,PMC GROUNDWATER,200 W LAKE ST,PETOSKEY,MI,45.376,-84.964,Y,0,0,0,0,0,0,0,0,0,0,1,0
F,08,COD980716955,DENVER RADIUM SITE,VARIOUS PLACES IN DENVER,DENVER,CO,39.716519,-105.005441,Y,0,0,0,0,0,0,0,0,1,1,0,1
F,05,WID980610604,REFUSE HIDEAWAY LANDFILL,SW1/4 OF NW1/4 SEC8 T7N R8E,MIDDLETON,WI,43.086111,-89.584722,Y,0,0,0,0,0,0,0,0,1,1,0,1
F,05,MID006016703,KAYDON CORP.,2860 MCCRACKEN AVE,MUSKEGON,MI,43.2007,-86.2908,Y,0,0,0,0,0,0,0,0,0,0,0,1
F,10,IDD041310707,KERR-MCGEE CHEMICAL CORP. (SODA SPRINGS PLANT),"HIGHWAY 34, 3 MILES N OF CY",SODA SPRINGS,ID,42.687219,-111.5736,Y,0,0,0,0,0,0,0,0,0,0,1,0
F,05,MID006028062,ROCKWELL INTERNATIONAL CORP. (ALLEGAN PLANT),ONE GLASS ST,ALLEGAN,MI,42.536669,-85.85,Y,0,0,0,0,0,0,0,0,0,0,1,0
F,08,COD980717557,"CENTRAL CITY, CLEAR CREEK",NEAR TOWN,IDAHO SPRINGS,CO,39.77182,-105.51817,N,1,0,0,0,0,0,0,0,0,0,1,0
F,10,IDD048340921,BUNKER HILL MINING & METALLURGICAL COMPLEX,SILVER VLY,SMELTERVILLE,ID,47.543061,-116.1617,N,0,0,0,0,0,0,0,0,1,1,0,1
D,05,WID980610620,WHEELER PIT,CO TRK O & CO TRK J,LA PRAIRIE TOWNSHIP,WI,42.666669,-88.98055,Y,0,0,0,0,0,0,0,0,0,0,0,1
F,05,MID006029102,"AMERICAN ANODCO, INC.",28 NORTH BEARDSLEY STREET,IONIA,MI,42.9875,-85.03,Y,0,0,0,0,0,0,0,0,1,0,0,1
F,05,MID006030373,"BOFORS NOBEL, INC.",5025 EVANSTON AVE,MUSKEGON,MI,43.209364,-86.11746,N,0,0,0,0,0,0,0,0,1,0,0,1
F,08,COD980717938,CALIFORNIA GULCH,S OF CY-YAK TUNNEL DOWNSTREAM,LEADVILLE,CO,39.231279,-106.295522,N,0,0,0,0,0,0,0,0,0,0,1,0
D,10,IDD055030852,UNION PACIFIC RAILROAD CO.,300 S HARRISON,POCATELLO,ID,42.8954,-112.4876,Y,0,0,0,0,0,0,0,0,0,0,0,1
F,05,WID980610646,CITY DISPOSAL CORP. LANDFILL,SAND HILL RD,DUNN,WI,42.946389,-89.356939,Y,0,0,0,0,0,0,0,0,1,0,0,1
F,05,MID006031348,PEERLESS PLATING CO.,2554 GETTY STREET,MUSKEGON,MI,43.2056,-86.2237,Y,0,0,0,0,0,0,0,0,1,0,0,1
F,05,MID006522791,ADAM'S PLATING,521 NORTH ROSEMARY,LANSING,MI,42.739439,-84.587781,Y,0,0,0,0,0,0,0,0,0,0,0,1
D,08,COD980717953,SAND CREEK INDUSTRIAL,33RD AND DAHLIA,COMMERCE CITY,CO,39.788216,-104.924898,Y,0,0,0,0,0,0,0,0,0,0,0,1
F,10,IDD081830994,MONSANTO CHEMICAL CO. (SODA SPRINGS PLANT),"HWY 34, 2 MI N OF CY",SODA SPRINGS,ID,42.687031,-111.5878,Y,0,0,0,0,0,0,0,0,0,0,1,0
F,05,WID980614044,JANESVILLE OLD LANDFILL,BLACK BRIDGE ROAD,JANESVILLE,WI,42.702781,-89.023611,Y,0,0,0,0,0,0,0,0,0,0,0,1
F,05,MID017075136,"H. BROWN CO., INC.",2200 TURNER AVENUE NORTHWEST,GRAND RAPIDS,MI,43.003331,-85.678339,Y,0,0,0,0,0,0,0,0,0,0,1,0
F,05,MID017188673,"BARRELS, INC.",1404 NORTH LARCH STREET,LANSING,MI,42.749031,-84.543331,Y,0,0,0,0,0,0,0,0,0,0,0,1
D,08,COD980806277,SMUGGLER MOUNTAIN,SPRUCE STREET,ASPEN,CO,39.193693,-106.80984,Y,0,0,0,0,0,0,0,0,0,0,1,0
D,10,IDD098812878,PACIFIC HIDE & FUR RECYCLING CO.,3575 HWY 30 W,POCATELLO,ID,42.8957,-112.486,Y,0,0,0,0,0,0,0,0,0,0,0,1
D,05,WID980616841,TOMAH FAIRGROUNDS,1MI S OF LAKE TOMAH,TOMAH,WI,43.970811,-90.519839,Y,0,0,0,0,0,0,0,0,1,0,0,1
F,05,MID017418559,GRAND TRAVERSE OVERALL SUPPLY CO.,10725 CHERRY BEND RD,GREILICKVILLE,MI,44.7944,-85.6382,Y,0,0,0,0,0,0,0,0,1,1,0,1
F,05,MID020883609,NORTHERNAIRE PLATING,1002 6TH ST,CADILLAC,MI,44.265,-85.41,Y,0,0,0,0,0,0,0,0,0,0,1,0
F,08,COD981551427,CAPTAIN JACK MILL,"T1N R73 W, SE 1/4 SEC. 12",WARD,CO,40.061319,-105.507611,N,0,0,0,0,0,0,0,0,1,0,0,1
F,10,IDD984666610,EASTERN MICHAUD FLATS CONTAMINATION,"HWY 30, 3 MI W OF CITY",POCATELLO,ID,42.901111,-112.5225,N,0,0,0,0,0,0,0,0,0,0,1,0
D,05,WID980820054,EAU CLAIRE MUNICIPAL WELL FIELD,SEC5 T27N R9W,EAU CLAIRE,WI,44.853331,-91.503331,Y,0,0,0,0,0,0,0,0,1,1,0,1
F,05,MID043681840,KYSOR INDUSTRIAL CORP.,1100 WRIGHT STREET,CADILLAC,MI,44.2568,-85.4226,Y,0,0,0,0,0,0,0,0,0,0,1,0
F,08,COD983778432,SUMMITVILLE MINE,Postal Address is unavailable for the Site,RIO GRANDE COUNTY,CO,37.423917,-106.598491,Y,0,0,0,0,0,0,0,0,0,0,0,1
F,05,IL0000034355,OLD AMERICAN ZINC PLANT,JUNCTION OF 45TH ST AND COOKSON ROAD,FAIRMONT CITY,IL,38.648,-90.099,N,0,0,0,0,0,0,0,0,0,0,1,0
F,05,MID044567162,"THERMO-CHEM, INC.",4331 EVANSTON AVENUE,MUSKEGON,MI,43.210831,-86.136669,Y,0,0,0,0,0,0,0,0,0,0,0,1
F,05,WID980820062,DELAVAN MUNICIPAL WELL #4,SOUTH WRIGHT STREET,DELAVAN,WI,42.631669,-88.623889,Y,0,0,0,0,0,0,0,0,0,0,0,1
F,08,CON000802497,BONITA PEAK MINING DISTRICT,Multiple sources near Animas River headwaters,UNINCORPORATED,CO,37.904037,-107.61663,N,0,0,0,0,0,0,0,0,0,0,1,0
F,05,MID060174240,OTT/STORY/CORDOVA CHEMICAL CO.,500 AGARD RD,DALTON TOWNSHIP,MI,43.303331,-86.256669,Y,0,0,0,0,0,0,0,0,0,0,0,1
F,08,CON000802630,NELSON TUNNEL/COMMODORE WASTE ROCK,NATIONAL FOREST ROAD 503.4,Creede,CO,37.877852,-106.936723,N,0,0,0,0,0,0,0,0,0,0,1,0
F,05,IL0000064782,MATTHIESSEN AND HEGELER ZINC COMPANY,"PARTS OF SECT. 10, 11, 14 & 15, T33N-R1E",LA SALLE,IL,41.34215,-89.083067,N,0,0,0,0,0,0,0,0,1,0,0,1
D,05,MID060179587,WASTE MANAGEMENT OF MICHIGAN (HOLLAND LAGOONS),2700 N 168TH ST,HOLLAND,MI,42.824219,-86.189389,Y,0,0,0,0,0,0,0,0,0,0,0,1
F,05,WID980820070,MASTER DISPOSAL SERVICE LANDFILL,SW1/4 OF SW1/4 SEC5 T7N R20E,BROOKFIELD,WI,43.092781,-88.163331,Y,0,0,0,0,0,0,0,0,1,0,0,1
F,08,CON000802700,COLORADO SMELTER,INTERSTATE 25 AND SANTA FE AVENUE,PUEBLO,CO,38.249106,-104.60801,N,0,0,0,0,0,0,0,0,0,0,1,0
F,05,ILD000716852,LAKE CALUMET CLUSTER,122ND STREET AND STONY ISLAND AVENUE,CHICAGO,IL,41.679444,-87.568889,N,0,0,0,0,0,0,0,0,0,0,0,1
F,05,MID062222997,BUTTERWORTH #2 LANDFILL,1450 BUTTERWORTH ST SW,GRAND RAPIDS,MI,42.952219,-85.700281,Y,0,0,0,0,0,0,0,0,0,0,1,0
F,01,CT0002265551,SCOVILL INDUSTRIAL LANDFILL,STORE AVENUE,WATERBURY,CT,41.550389,-73.010639,N,0,0,0,0,0,0,0,0,1,1,0,1
F,05,ILD000802827,OUTBOARD MARINE CORP.,200 SEA HORSE DR,WAUKEGAN,IL,42.365281,-87.821111,Y,0,0,0,0,0,0,0,0,1,0,0,1
F,05,MID067340711,"LIQUID DISPOSAL, INC.",3901 HAMLIN ROAD,UTICA,MI,42.652781,-83.073611,Y,0,0,0,0,0,0,0,0,0,1,0,1
F,05,WID980820096,SCHMALZ DUMP,ROUTE 2 FIRE LANE 1,HARRISON,WI,44.21,-88.396669,Y,0,0,0,0,0,0,0,0,1,0,0,1
F,05,ILD000814673,VELSICOL CHEMICAL CORP. (MARSHALL PLANT),RTE 1 1MI N OF MARSHALL,MARSHALL,IL,39.410831,-87.699169,Y,0,0,0,0,0,0,0,0,0,0,0,1
F,05,MID069826170,SOUTH MACOMB DISPOSAL AUTHORITY (LANDFILLS #9 AND #9A),approx. 21410-21798 24 Mile Road,MACOMB TOWNSHIP,MI,42.682081,-82.907389,Y,0,0,0,0,0,0,0,0,0,0,0,1
F,05,WID980821656,ONALASKA MUNICIPAL LANDFILL,SPORTMAN RD,ONALASKA,WI,43.9573,-91.3382,Y,0,0,0,0,0,0,0,0,1,1,0,1
F,01,CTD001153923,LINEMASTER SWITCH CORP.,29 PLAINE HILL ROAD,WOODSTOCK,CT,41.940561,-71.966939,Y,0,0,0,0,0,0,0,0,0,0,1,0
F,05,ILD002994259,AMOCO CHEMICALS (JOLIET LANDFILL),approx. or near 23423 Amoco Rd.,JOLIET,IL,41.441669,-88.172781,N,0,0,0,0,0,0,0,0,0,0,1,0
F,05,MID072569510,MUSKEGON CHEMICAL CO.,1725 WARNER ST,WHITEHALL,MI,43.3891,-86.334,Y,0,0,0,0,0,0,0,0,0,0,0,1
F,05,WID980823082,"MID-STATE DISPOSAL, INC. LANDFILL",approx. 1742-1594 Big Rapids Road,CLEVELAND TOWNSHIP,WI,44.848331,-90.04,Y,0,0,0,0,0,0,0,0,0,0,0,1
F,01,CTD001186618,"RAYMARK INDUSTRIES, INC.",75 EAST MAIN STREET,STRATFORD,CT,41.201278,-73.117222,N,0,0,0,0,1,0,1,1,1,0,0,1
D,05,ILD003817137,PETERSEN SAND & GRAVEL,ILLINOIS ROUTES 21 & 137,LIBERTYVILLE,IL,42.315831,-87.9537,Y,0,0,0,0,0,0,0,0,1,1,0,1
F,05,MID079300125,SPARTAN CHEMICAL CO.,2539 28TH STREET SW,WYOMING,MI,42.915831,-85.727781,N,0,0,0,0,0,0,0,0,0,0,1,0
F,05,WID980901219,STOUGHTON CITY LANDFILL,AMUNDSON PKWY & SKOGDALEN DR,STOUGHTON,WI,42.923889,-89.206389,Y,0,0,0,0,0,0,0,0,1,1,0,1
F,01,CTD001452093,DURHAM MEADOWS,124 MAIN ST,DURHAM,CT,41.48111,-72.681388,N,0,0,0,0,0,0,0,0,0,0,0,1
F,05,ILD005252432,PARSONS CASKET HARDWARE CO.,424 FAIRVIEW AVENUE,BELVIDERE,IL,42.2692,-88.836,N,0,0,0,0,0,0,0,0,0,0,0,1
D,05,MID084566900,NOVACO INDUSTRIES,9411 SUMMERFIELD ROAD,TEMPERANCE,MI,41.7856,-83.6443,Y,0,0,0,0,0,0,0,0,0,0,0,1
D,05,WID980901227,FADROWSKI DRUM DISPOSAL,6800 S 27TH ST,FRANKLIN,WI,42.9207,-87.95245,Y,0,0,0,0,0,0,0,0,1,0,0,1
F,05,MID095402210,RASMUSSEN'S DUMP,9040 SPICER RD,BRIGHTON,MI,42.4544,-83.7693,Y,0,0,0,0,0,0,0,0,0,0,0,1
F,05,ILD005443544,JOHNS-MANVILLE CORP.,GREENWOOD AVE,WAUKEGAN,IL,42.386669,-87.811669,Y,0,0,0,0,0,0,0,0,1,0,0,1
D,01,CTD004532610,REVERE TEXTILE PRINTS CORP.,RAILROAD AVENUE,STERLING,CT,41.708331,-71.829169,Y,0,0,0,0,0,0,0,0,0,0,1,0
F,05,WID980901235,"WASTE MANAGEMENT OF WISCONSIN, INC. (BROOKFIELD SANITARY LANDFILL)",1365 N BROOKFIELD RD,BROOKFIELD,WI,43.048169,-88.148111,Y,0,0,0,0,0,0,0,0,1,1,0,1
F,05,MID980002273,CLARE WATER SUPPLY,CITY HALL 202 W 5TH ST,CLARE,MI,43.815,-84.7625,Y,0,0,0,0,0,0,0,0,1,0,0,1
F,05,ILD005451711,"LENZ OIL SERVICE, INC.",RTE 83 & JEANE RD,LEMONT,IL,41.7068,-87.9422,Y,0,0,0,0,0,0,0,0,0,0,1,0
F,01,CTD009717604,SOLVENTS RECOVERY SERVICE OF NEW ENGLAND,LAZY LANE,SOUTHINGTON,CT,41.6196,-72.878,Y,0,0,0,0,0,0,0,0,1,1,0,1
D,05,MID980274179,"CARTER INDUSTRIALS, INC.",4690 HUMBOLDT,DETROIT,MI,42.345281,-83.091669,Y,0,0,0,0,0,0,0,0,0,0,0,1
F,05,WID980901243,"LEMBERGER LANDFILL, INC.",ROUTE 1 HEMPTON LAKE ROAD,WHITELAW,WI,44.173331,-87.841669,Y,0,0,0,0,0,0,0,0,0,0,0,1
F,05,ILD006282479,JENNISON-WRIGHT CORPORATION,900 WEST 22ND ST,GRANITE CITY,IL,38.708333,-90.1525,Y,0,0,0,0,0,0,0,0,0,0,1,0
D,05,MID980410617,BURROWS SANITATION,ME1/4 SEC10 R16W T3S,HARTFORD,MI,42.2233,-86.1502,Y,0,0,0,0,0,0,0,0,0,0,0,1
F,05,WID980902969,SPICKLER LANDFILL,ROUTE 2 (ECKES ROAD),SPENCER,WI,44.689689,-90.265611,Y,0,0,0,0,0,0,0,0,0,0,0,1
F,01,CTD009774969,YAWORSKI WASTE LAGOON,PACKER ROAD,CANTERBURY,CT,41.66945,-71.964161,Y,0,0,0,0,0,0,0,0,0,0,1,0
F,05,ILD010236230,BYRON SALVAGE YARD,NW1/4 SEC 13 T24N R10E,BYRON,IL,42.081667,-89.295833,Y,0,0,0,0,0,0,0,0,0,0,0,1
F,05,MID980410740,FOREST WASTE PRODUCTS,8359 E FARRAND RD,OTISVILLE,MI,43.198331,-83.545831,Y,0,0,0,0,0,0,0,0,0,0,0,1
F,05,WID980993521,WAUSAU GROUND WATER CONTAMINATION,S24 & 25 T29N R7E,WAUSAU,WI,44.9773,-89.6292,Y,0,0,0,0,0,0,0,0,1,1,0,1
F,01,CTD051316313,PRECISION PLATING CORP.,1050 HARTFORD TURNPIKE ROAD,VERNON,CT,41.84975,-72.447911,N,0,0,0,0,0,0,0,0,0,0,1,0
F,05,MID980410823,G&H LANDFILL,3160 23 MILE RD,UTICA,MI,42.664719,-83.077769,Y,0,0,0,0,0,0,0,0,0,0,0,1
F,05,ILD021440375,BELOIT CORP.,1165 PRAIRIE HILL RD,ROCKTON,IL,42.468611,-89.06555,Y,0,0,0,0,0,0,0,0,0,0,0,1
F,05,MID980476907,"PARSONS CHEMICAL WORKS, INC.",BOX 146 RFD,GRAND LEDGE,MI,42.7547,-84.7677,Y,0,0,0,0,0,0,0,0,1,0,0,1
F,05,WID980996367,SHEBOYGAN HARBOR & RIVER,HARBOR,SHEBOYGAN,WI,43.749444,-87.70075,Y,0,0,0,0,0,0,0,0,1,0,0,1
F,01,CTD072122062,BEACON HEIGHTS LANDFILL,BLACKBERRY HILL ROAD,BEACON FALLS,CT,41.43195,-73.035281,Y,0,0,0,0,0,0,0,0,0,1,0,1
F,05,MID980477079,CHEM CENTRAL,2940 STAFFORD AVE SW,WYOMING TOWNSHIP,MI,42.91,-85.674161,Y,0,0,0,0,0,0,0,0,0,0,1,0
F,05,ILD042671248,INDIAN REFINERY-TEXACO LAWRENCEVILLE,SOUTH SEVENTH STREET,LAWRENCEVILLE,IL,38.715556,-87.682222,N,0,0,0,0,0,0,0,0,1,0,0,1
F,05,MID980499842,ROSE TOWNSHIP DUMP,1065 DEMODE RD,ROSE TOWNSHIP,MI,42.720831,-83.631939,Y,0,0,0,0,0,0,0,0,0,0,0,1
D,05,WID990829475,WASTE RESEARCH & RECLAMATION CO.,ROUTE 7,EAU CLAIRE,WI,44.756669,-91.458339,N,0,0,0,0,0,0,0,0,0,0,0,1
F,01,CTD108960972,GALLUP'S QUARRY,ROUTE 12,PLAINFIELD,CT,41.665281,-71.924161,Y,0,0,0,0,0,0,0,0,0,0,1,0
F,05,ILD047019732,WAUCONDA SAND & GRAVEL,BONNER & GARLAND RD,WAUCONDA,IL,42.281389,-88.1375,Y,0,0,0,0,0,0,0,0,1,0,0,1
F,05,MID980499966,SPRINGFIELD TOWNSHIP DUMP,12955 SHINDLER RD,DAVISBURG,MI,42.7044,-83.5419,Y,0,0,0,0,0,0,0,0,0,0,0,1
F,01,CTD980521165,"LAUREL PARK, INC.",HUNTERS MTN RD,NAUGATUCK BOROUGH,CT,41.476939,-73.071661,Y,0,0,0,0,0,0,0,0,0,0,0,1
F,05,MID980504450,ALBION-SHERIDAN TOWNSHIP LANDFILL,13355 29 MILE ROAD,ALBION,MI,42.24955,-84.7195,Y,0,0,0,0,0,0,0,0,1,1,0,1
F,05,WIN000510210,AMCAST INDUSTRIAL CORPORATION,N39 W5789 HAMILTON ROAD,CEDARBURG,WI,43.288444,-87.982056,N,0,0,0,0,0,0,0,0,0,0,0,1
D,01,CTD980669261,NUTMEG VALLEY ROAD,NUTMEG VALLEY ROAD,WOLCOTT,CT,41.5748,-72.9986,Y,0,0,0,0,0,0,0,0,1,1,0,1
F,05,MID980504716,DUELL & GARDNER LANDFILL,1285 E BARD RD,DALTON TOWNSHIP,MI,43.319439,-86.208339,Y,0,0,0,0,0,0,0,0,0,0,0,1
F,05,ILD048306138,"TRI-COUNTY LANDFILL CO./WASTE MANAGEMENT OF ILLINOIS, INC.",7N 904 ILLINOIS ROUTE 25,ELGIN,IL,41.9832,-88.2712,Y,0,0,0,0,0,0,0,0,0,0,0,1
F,05,WISFN0507952,ASHLAND/NORTHERN STATES POWER LAKEFRONT,300 ST. CLAIRE ST.,ASHLAND,WI,46.595972,-90.883333,N,0,0,0,0,0,0,0,0,0,0,1,0
F,05,MID980506281,GRATIOT COUNTY LANDFILL,585 EAST JACKSON ROAD,ST. LOUIS,MI,43.395,-84.595281,Y,0,0,0,0,0,0,0,0,0,0,0,1
D,01,CTD980670806,OLD SOUTHINGTON LANDFILL,OLD TURNPIKE RD,SOUTHINGTON,CT,41.579169,-72.881939,Y,0,0,0,0,0,0,0,0,0,0,0,1
F,05,ILD048843809,CHEMETCO,3754 CHEMETCO LANE,HARTFORD,IL,38.799,-90.098,N,0,0,0,0,0,0,0,0,0,0,1,0
F,05,MID980506463,K&L AVENUE LANDFILL,8606 WEST K L AVE,OSHTEMO TOWNSHIP,MI,42.283331,-85.718889,Y,0,0,0,0,0,0,0,0,0,0,0,1
F,01,CTD980670814,KELLOGG-DEERING WELL FIELD,NORWALK WATER DEPARTMENT,NORWALK,CT,41.13055,-73.43195,Y,0,0,0,0,0,0,0,0,1,1,0,1
F,05,WIT560010118,BETTER BRITE PLATING CO. CHROME AND ZINC SHOPS,519 LANDE ST,DE PERE,WI,44.438061,-88.0755,Y,0,0,0,0,0,0,0,0,0,0,0,1
F,05,MID980506562,METAMORA LANDFILL,1636 DRYDEN ROAD,METAMORA,MI,42.94695,-83.274439,Y,0,0,0,0,0,0,0,0,0,0,0,1
F,05,ILD053219259,"ACME SOLVENT RECLAIMING, INC. (MORRISTOWN PLANT)",EAST OF LINDENWOOD RD,MORRISTOWN,IL,42.1577,-89.0455,Y,0,0,0,0,0,0,0,0,1,0,0,1
F,05,MID980608780,SOUTHWEST OTTAWA COUNTY LANDFILL,2901 N 160TH AVE,PARK TOWNSHIP,MI,42.820419,-86.185219,Y,0,0,0,0,0,0,0,0,0,0,0,1
F,01,CTD980732333,BARKHAMSTED-NEW HARTFORD LANDFILL,ROUTE 44,BARKHAMSTED,CT,41.893947,-72.989337,Y,0,0,0,0,0,0,0,0,0,0,1,0
F,03,WVD000800441,SHARON STEEL CORP (FAIRMONT COKE WORKS),LAFAYETTE ST,FAIRMONT,WV,39.493611,-80.114444,N,0,0,0,0,0,0,0,0,0,0,0,1
D,05,MID980608970,CLIFF/DOW DUMP,CO RD 550 1/2MI N DEAD RIV,MARQUETTE,MI,46.574439,-87.42,Y,0,0,0,0,0,0,0,0,0,0,0,1
D,01,CTD981067317,CHESHIRE GROUND WATER CONTAMINATION,604 WEST JOHNSON AVENUE,CHESHIRE,CT,41.5575,-72.910833,Y,0,0,0,0,0,0,0,0,1,1,0,1
F,05,ILD053980454,SANDOVAL ZINC COMPANY,BOX 263 SMELTER ROAD HIGHWAY 51,SANDOVAL,IL,38.613061,-89.108251,N,0,0,0,0,0,0,0,0,0,0,0,1
F,05,MID980609341,"STATE DISPOSAL LANDFILL, INC.",EAST BELTLINE BETWEEN 4 MILE RD NE & 5 MILE RD NE,GRAND RAPIDS,MI,43.013397,-85.590506,N,0,0,0,0,0,0,0,0,0,0,1,0
D,03,WVD000850404,ORDNANCE WORKS DISPOSAL AREAS,1100 DUPONT RD,MORGANTOWN,WV,39.603331,-79.979719,Y,0,0,0,0,0,0,0,0,0,0,0,1
F,03,DED000605972,DELAWARE SAND & GRAVEL LANDFILL,229 GRANTHAM LANE,NEW CASTLE,DE,39.651389,-75.602781,Y,0,0,0,0,1,0,1,1,1,1,0,1
D,05,MID980609366,FOLKERTSMA REFUSE,1426 PANNELL ROAD NORTHWEST,GRAND RAPIDS,MI,43.001669,-85.703331,Y,0,0,0,0,0,0,0,0,0,0,1,0
F,05,ILD062340641,DEPUE/NEW JERSEY ZINC/MOBIL CHEMICAL CORP.,DEPOT ST & MARQUETTE ST,DEPUE,IL,41.327778,-89.304167,N,0,0,0,0,0,0,0,0,0,0,0,1
F,05,MID980609440,J & L LANDFILL,HAMLIN RD,ROCHESTER HILLS,MI,42.6556,-83.0959,Y,0,0,0,0,0,0,0,0,0,0,0,1
F,03,DED000606079,TYBOUTS CORNER LANDFILL,US RTE 13 & DEL RTE 71,NEW CASTLE,DE,39.6125,-75.653339,Y,0,0,0,0,1,0,0,1,1,0,0,1
D,03,WVD004336749,FOLLANSBEE,NEAR BENCH MARK 681,FOLLANSBEE,WV,40.340281,-80.606939,Y,0,0,0,0,0,0,0,0,1,1,0,1
F,05,MID980678627,"CANNELTON INDUSTRIES, INC.",ADDRESS UNREPORTED,SAULT STE MARIE,MI,46.488889,-84.393061,Y,0,0,0,0,0,0,0,0,1,1,0,1
F,03,DED041212473,"STANDARD CHLORINE OF DELAWARE, INC.",745 GOVERNOR LEA RD,NEW CASTLE,DE,39.599581,-75.635831,N,0,0,1,1,1,0,1,1,1,1,0,1
F,05,ILD096731468,NL INDUSTRIES/TARACORP LEAD SMELTER,16TH & CLEVELAND BLVD,GRANITE CITY,IL,38.695,-90.158331,Y,0,0,0,0,0,0,0,0,0,0,1,0
F,05,MID980701247,WASH KING LAUNDRY,NW1/4 SEC22 T17N R13W,PLEASANT PLAINS TWP,MI,43.8532,-85.853,Y,0,0,0,0,0,0,0,0,0,0,1,0
F,03,WVD024185373,HANLIN-ALLIED-OLIN,STATE ROUTE 2,MOUNDSVILLE,WV,39.906667,-80.801389,N,0,0,0,0,0,0,0,0,1,1,0,1
F,03,DED043958388,NCR CORP. (MILLSBORO PLANT),MITCHELL RD POB 607,MILLSBORO,DE,38.5775,-75.283061,Y,0,0,0,0,0,0,0,1,1,1,0,1
D,05,MID980701254,WHITEHALL MUNICIPAL WELLS,718 EAST COLBY,WHITEHALL,MI,43.412219,-86.328889,Y,0,0,0,0,0,0,0,0,1,0,0,1
F,05,ILD099213498,ESTECH GENERAL CHEMICAL COMPANY,150 MARBLE STREET,CALUMET CITY,IL,41.628303,-87.526905,N,0,0,0,0,0,0,0,0,1,1,0,1
F,05,MID980702989,"MOTOR WHEEL, INC.",2401 N HIGH ST (REAR),LANSING TOWNSHIP,MI,42.760831,-84.535,Y,0,0,0,0,0,0,0,0,0,0,0,1
D,03,DED058980442,NEW CASTLE SPILL,900 WILMINGTON ROAD,NEW CASTLE,DE,39.670281,-75.561669,Y,0,0,0,1,1,0,1,1,1,1,0,1
F,03,WVD047989207,"FIKE CHEMICAL, INC.",W 19TH ST,NITRO,WV,38.426669,-81.8425,N,0,0,0,0,0,0,0,0,0,1,0,1
F,05,MID980703011,STURGIS MUNICIPAL WELLS,505 W CHICAGO ROAD,STURGIS,MI,41.7988,-85.4256,Y,0,0,0,0,0,0,0,0,0,0,0,1
D,05,ILD980397079,"A & F MATERIAL RECLAIMING, INC.",WEST CUMBERLAND,GREENUP,IL,39.2439,-88.174,Y,0,0,0,0,0,0,0,0,1,0,0,1
F,03,DED980494496,ARMY CREEK LANDFILL,RTE 13 + RTE 40,NEW CASTLE,DE,39.653061,-75.608331,Y,0,0,0,0,1,0,1,1,1,1,0,1
D,05,MID980791461,"AVENUE ""E"" GROUND WATER CONTAMINATION",AVENUE E,TRAVERSE CITY,MI,44.750719,-85.5775,Y,0,0,0,0,0,0,0,0,0,0,0,1
D,05,ILD980497663,BELVIDERE MUNICIPAL LANDFILL,APPLETON RD,BELVIDERE,IL,42.2643,-88.8723,Y,0,0,0,0,0,0,0,0,1,1,0,1
F,03,WVD054827944,BIG JOHN SALVAGE - HOULT ROAD,HOULT ROAD,FAIRMONT,WV,39.497222,-80.123056,N,0,0,0,0,0,0,0,0,1,1,0,1
D,03,DED980494637,SUSSEX COUNTY LANDFILL NO. 5,"BETWEEN CNTY RD 494, CNTY RD 497, SH 24",LAUREL,DE,38.535,-75.614169,Y,0,0,0,0,0,0,0,0,0,0,0,1
F,05,MID980793806,VERONA WELL FIELD,TWP 10S RTE 07W SEC 32E 1/2,BATTLE CREEK,MI,42.341669,-85.143331,Y,0,0,0,0,0,0,0,0,1,1,0,1
F,05,ILD980497788,MIG/DEWANE LANDFILL,6505 Logan Avenue,BELVIDERE,IL,42.255917,-88.806944,Y,0,0,0,0,0,0,0,0,1,1,0,1
F,03,DED980551667,DELAWARE CITY PVC PLANT,780 SCHOOL HOUSE ROAD,NEW CASTLE,DE,39.586111,-75.649439,Y,0,0,0,0,0,0,0,0,0,0,0,1
F,05,MID980794382,"AUTO ION CHEMICALS, INC.",74 MILL STREET,KALAMAZOO,MI,42.293889,-85.567219,Y,0,0,0,0,0,0,0,0,1,1,0,1
D,03,WVD980693402,LEETOWN PESTICIDE,ROAD 15/1 MIDDLEWAY AREA,LEETOWN,WV,39.3465,-77.9095,Y,0,0,0,0,0,0,0,0,1,0,0,1
F,05,ILD980500102,YEOMAN CREEK LANDFILL,1011 WASHINGTON STREET,WAUKEGAN,IL,42.388889,-87.848611,Y,0,0,0,0,0,0,0,0,1,1,0,1
F,03,DED980552244,"KOPPERS CO., INC. (NEWPORT PLANT)",FOOT OF LINDBURG ST,NEWPORT,DE,39.704719,-75.624169,N,0,1,1,1,1,0,1,1,1,1,0,1
D,05,MID980794390,CHARLEVOIX MUNICIPAL WELL,LAKE SHORE DRIVE,CHARLEVOIX,MI,45.317781,-85.266669,Y,0,0,0,0,0,0,0,0,0,0,1,0
F,03,DED980555122,"E.I. DU PONT DE NEMOURS & CO., INC. (NEWPORT PIGMENT PLANT LANDFILL)",JAMES & WATER STS,NEWPORT,DE,39.708331,-75.609169,Y,0,1,1,1,1,0,1,1,1,1,0,1
F,03,WVD988798401,VIENNA TETRACHLOROETHENE,"30TH STREET, GRAND CENTRAL AVE",VIENNA,WV,39.325167,-81.548778,Y,0,0,0,0,0,0,0,0,0,0,0,1
F,05,ILD980605836,H.O.D. LANDFILL,55 MCMILLAN ROAD,ANTIOCH,IL,42.4753,-88.0819,Y,0,0,0,0,0,0,0,0,1,1,0,1
F,05,MID980794408,HEDBLUM INDUSTRIES,1000 AUSABLE RD,OSCODA,MI,44.4113,-83.3469,Y,0,0,0,0,0,0,0,0,0,0,0,1
F,03,DED980693550,DOVER GAS LIGHT CO.,NEW ST,DOVER,DE,39.1558,-75.5277,N,0,0,0,0,0,0,0,1,0,0,0,1
F,05,MID980794416,IONIA CITY LANDFILL,CLEVELAND STREET,IONIA,MI,42.976669,-85.046111,Y,0,0,0,0,0,0,0,0,1,0,0,0
F,05,ILD980605943,WOODSTOCK MUNICIPAL LANDFILL,DAVIS ROAD,WOODSTOCK,IL,42.2923,-88.4402,Y,0,0,0,0,0,0,0,0,0,0,0,1
D,03,DED980704860,COKER'S SANITATION SERVICE LANDFILLS,COUNTY RTE 152,CHESWOLD,DE,39.227219,-75.611389,Y,0,0,0,0,0,0,0,1,0,0,0,1
F,03,WVN000306876,NORTH 25TH STREET GLASS AND ZINC,N. 25TH STREET,CLARKSBURG,WV,39.297053,-80.357433,N,0,0,0,0,0,0,0,0,1,1,0,1
D,05,MID980794440,OSSINEKE GROUND WATER CONTAMINATION,US 23 N OF NICHOLSON ROAD,OSSINEKE,MI,44.903331,-83.442219,Y,0,0,0,0,0,0,0,0,0,0,0,1
F,05,ILD980606305,DUPAGE COUNTY LANDFILL/BLACKWELL FOREST PRESERVE,ROUTE 56,WARRENVILLE,IL,41.8326,-88.1787,Y,0,0,0,0,0,0,0,0,0,0,1,0
D,03,DED980704951,WILDCAT LANDFILL,LEBANON RD,DOVER,DE,39.120831,-75.5,Y,0,1,1,1,1,0,0,1,1,1,0,1
D,05,MID980794465,MASON COUNTY LANDFILL,W1/4 NE1/4 T18N R18W,PERE MARQUETTE TWP,MI,43.9185,-86.4292,Y,0,0,0,0,0,0,0,0,0,0,0,1
F,05,ILD980606685,PAGEL'S PIT,BAXTER & LINDENWOOD RD,ROCKFORD,IL,42.158331,-89.056661,Y,0,0,0,0,0,0,0,0,1,0,0,1
D,03,DED980705255,NEW CASTLE STEEL,9TH & WASHINGTON STREET,NEW CASTLE,DE,39.657781,-75.577769,Y,0,0,0,0,1,0,1,1,1,1,0,1
F,03,WVSFN0305428,RAVENSWOOD PCE,212 WALNUT STREET APPROX.,RAVENSWOOD,WV,38.951667,-81.761667,Y,0,0,0,0,0,0,0,0,0,1,0,1
F,05,MID980794473,SHIAWASSEE RIVER,M59 TO STATE ROAD LIVINGSTON COU,HOWELL,MI,42.622781,-83.963611,Y,0,0,0,0,0,0,0,0,1,0,0,1
F,05,ILD980606750,OTTAWA RADIATION AREAS,"RTE 6 & RTE 71, OTTAWA AREA",OTTAWA,IL,41.351667,-88.836111,N,0,0,0,0,0,0,0,0,1,1,0,1
D,03,DED980705545,TYLER REFRIGERATION PIT,GLENWOOD AVE,SMYRNA,DE,39.295281,-75.618889,Y,0,0,0,0,0,0,0,1,1,0,0,1
F,05,ILD980606941,EAGLE ZINC CO DIV T L DIAMOND,218 INDUSTRIAL PARK DRIVE,HILLSBORO,IL,39.161167,-89.476417,N,0,0,0,0,0,0,0,0,0,0,1,0
D,08,WYD061112470,BAXTER/UNION PACIFIC TIE TREATING,2763 FT SANDERS DR,LARAMIE,WY,41.295174,-105.603235,Y,0,0,0,0,0,0,0,0,1,0,0,1
F,03,DED980713093,"HARVEY & KNOTT DRUM, INC.",OLD COUNTY RD,KIRKWOOD,DE,39.573331,-75.770839,Y,0,0,0,0,0,0,0,0,0,0,0,1
D,05,MID980794481,SPIEGELBERG LANDFILL,SPICER RD,GREEN OAK TOWNSHIP,MI,42.454169,-83.772219,Y,0,0,0,0,0,0,0,0,0,0,0,1
F,05,ILD980607055,ADAMS COUNTY QUINCY LANDFILLS 2&3,2 MILES NORTH OF BURTON TWP 1/2 MI WEST,QUINCY,IL,39.929444,-91.268472,Y,0,0,0,0,0,0,0,0,0,0,0,1
F,03,DED980714141,"CHEM-SOLV, INC.",176A N DUPONT HIGHWAY,DOVER,DE,39.2216,-75.5764,Y,0,0,0,0,0,0,0,0,0,0,0,1
F,05,MID980794556,U.S. AVIEX,1056 HUNTLEY RD,HOWARD TOWNSHIP,MI,41.8309,-86.1968,Y,0,0,0,0,0,0,0,0,0,0,0,1
F,05,ILD980792303,CROSS BROTHERS PAIL RECYCLING (PEMBROKE),ADDRESS UNREPORTED,PEMBROKE TOWNSHIP,IL,41.0909,-87.5893,Y,0,0,0,0,0,0,0,0,0,1,0,0
F,08,WYD981546005,MYSTERY BRIDGE RD/U.S. HIGHWAY 20,"U.S.HWY 20,28 & MYSTERY BR. RD",EVANSVILLE,WY,42.86039,-106.228538,Y,1,0,0,0,0,0,0,0,1,0,0,1
F,05,MID980794655,TAR LAKE,NE COR SEC30 T29N R6W,MANCELONA TOWNSHIP,MI,44.8866,-85.073,Y,0,0,0,0,0,0,0,0,0,0,1,0
F,03,DED980830954,HALBY CHEMICAL CO.,600 TERMINAL AVE,NEW CASTLE,DE,39.718611,-75.537219,Y,0,0,0,0,1,0,1,1,1,1,0,1
F,05,ILD980794333,LASALLE ELECTRIC UTILITIES,ST VINCENT RD,LA SALLE,IL,41.354169,-89.0975,Y,0,0,0,0,0,0,0,0,0,0,0,1
D,05,MID980794663,CEMETERY DUMP,8905 N MILFORD RD,ROSE CENTER,MI,42.725281,-83.610281,Y,0,0,0,0,0,0,0,0,0,0,0,1
D,03,DED981035520,SEALAND LIMITED,ROUTE 896 + 15,MIDDLETOWN,DE,39.5126,-75.71,Y,0,0,0,0,0,0,0,0,0,0,0,1
F,05,ILD980823991,KERR-MCGEE (KRESS CREEK/WEST BRANCH OF DUPAGE RIVER),KRESS CREEK JUST EAST OF EJ&E RR TRACKS,DUPAGE COUNTY,IL,41.863611,-88.2093,Y,0,0,0,0,0,0,0,0,0,0,1,0
D,03,PAD075993378,ALADDIN PLATING,1 LAYTON RD,SCOTT TOWNSHIP,PA,41.491939,-75.662781,Y,0,0,0,0,0,0,0,0,0,0,1,0
F,05,MID980794747,PACKAGING CORP. OF AMERICA,EAST LAKE SIDE RD STROMAC TWP,FILER CITY,MI,44.226389,-86.273331,Y,0,0,0,0,0,0,0,0,0,0,1,0
F,05,MID980901946,TORCH LAKE,STE RTE 26 N OF QUINCY MILLS,HOUGHTON COUNTY,MI,47.169719,-88.397781,Y,0,0,0,0,0,0,0,0,0,0,1,0
F,03,DEN000303920,HOCKESSIN GROUNDWATER,OLD LANCASTER PIKE AT RAILROAD CROSSING,HOCKESSIN,DE,39.78752,-75.696513,N,0,0,0,0,0,0,0,0,1,1,0,1
D,05,ILD980824007,KERR-MCGEE (REED-KEPPLER PARK),NEAR JCT OF YALE & NATIONAL,WEST CHICAGO,IL,41.891939,-88.208339,Y,0,0,0,0,0,0,0,0,0,0,1,0
F,03,PAD077087989,FOOTE MINERAL CO.,15 S BACTON HILL RD,EAST WHITELAND TOWNSHIP,PA,40.04,-75.585278,Y,0,0,0,0,0,0,0,0,0,0,0,1
F,03,DEN000306877,NEWARK SOUTH GROUND WATER PLUME,BLUE HEN DRIVE,NEWARK,DE,39.653889,-75.735,N,0,0,0,0,0,0,0,0,0,0,0,1
D,05,MID980992952,METAL WORKING SHOP,REYNOLDS ROAD,LAKE ANN,MI,44.73,-85.8575,Y,0,0,0,0,0,0,0,0,0,0,1,0
F,05,ILD980824015,KERR-MCGEE (RESIDENTIAL AREAS),ADJACENT TO PLT AT 258 ANN STREET,WEST CHICAGO,IL,41.878333,-88.2075,Y,0,0,0,0,0,0,0,0,0,0,1,0
F,04,FL0001209840,"SOUTHERN SOLVENTS, INC.",4009 WEST LINEBAUGH AVENUE,TAMPA,FL,28.040556,-82.510278,N,0,0,0,0,0,0,0,1,1,0,0,1
F,03,PAD079160842,NOVAK SANITARY LANDFILL,PARKLAND TERRACE RD & LAPP RD,SOUTH WHITEHALL TOWNSHIP,PA,40.6332,-75.5611,Y,0,0,0,0,0,0,0,0,0,0,0,1
D,05,MID981089915,KENT CITY MOBILE HOME PARK,135 SOUTH MAIN STREET,KENT CITY,MI,43.216669,-85.753331,Y,0,0,0,0,0,0,0,0,0,0,1,0
D,05,ILD980824031,KERR-MCGEE (SEWAGE TREATMENT PLANT),59TH ST & ROOSEVELT RD,WEST CHICAGO,IL,41.8643,-88.1924,Y,0,0,0,0,0,0,0,0,0,0,1,0
F,04,FLD000602334,HARRIS CORP. (PALM BAY PLANT),OFF PALM BAY BLVD,PALM BAY,FL,28.030281,-80.601389,Y,0,0,0,0,0,0,0,1,0,0,0,1
D,05,MID985574227,LOWER ECORSE CREEK DUMP,Postal Address is unavailable for the Site,WYANDOTTE,MI,42.234166,-83.157777,Y,0,0,0,0,0,0,0,0,1,1,0,1
F,04,FLD000623041,FAIRFAX ST. WOOD TREATERS,2610 FAIRFAX STREET,JACKSONVILLE,FL,30.354092,-81.686394,N,0,0,0,0,0,0,0,0,0,1,0,1
F,03,PAD089667695,"BRESLUBE-PENN, INC.",84 MONTOUR RD,CORAOPOLIS,PA,40.501389,-80.146389,N,0,0,0,0,0,0,0,0,1,1,0,1
D,05,ILD980996789,ILADA ENERGY CO.,ROUTE 3,EAST CAPE GIRARDEAU,IL,37.2584,-89.4635,Y,0,0,0,0,0,0,0,0,1,0,0,0
F,05,MID990858003,"ORGANIC CHEMICALS, INC.",3291 CHICAGO DRIVE SOUTHWEST,GRANDVILLE,MI,42.9178,-85.7475,Y,0,0,0,0,0,0,0,0,0,0,1,0
F,04,FLD000648055,SYDNEY MINE SLUDGE PONDS,HWY 60/.5 MI E OF DOVER RD,BRANDON,FL,27.929166,-82.209166,Y,1,0,0,0,0,0,0,0,1,0,0,1
F,05,ILD981000417,SOUTHEAST ROCKFORD GROUND WATER CONTAMINATION,2613 S 11TH ST,ROCKFORD,IL,42.230689,-89.071111,N,0,0,0,0,0,0,0,0,1,0,0,1
F,05,MIN000510063,TEN-MILE DRAIN,INTERSECTION OF BON BRAE ST & HARPER AVE,ST. CLAIR SHORES,MI,42.486944,-82.899167,N,0,0,0,0,0,0,0,0,0,0,0,1
F,04,FLD000824896,REEVES SOUTHEASTERN GALVANIZING CORP.,9510 E BROADWAY #20,TAMPA,FL,27.9725,-82.341939,N,0,0,0,0,0,0,0,1,1,0,0,1
F,03,PAD093730174,COMMODORE SEMICONDUCTOR GROUP,VAN BUREN & RITTENHOUSE RDS,LOWER PROVIDENCE TOWNSHIP,PA,40.1241,-75.4194,Y,0,0,0,0,0,0,0,0,0,0,0,1
F,05,ILD981781065,CENTRAL ILLINOIS PUBLIC SERVICE CO.,SOUTH WEBSTER STREET,TAYLORVILLE,IL,39.5404,-89.2975,Y,0,0,0,0,0,0,0,0,0,0,0,1
F,05,MIN000510362,DSC MCLOUTH STEEL GIBRALTAR PLANT,28000 WEST JEFFERSON STREET,GIBRALTAR,MI,42.103075,-83.200292,N,0,0,0,0,0,0,0,0,0,0,0,1
D,04,FLD000833368,DUBOSE OIL PRODUCTS CO.,HWY C97,CANTONMENT,FL,30.618061,-87.37695,Y,1,0,0,0,0,0,0,0,0,0,0,1
F,05,ILD990817991,GALESBURG/KOPPERS CO.,HWY 41S PO BOX 1191,GALESBURG,IL,40.895831,-90.395839,Y,0,0,0,0,0,0,0,0,0,0,0,1
F,05,MIN000510389,VELSICOL BURN PIT,1270 W MONROE ROAD,ST. LOUIS,MI,43.415842,-84.623247,N,0,0,0,0,0,0,0,0,0,0,0,1
F,04,FLD004054284,PIPER AIRCRAFT CORP./VERO BEACH WATER & SEWER DEPARTMENT,PIPER DR & AVIATION BLVD,VERO BEACH,FL,27.647499,-80.415555,Y,0,0,0,0,0,0,0,1,1,0,0,1
F,03,PAD096834494,NORTH PENN - AREA 1,162 N MAIN ST,SOUDERTON,PA,40.3108,-75.3252,Y,0,0,0,0,0,0,0,0,0,0,0,1
F,05,ILN000508134,HEGELER ZINC,1 HEGELER LANE,DANVILLE,IL,40.076322,-87.650092,N,0,0,0,0,0,0,0,0,0,0,0,1
D,05,MND000245795,PINE BEND SANITARY LANDFILL,2495 E 117TH ST,DAKOTA COUNTY,MN,44.784719,-93.05055,Y,0,0,0,0,0,0,0,0,0,0,0,1
F,04,FLD004061925,POST AND LUMBER PRESERVING CO INC,20 Post Plant Road,QUINCY,FL,30.592472,-84.510081,N,1,0,0,0,0,0,0,0,1,0,0,1
F,05,ILN000508170,ASARCO TAYLOR SPRINGS,PUBLIC ROAD AND BROADWAY STREET,TAYLOR SPRINGS,IL,39.118677,-89.505458,N,0,0,0,0,0,0,0,0,0,0,1,0
D,05,MND000686071,KOCH REFINING CO./N-REN CORP.,12555 US HIGHWAY 55,ROSEMOUNT,MN,44.7684,-93.0406,Y,0,0,0,0,0,0,0,0,0,0,0,1
F,03,PAD980229298,OCCIDENTAL CHEMICAL CORP./FIRESTONE TIRE & RUBBER CO.,ARMAND HAMMER BLVD,LOWER POTTSGROVE TOWNSHIP,PA,40.232081,-75.614169,Y,0,0,0,0,0,0,0,0,0,0,0,1
F,04,FLD004064242,CHEVRON CHEMICAL CO. (ORTHO DIVISION),3100 ORANGE BLOSSOM TRAIL,ORLANDO,FL,28.578889,-81.408889,Y,0,0,0,0,0,0,0,0,1,0,0,1
F,05,ILN000510407,BAUTSCH-GRAY MINE,1000 SOUTH BLACKJACK ROAD,GALENA,IL,42.357422,-90.398569,N,0,0,0,0,0,0,0,0,1,0,0,1
F,05,MND000686196,BURLINGTON NORTHERN (BRAINERD/BAXTER PLANT),WEST CITY LIMITS,BRAINERD/BAXTER,MN,46.3532,-94.2282,Y,0,0,0,0,0,0,0,0,0,0,0,1
F,04,FLD004065546,TOWER CHEMICAL CO.,MONTVERDE RD,CLERMONT,FL,28.551389,-81.684719,N,0,0,0,0,0,0,0,0,1,0,0,1
F,05,ILT180011975,"INTERSTATE POLLUTION CONTROL, INC.",NW OF MAGNOLIA & PEOPLES AVE,ROCKFORD,IL,42.241,-89.098,Y,0,0,0,0,0,0,0,0,0,0,0,1
F,05,MND000819359,KOPPERS COKE,1000 N HAMLINE AVENUE,ST. PAUL,MN,44.972219,-93.152781,Y,0,0,0,0,0,0,0,0,0,0,0,1
F,03,PAD980231690,MILL CREEK DUMP,3081 W 17TH ST,ERIE,PA,42.093331,-80.152781,Y,0,0,0,0,0,0,0,0,1,0,0,1
F,04,FLD004091807,PEAK OIL CO./BAY DRUM CO.,S.R. 574,TAMPA,FL,27.9708,-82.3404,Y,0,0,0,0,0,0,0,1,1,0,0,1
D,05,MND000874354,OLMSTED COUNTY SANITARY LANDFILL,1MI EAST HWY 52 1/2MI NORTH HWY 154,ORONOCO,MN,44.130861,-92.500639,Y,0,0,0,0,0,0,0,0,0,0,0,1
F,05,IND000715490,CONRAIL RAIL YARD (ELKHART),SR 33,ELKHART,IN,41.6634,-86.0115,Y,0,0,0,0,0,0,0,0,0,0,0,1
F,01,NHD980671002,SAVAGE MUNICIPAL WATER SUPPLY,NEAR RT 101,MILFORD,NH,42.8418,-71.6884,Y,0,0,0,0,0,0,0,0,1,1,0,1
D,05,MND006154017,NUTTING TRUCK & CASTER CO.,1201 WEST DIVISION STREET,FARIBAULT,MN,44.289169,-93.286389,Y,0,0,0,0,0,0,0,0,0,0,0,1
F,05,IND000807107,REILLY TAR & CHEMICAL CORP. (INDIANAPOLIS PLANT),1500 S TIBBS AVE,INDIANAPOLIS,IN,39.740281,-86.218331,Y,0,0,0,0,0,0,0,0,0,0,0,1
F,01,NHD980671069,SOUTH MUNICIPAL WATER SUPPLY WELL,RT. 202,PETERBOROUGH,NH,42.8489,-71.9468,Y,0,0,0,0,0,0,0,0,0,0,0,1
F,03,PAD980419097,"CRATER RESOURCES, INC./KEYSTONE COKE CO./ALAN WOOD STEEL CO.",2200 RENAISSANCE BOULEVARD,UPPER MERION TOWNSHIP,PA,40.081667,-75.3425,N,0,0,0,0,0,0,0,0,1,0,0,1
F,05,MND006192694,MACGILLIS & GIBBS CO./BELL LUMBER & POLE CO.,440 5TH AVE NW,NEW BRIGHTON,MN,45.055,-93.194731,Y,0,0,0,0,0,0,0,0,0,0,0,1
F,05,IND001213503,CONTINENTAL STEEL CORP.,W MARKLAND AVE,KOKOMO,IN,40.474169,-86.156299,Y,0,0,0,0,0,0,0,0,1,1,0,1
D,05,MND006252233,WHITTAKER CORP.,3134 CALIFORNIA STREET,MINNEAPOLIS,MN,45.026389,-93.270839,Y,0,0,0,0,0,0,0,0,0,0,0,1
D,01,NHD981063860,TOWN GARAGE/RADIO BEACON,HOLTON CIRCLE,LONDONDERRY,NH,42.861669,-71.393611,Y,0,0,0,0,0,0,0,0,0,0,0,1
F,05,IND005480462,CAM-OR INC.,STATE ROAD 2 AND HIGHWAY 421,WESTVILLE,IN,41.546528,-86.899306,N,0,0,0,0,0,0,0,0,0,0,0,1
F,03,PAD980508451,BUTLER MINE TUNNEL,SUSQUEHANNA RIVER,PITTSTON TOWNSHIP,PA,41.3268,-75.7899,Y,0,0,0,0,0,0,0,0,1,1,0,1
F,05,MND006481543,FMC CORP. (FRIDLEY PLANT),4800 E RIVER RD,FRIDLEY,MN,45.0565,-93.2762,Y,0,0,0,0,0,0,0,0,0,0,0,1
D,05,IND006038764,TRI-STATE PLATING,1716 KELLER AVE,COLUMBUS,IN,39.2164,-85.9007,Y,0,0,0,0,0,0,0,0,1,1,0,1
D,05,MND022949192,UNION SCRAP IRON & METAL CO.,1608 WASHINGTON AVENUE,MINNEAPOLIS,MN,44.995561,-93.280561,Y,0,0,0,0,0,0,0,0,0,0,0,1
F,01,NHD989090469,TIBBETTS ROAD,TIBBETTS RD.,BARRINGTON,NH,43.18,-71.0347,Y,0,0,0,0,0,0,0,0,0,0,0,1
F,03,PAD980508493,INDUSTRIAL LANE,INDUSTRIAL DR,WILLIAMS TOWNSHIP,PA,40.665831,-75.228611,Y,0,0,0,0,0,0,0,0,0,0,0,1
F,05,MND038384004,FREEWAY SANITARY LANDFILL,WEST 113TH STREET & I-HWY 35WEST,BURNSVILLE,MN,44.795,-93.293331,N,0,0,0,0,0,0,0,0,1,1,0,1
F,05,IND006377048,PRESTOLITE BATTERY DIVISION,US HIGHWAY 41N,VINCENNES,IN,38.691669,-87.501661,Y,0,0,0,0,0,0,0,0,0,0,1,0
F,01,NHD990717647,OTTATI & GOSS/KINGSTON STEEL DRUM,HAVERHILL RD RTE 125,KINGSTON,NH,42.897219,-71.080561,Y,0,0,0,0,0,0,0,0,0,0,0,1
F,05,MND039045430,ST. LOUIS RIVER SITE,MORGAN PARK,ST. LOUIS COUNTY,MN,46.677781,-92.212219,N,0,0,0,0,0,0,0,0,0,0,1,0
D,03,PAD980508527,CRAIG FARM DRUM,630 Bruin Queenstown Road,PARKER,PA,41.0446,-79.6825,Y,0,0,0,0,0,0,0,0,0,0,0,1
F,05,MND044799856,JOSLYN MANUFACTURING & SUPPLY CO.,49TH & FRANCE AVE,BROOKLYN CENTER,MN,45.045,-93.333339,Y,0,0,0,0,0,0,0,0,1,1,0,1
F,05,IND006418651,BENNETT STONE QUARRY,ST RTE 37 & ST RTE 46,BLOOMINGTON,IN,39.1902,-86.5612,Y,0,0,0,0,0,0,0,0,1,0,0,1
F,01,NHN000103313,CHLOR-ALKALI FACILITY (FORMER),ADJACENT TO SAW MILL DAM,BERLIN,NH,44.479194,-71.167194,N,0,0,0,0,0,0,0,0,1,1,0,1
F,05,MND051441731,GENERAL MILLS/HENKEL CORP.,2010 E HENNEPIN AVE,MINNEAPOLIS,MN,44.99,-93.222781,Y,0,0,0,0,0,0,0,0,0,0,0,1
D,03,PAD980508618,HRANICA LANDFILL,HRANICA DRIVE,BUFFALO TOWNSHIP,PA,40.677219,-79.749439,Y,0,0,0,0,0,0,0,0,0,0,0,1
D,05,MND053417515,"BOISE CASCADE/ONAN CORP./MEDTRONICS, INC.",1400 73RD AVENUE NE,FRIDLEY,MN,45.095831,-93.233331,Y,0,0,0,0,0,0,0,0,0,0,0,1
F,05,IND016360265,"AMERICAN CHEMICAL SERVICE, INC.",420 SOUTH COLFAX AVENUE,GRIFFITH,IN,41.5142,-87.4191,Y,0,0,0,0,0,0,0,0,0,0,0,1
F,01,NHN000105928,COLLINS & AIKMAN PLANT (FORMER),Off Route 11 between Paulson Road to the NW,FARMINGTON,NH,43.372,-71.05875,N,0,0,0,0,0,0,0,0,0,0,0,1
F,05,MND057597940,ST. REGIS PAPER CO.,2ND STREET SOUTH & CENTRAL AVENUE,CASS LAKE,MN,47.375561,-94.60555,N,0,0,0,0,0,0,0,0,0,0,1,0
D,03,PAD980508667,LACKAWANNA REFUSE,SOUTH KEYSER AVENUE,OLD FORGE,PA,41.37305,-75.755281,Y,0,0,0,0,0,0,0,0,0,0,1,0
F,02,NJ0001120799,UNITED STATES AVENUE BURN,UNITED STATES AVENUE,GIBBSBORO,NJ,39.834167,-74.963889,N,1,0,0,0,0,0,0,0,1,0,0,1
D,05,IND016395899,CARTER LEE LUMBER CO.,1621 WEST WASHINGTON STREET,INDIANAPOLIS,IN,39.7654,-86.1918,Y,0,0,0,0,0,0,0,0,0,0,0,1
F,05,MND059680165,KURT MANUFACTURING CO.,5280 NORTHEAST MAIN STREET,FRIDLEY,MN,45.064411,-93.268361,Y,0,0,0,0,0,0,0,0,0,0,0,1
D,02,NJ0001327733,GRAND STREET MERCURY,722 GRAND STREET,HOBOKEN,NJ,40.746111,-74.034444,Y,0,0,0,0,1,0,1,1,1,1,0,0
D,03,PAD980508766,MOYERS LANDFILL,RD 2 MOYER RD,EAGLEVILLE,PA,40.155561,-75.433611,Y,0,0,0,0,0,0,0,0,0,0,0,1
D,05,MND097891634,NL INDUSTRIES/TARACORP/GOLDEN AUTO,3645 HAMPSHIRE AVENUE,ST. LOUIS PARK,MN,44.936111,-93.363611,Y,0,0,0,0,0,0,0,0,1,1,0,1
F,05,IND040313017,SEYMOUR RECYCLING CORP.,G AVE WEST - FREEMAN MUNICIPAL AIRPORT,SEYMOUR,IN,38.9352,-85.9213,Y,0,0,0,0,0,0,0,0,1,1,0,1
F,02,NJ0001360882,ICELAND COIN LAUNDRY AREA GW PLUME,1888 SOUTH DELSEA DRIVE,VINELAND,NJ,39.45725,-75.04725,Y,1,0,0,0,0,0,0,0,0,0,0,1
D,05,MND980034516,WINDOM DUMP,NEAR LAKEVIEW AVE,WINDOM,MN,43.86875,-95.100939,Y,0,0,0,0,0,0,0,0,0,0,1,0
F,03,PAD980508816,OHIO RIVER PARK,GRAND AVE,NEVILLE ISLAND,PA,40.518611,-80.1525,Y,0,0,0,0,0,0,0,0,1,1,0,1
D,02,NJ0001900281,FEDERAL CREOSOTE,VALERIE DRIVE & LOUISE DRIVE,MANVILLE,NJ,40.544444,-74.584167,Y,1,0,0,0,0,0,0,0,1,1,0,1
D,05,MND980609119,WASTE DISPOSAL ENGINEERING,14435 NW CROSSTOWN BLVD,ANDOVER,MN,45.228,-93.3122,Y,0,0,0,0,0,0,0,0,1,0,0,1
F,05,IND047030226,"U.S. SMELTER AND LEAD REFINERY, INC.",5300 KENNEDY AVE,EAST CHICAGO,IN,41.616758,-87.464046,N,0,0,0,0,0,0,0,0,1,1,0,1
F,02,NJD000565531,COSDEN CHEMICAL COATINGS CORP.,CHERRY STREET,BEVERLY,NJ,40.058183,-74.925899,Y,0,0,0,0,0,0,0,1,0,0,0,1
D,03,PAD980508832,DORNEY ROAD LANDFILL,DORNEY RD,UPPER MACUNGIE TOWNSHIP,PA,40.527781,-75.654169,Y,0,0,0,0,0,0,0,0,0,0,0,1
F,05,MND980609515,OAKDALE DUMP,N HADLEY AVE & N GRANADA AVE,OAKDALE,MN,45,-92.966669,Y,0,0,0,0,0,0,0,0,0,0,0,1
F,02,NJD000606442,QUANTA RESOURCES,ONE RIVER RD,EDGEWATER,NJ,40.804306,-73.989167,N,0,1,1,1,1,0,1,1,1,0,0,0
F,05,IND048989479,WAYNE WASTE OIL,DANIEL DR PO BOX 467,COLUMBIA CITY,IN,41.1525,-85.476111,Y,0,0,0,0,0,0,0,0,1,0,0,1
F,05,MND980609572,PERHAM ARSENIC SITE,SOUTH CO RD 8,PERHAM,MN,46.587781,-95.571661,Y,0,0,0,0,0,0,0,0,0,0,1,0
F,02,NJD000607481,CHEMICAL CONTROL,23 SOUTH FRONT ST,ELIZABETH,NJ,40.6432,-74.1935,Y,1,1,1,1,1,0,1,1,1,1,0,1
D,03,PAD980508865,PRESQUE ISLE,ROUTE 6N/PRESQUE ISLE ST PARK,ERIE,PA,42.1497,-80.1333,Y,0,0,0,0,0,0,0,0,1,1,0,1
F,05,MND980609614,SOUTH ANDOVER SITE,2052 1/2 BUNKER LAKE RD,ANDOVER,MN,45.2179,-93.318,Y,0,0,0,0,0,0,0,0,0,1,0,1
F,02,NJD001502517,CIBA-GEIGY CORP.,RTE #37,TOMS RIVER,NJ,39.9867,-74.2363,Y,1,0,0,0,0,0,0,0,0,0,0,1
F,05,IND050530872,"NORTHSIDE SANITARY LANDFILL, INC",985 S ST RD 421,ZIONSVILLE,IN,40.028331,-86.273331,Y,0,0,0,0,0,0,0,0,1,0,0,1
F,05,MND980609804,REILLY TAR & CHEMICAL CORP. (ST. LOUIS PARK PLANT),LOUISIANA & WALKER STREET,ST. LOUIS PARK,MN,44.941669,-93.372219,Y,0,0,0,0,0,0,0,0,1,0,0,1
F,02,NJD002005106,UNIVERSAL OIL PRODUCTS (CHEMICAL DIVISION),E/S ROUTE 17,EAST RUTHERFORD,NJ,40.83,-74.088889,N,0,0,0,1,1,0,1,1,1,1,0,1
F,03,PAD980508931,LORD-SHOPE LANDFILL,RD #1 PIEPER ROAD,GIRARD TOWNSHIP,PA,41.977781,-80.3525,Y,0,0,0,0,0,0,0,0,0,0,0,1
D,05,MND980613780,UNIVERSITY OF MINNESOTA (ROSEMOUNT RESEARCH CENTER),15325 BABCOCK AVE,ROSEMOUNT,MN,44.719439,-93.072811,Y,0,0,0,0,0,0,0,0,0,0,0,1
F,05,IND064703200,"LAKELAND DISPOSAL SERVICE, INC.",RURAL ROUTE 1,CLAYPOOL,IN,41.1475,-85.917219,Y,0,0,0,0,0,0,0,0,1,0,0,1
F,02,NJD002141190,CPS/MADISON INDUSTRIES,WATERWORKS ROAD,OLD BRIDGE TOWNSHIP,NJ,40.434439,-74.327769,N,1,0,0,0,0,0,0,1,1,0,0,1
F,03,PAD980537716,HELEVA LANDFILL,GARAGE HILL ST,NORTH WHITEHALL TWP,PA,40.670831,-75.5625,Y,0,0,0,0,0,0,0,0,0,0,0,1
D,05,MND980704738,WASHINGTON COUNTY LANDFILL,LAKE JANE ROAD & JAMACA AVENUE,LAKE ELMO,MN,45.008639,-92.918139,Y,0,0,0,0,0,0,0,0,1,0,0,1
F,05,IND074315896,FISHER-CALO,PO BOX 684 KINGSBURY IND PK,LA PORTE,IN,41.5081,-86.6709,Y,0,0,0,0,0,0,0,0,0,0,0,1
F,02,NJD002144517,PIERSON'S CREEK,ONE AVENUE L,NEWARK,NJ,40.7163,-74.1452,N,1,0,0,0,1,0,1,1,1,1,0,1
D,05,MND980792287,MORRIS ARSENIC DUMP,ADJACENT TO HWY 28 & HWY 59,MORRIS,MN,45.6066,-95.8845,Y,0,0,0,0,0,0,0,0,0,0,1,0
F,03,PAD980537773,WILLIAM DICK LAGOONS,TELEGRAPH ROAD,WEST CALN TOWNSHIP,PA,40.041939,-75.898061,N,0,0,0,0,0,0,0,0,0,0,0,1
F,05,IND077005916,GARY DEVELOPMENT LANDFILL,479 N. CLINE AVENUE,GARY,IN,41.614061,-87.426447,N,0,0,0,0,0,0,0,0,1,1,0,1
F,02,NJD002148799,ORANGE VALLEY REGIONAL GROUND WATER CONTAMINATION,GIST PLACE (NEAR NORTH DAY STREET),WEST ORANGE/ORANGE,NJ,40.779936,-74.225267,N,1,0,0,0,0,0,0,0,1,1,0,1
F,05,MND980792469,LEHILLIER/MANKATO,W. SIBLEY PK & LEHILLIER/SOUTH BEND TWP,LEHILLIER,MN,44.153331,-94.038331,Y,0,0,0,0,0,0,0,0,0,0,1,0
D,03,PAD980538649,BERKLEY PRODUCTS CO. DUMP,RD 2,DENVER,PA,40.25555,-76.155281,Y,0,0,0,0,0,0,0,0,0,0,0,1
F,02,NJD002164796,UNIMATIC MANUFACTURING CORPORATION,25 SHERWOOD LANE,FAIRFIELD,NJ,40.878792,-74.269155,N,0,0,0,0,0,0,0,0,1,1,0,1
F,05,MND980823975,ARROWHEAD REFINERY CO.,NW CORNER HWY 53 & UGSTAD ROAD,HERMANTOWN,MN,46.8377,-92.2398,Y,0,0,0,0,0,0,0,0,0,0,1,0
F,05,IND084259951,ENVIROCHEM CORP.,865 SOUTH STATE ROAD 421,ZIONSVILLE,IN,40.03,-86.278339,Y,0,0,0,0,0,0,0,0,0,0,0,1
D,03,PAD980538763,MIDDLETOWN AIR FIELD,APPROX 1 MLE OFF RTE 230,MIDDLETOWN,PA,40.1763,-76.7173,Y,0,0,0,0,0,0,0,0,0,0,0,1
F,02,NJD002168748,DAYCO CORP./L.E CARPENTER CO.,170 N MAIN STREET,WHARTON BOROUGH,NJ,40.903331,-74.5775,N,1,0,0,0,0,0,0,0,0,0,1,0
D,05,MND980898068,AGATE LAKE SCRAPYARD,WESTERN SHORE OF AGATE LAKE,FAIRVIEW TOWNSHIP,MN,46.453561,-94.375831,Y,0,0,0,0,0,0,0,0,0,0,1,0
F,03,PAD980539068,MODERN SANITATION LANDFILL,4400 MT. PISGAH ROAD,LOWER WINDSOR TWP,PA,39.960561,-76.5925,Y,0,0,0,0,0,0,0,0,0,0,0,1
F,02,NJD002173276,AMERICAN CYANAMID CO,EASTON TURNPIKE,BRIDGEWATER,NJ,40.555561,-74.55945,N,0,0,0,0,0,0,0,1,1,0,0,0
D,05,MND980904023,ADRIAN MUNICIPAL WELL FIELD,ADRIAN CITY LIMITS,ADRIAN,MN,43.638219,-95.934,Y,0,0,0,0,0,0,0,0,1,1,0,1
F,05,IND980500292,HIMCO DUMP,COUNTY ROAD 10 AND NAPANEE EXTENSION,ELKHART,IN,41.7073,-86.0084,Y,0,0,0,0,0,0,0,0,0,0,0,1
F,03,PAD980539126,UGI COLUMBIA GAS PLANT,FRONT STREET,COLUMBIA,PA,40.026207,-76.498389,Y,0,0,0,0,0,0,0,0,1,1,0,1
F,02,NJD002175057,STANDARD CHLORINE,1015-35 BELLEVILLE TURNPIKE,KEARNY,NJ,40.75,-74.097222,N,1,1,1,1,1,0,1,1,1,0,0,1
D,05,MND980904049,KUMMER SANITARY LANDFILL,ANNE ST,BEMIDJI,MN,47.506531,-94.892719,Y,0,0,0,0,0,0,0,0,0,0,1,0
D,03,PAD980539407,WADE (ABM),1 FLOWER STREET,CHESTER,PA,39.8337,-75.3775,Y,0,1,1,1,1,0,1,1,1,1,0,1
F,02,NJD002349058,"HERCULES, INC. (GIBBSTOWN PLANT)",50 NORTH MARKET ST,GIBBSTOWN,NJ,39.838889,-75.277781,N,0,1,1,1,1,0,1,1,1,1,0,1
F,05,IND980500524,LAKE SANDY JO (M&M LANDFILL),3615 WEST 25TH AVENUE,GARY,IN,41.570839,-87.382231,Y,0,0,0,0,0,0,0,0,1,1,0,1
D,05,MND980904056,OAK GROVE SANITARY LANDFILL,2536 VIKING BLVD NORTHWEST,OAK GROVE TOWNSHIP,MN,45.317,-93.3317,Y,0,0,0,0,0,0,0,0,0,1,0,1
F,03,PAD980539712,ELIZABETHTOWN LANDFILL,W RIDGE RD,ELIZABETHTOWN,PA,40.132781,-76.608189,N,0,0,0,0,0,0,0,0,0,0,0,1
F,02,NJD002362705,NASCOLITE CORP.,DORIS AVE,MILLVILLE,NJ,39.422219,-75.032781,Y,1,0,0,0,0,0,0,0,1,0,0,1
F,05,MND980904064,RITARI POST & POLE,RTE 1,SEBEKA,MN,46.6608,-95.0298,Y,0,0,0,0,0,0,0,0,0,0,1,0
D,05,IND980504005,"WASTE, INC., LANDFILL",1701 EAST US 12,MICHIGAN CITY,IN,41.721669,-86.88,Y,0,0,0,0,0,0,0,0,1,1,0,1
F,03,PAD980539985,BLOSENSKI LANDFILL,ROUTE 340,WEST CALN TOWNSHIP,PA,40.02,-75.91055,Y,0,0,0,0,0,0,0,0,0,0,0,1
F,02,NJD002365930,SHIELDALLOY CORP.,WEST BLVD,NEWFIELD BOROUGH,NJ,39.543061,-75.022219,N,1,0,0,0,0,0,0,0,1,0,0,1
F,05,MND980904072,LONG PRAIRIE GROUND WATER CONTAMINATION,LONG PRAIRIE CITY LIMITS,LONG PRAIRIE,MN,45.978531,-94.856639,Y,0,0,0,0,0,0,0,0,1,1,0,1
D,05,IND980607360,SOUTHSIDE SANITARY LANDFILL,2561 KENTUCKY AVENUE,INDIANAPOLIS,IN,39.716111,-86.205,Y,0,0,0,0,0,0,0,0,1,1,0,1
F,02,NJD002385664,"VINELAND CHEMICAL CO., INC.",1611 W WHEAT RD,VINELAND,NJ,39.510281,-75.056661,N,1,0,0,0,0,0,0,0,1,1,0,1
F,05,MND981002249,WAITE PARK WELLS,253 N 5TH AVE,WAITE PARK,MN,45.561669,-94.215,Y,0,0,0,0,0,0,0,0,0,0,0,1
D,03,PAD980552913,ENTERPRISE AVENUE,ENTERPRISE AVE,PHILADELPHIA,PA,39.885,-75.2125,Y,0,0,0,0,1,0,1,1,1,1,0,1
D,05,IND980607626,COLUMBUS OLD MUNICIPAL LANDFILL #1,3RD ST BRIDGE AT WHITE RIVER,COLUMBUS,IN,39.1974,-85.926,Y,0,0,0,0,0,0,0,0,1,1,0,1
D,05,MND981002256,ST. AUGUSTA SANITARY LANDFILL/ENGEN DUMP,"EAST OF I-94, WEST OF RAILROAD",ST. AUGUSTA TOWNSHIP,MN,45.481669,-94.135,Y,0,0,0,0,0,0,0,0,1,1,0,1
F,02,NJD002493054,"KAUFFMAN & MINTEER, INC.",MONMOUTH ROAD (ROUTE 537),SPRINGFIELD TWP(JOBSTOWN),NJ,40.0363,-74.694,N,0,0,0,0,0,0,0,0,1,1,0,1
F,05,IND980607881,"DOUGLASS ROAD/UNIROYAL, INC., LANDFILL",NW INTERSECTION OF DOUGLASS AND GRAPE RD,MISHAWAKA,IN,41.7132,-86.1926,Y,0,0,0,0,0,0,0,0,0,0,0,1
D,05,MND981088180,EAST BETHEL DEMOLITION LANDFILL,HWY 65 AT 22 1ST AVE,EAST BETHEL TOWNSHIP,MN,45.3653,-93.2246,Y,1,0,0,0,0,0,0,0,1,0,0,1
F,02,NJD002517472,METALTEC/AEROSYSTEMS,WILDCAT & MAPLE ROADS,FRANKLIN BOROUGH,NJ,41.109719,-74.599719,Y,1,0,0,0,0,0,0,0,1,1,0,1
F,03,PAD980690549,EAST MOUNT ZION,DIENINGER ROAD,SPRINGETTSBURY TOWNSHIP,PA,40.0075,-76.665281,Y,0,0,0,0,0,0,0,0,0,0,0,1
F,05,IND980614556,NEAL'S LANDFILL (BLOOMINGTON),approx. '7052-7964 In-48',BLOOMINGTON,IN,39.1667,-86.6405,Y,0,0,0,0,0,0,0,0,1,0,0,1
F,02,NJD011717584,"CURCIO SCRAP METAL, INC.",416 LANZA AVE,SADDLE BROOK TWP,NJ,40.8907,-74.1035,Y,0,0,0,0,0,0,0,0,0,1,0,1
F,03,PAD980691372,MW MANUFACTURING,STATE ROUTE 54 AND I-80,VALLEY TOWNSHIP,PA,40.99,-76.641669,Y,0,0,0,0,0,0,0,0,1,0,0,1
F,05,IND980615421,MIDCO I,7400 W 15TH AVE,GARY,IN,41.5895,-87.4284,Y,0,0,0,0,0,0,0,0,0,0,0,1
D,05,MND981090483,LAGRAND SANITARY LANDFILL,1MI N OF I-94 W OF CSAH 40,LAGRAND TOWNSHIP,MN,45.9,-95.496669,Y,0,0,0,0,0,0,0,0,0,0,0,1
F,02,NJD011770013,MATTEO & SONS INC.,1708 US RT. 130,THOROFARE,NJ,39.85559,-75.1727,N,0,1,1,1,1,0,1,1,1,1,0,1
F,03,PAD980691703,KIMBERTON,COLD STREAM & HARES HILL ROADS,EAST PIKELAND TOWNSHIP,PA,40.12695,-75.575,Y,0,0,0,0,0,0,0,0,0,1,0,1
F,05,IND980679542,FORT WAYNE REDUCTION DUMP,5225 OLD MAUMEE RD,FORT WAYNE,IN,41.075,-85.066669,Y,0,0,0,0,0,0,0,0,1,1,0,1
D,05,MND981191570,DAKHUE SANITARY LANDFILL,260TH & HOGAN AVE,CANNON FALLS,MN,44.5718,-92.9277,Y,0,0,0,0,0,0,0,0,0,0,0,1
F,02,NJD014623854,"MARTIN AARON, INC.",1542 SOUTH BROADWAY,CAMDEN,NJ,39.926111,-75.119167,N,0,0,0,1,1,0,0,1,1,1,0,1
D,03,PAD980691760,BRODHEAD CREEK,S OF MAIN ST BRG,STROUDSBURG,PA,40.989719,-75.186669,Y,0,0,0,0,0,0,0,0,1,1,0,1
F,05,IND980679559,MIDCO II,5900 INDUSTRIAL HIGHWAY,GARY,IN,41.622781,-87.408611,N,0,0,0,0,0,0,0,0,0,0,0,1
F,05,MND982425209,BAYTOWN TOWNSHIP GROUND WATER PLUME,35TH STREET  N,BAYTOWN TOWNSHIP,MN,45,-92.833333,N,0,0,0,0,0,0,0,0,1,0,0,1
F,02,NJD014743678,LIGHTMAN DRUM COMPANY,ROUTE 73,WINSLOW TOWNSHIP,NJ,39.729722,-74.905917,N,1,0,0,0,0,0,0,0,1,0,0,1
F,05,MND985701309,FRIDLEY COMMONS PARK WELL FIELD,"61ST AVENUE, NE & 7TH STREET, NE",FRIDLEY,MN,45.080556,-93.255556,Y,0,0,0,0,0,0,0,0,0,0,0,1
F,03,PAD980691794,BERKS SAND PIT,UNOBTAINABLE,LONGSWAMP TOWNSHIP,PA,40.4646,-75.6273,Y,0,0,0,0,0,0,0,0,0,0,0,1
D,05,IND980684583,POER FARM,CO RD 1050E & CR 400N,HANCOCK COUNTY,IN,39.844719,-85.605281,Y,0,0,0,0,0,0,0,0,0,0,0,1
F,05,MNN000502963,SPRING PARK MUNICIPAL WELL FIELD,4333 WARREN AVENUE,SPRING PARK,MN,44.935944,-93.633306,N,0,0,0,0,0,0,0,0,1,0,0,1
F,02,NJD030253355,A. O. POLYMER,44 STATION ROAD,SPARTA TOWNSHIP,NJ,41.04805,-74.63,Y,1,0,0,0,0,0,0,0,1,1,0,1
F,05,MNN000509136,SOUTH MINNEAPOLIS RESIDENTIAL SOIL CONTAMINATION,27TH ST EAST & 17TH AV SOUTH,MINNEAPOLIS,MN,44.9528,-93.2427,Y,0,0,0,0,0,0,0,0,0,0,0,1
F,05,IND980794341,LEMON LANE LANDFILL,LEMON LANE,BLOOMINGTON,IN,39.1731,-86.5598,Y,0,0,0,0,0,0,0,0,0,0,0,1
F,03,PAD980692024,TYSONS DUMP,310 BROWNLIE RD.,UPPER MERION TWP,PA,40.111389,-75.362781,Y,0,0,0,0,0,0,0,0,1,1,0,1
F,07,MO0000958611,ANNAPOLIS LEAD MINE,EAST SIDE OF IRON COUNTY ROAD 138,ANNAPOLIS,MO,37.355556,-90.675,Y,0,0,0,0,0,0,0,0,1,0,0,1
F,02,NJD041743220,SWOPE OIL & CHEMICAL CO.,8281 NATIONAL HWY,PENNSAUKEN TOWNSHIP,NJ,39.9886,-75.0347,Y,0,0,0,0,0,0,0,1,0,0,0,1
F,03,PAD980692420,OLD CITY OF YORK LANDFILL,RD# 1 SOUTH RD,SEVEN VALLEYS,PA,39.840281,-76.759719,Y,0,0,0,0,0,0,0,0,0,0,0,1
F,05,IND980794358,MAIN STREET WELL FIELD,1120 N MAIN ST,ELKHART,IN,41.696389,-85.979161,Y,0,0,0,0,0,0,0,0,1,1,0,1
F,07,MO0000958835,POOLS PRAIRIE,US HWY. 60 AND US HWY. 71,NEOSHO,MO,36.803056,-94.390278,N,0,0,0,0,0,0,0,0,0,0,0,1
F,03,PAD980692487,SAEGERTOWN INDUSTRIAL AREA,GRANT ST,SAEGERTOWN,PA,41.71884,-80.142972,Y,0,0,0,0,0,0,0,0,0,1,0,1
F,07,MOD000829705,CONSERVATION CHEMICAL CO.,3900 FRONT ST,KANSAS CITY,MO,39.1279,-94.4722,Y,0,0,0,0,0,0,0,0,1,1,0,0
F,02,NJD041828906,FRIED INDUSTRIES,11 FRESH POND ROAD,EAST BRUNSWICK TOWNSHIP,NJ,40.4424,-74.4412,Y,1,0,0,0,0,0,0,0,1,1,0,1
D,07,MOD000830554,"WHEELING DISPOSAL SERVICE CO., INC., LANDFILL",OFF HWY K 1 1/2 MI S OF,AMAZONIA,MO,39.875,-94.87,Y,0,0,0,0,0,0,0,0,0,0,0,1
F,05,IND980794366,MARION (BRAGG) DUMP,2627-2629 CENTRAL AVE,MARION,IN,40.537781,-85.633061,Y,0,0,0,0,0,0,0,0,1,0,0,1
F,02,NJD043584101,"MATLACK, INC.",ROUTE 322 EAST,WOOLWICH TOWNSHIP,NJ,39.763106,-75.322169,N,0,0,1,1,1,0,0,1,1,0,0,1
D,07,MOD007163108,NORTH-U DRIVE WELL CONTAMINATION,OLD HWY 13 RT 5,SPRINGFIELD,MO,37.271389,-93.317781,Y,0,0,0,0,0,0,0,0,0,0,0,1
D,03,PAD980692537,WESTLINE,OFF OF OLD ROUTE 219,WESTLINE,PA,41.774719,-78.771669,Y,0,0,0,0,0,0,0,0,1,0,0,1
D,05,IND980794374,"WEDZEB ENTERPRISES, INC.",320 SOUTH BALLARD STREET,LEBANON,IN,40.0453,-86.4723,Y,0,0,0,0,0,0,0,0,0,0,0,1
F,07,MOD007452154,SYNTEX FACILITY,1ST ST,VERONA,MO,36.965,-93.798331,Y,0,0,0,0,0,0,0,0,1,0,0,1
D,02,NJD045653854,WITCO CHEMICAL CORP. (OAKLAND PLANT),100 BAUER DR,OAKLAND,NJ,41.00375,-74.24375,Y,1,0,0,0,0,0,0,0,0,1,0,1
F,03,PAD980692594,PAOLI RAIL YARD,RR SERVICE SHOP,PAOLI,PA,40.043189,-75.492919,Y,0,0,0,0,0,0,0,0,0,0,0,1
F,07,MOD046750253,ARMOUR ROAD,2251 ARMOUR ROAD,NORTH KANSAS CITY,MO,39.145,-94.556111,N,0,0,0,0,0,0,0,0,1,1,0,1
F,05,IND980794432,NINTH AVENUE DUMP,7357 W NINTH AVE,GARY,IN,41.5934,-87.429,Y,0,0,0,0,0,0,0,0,0,0,0,1
F,07,MOD079900932,WESTLAKE LANDFILL,13570 ST CHARLES ROCK ROAD,BRIDGETON,MO,38.77,-90.445269,N,0,0,0,0,0,0,0,0,0,1,0,1
D,02,NJD046644407,DENZER & SCHAFER X-RAY CO.,HICKORY LANE,BAYVILLE,NJ,39.909169,-74.170831,Y,1,0,0,0,0,0,0,0,0,0,0,1
F,03,PAD980692693,NORTH PENN - AREA 5,MAPLE DR,MONTGOMERY TOWNSHIP,PA,40.2721,-75.2451,N,0,0,0,0,0,0,0,0,0,1,0,1
F,07,MOD098633415,MADISON COUNTY MINES,401 N MINE LAMOTTE ST,FREDERICKTOWN,MO,37.546111,-90.276111,N,0,0,0,0,0,0,0,0,0,0,0,1
D,05,IND980794549,NEAL'S DUMP (SPENCER),T9N R4W SEC 12,SPENCER,IN,39.2381,-86.7968,Y,0,0,0,0,0,0,0,0,1,0,0,1
D,07,MOD980631113,KEM-PEST LABORATORIES,E OF ST HWY 177,CAPE GIRARDEAU,MO,37.339611,-89.489444,Y,0,0,0,0,0,0,0,0,1,1,0,1
F,02,NJD047321443,"CHEMICAL LEAMAN TANK LINES, INC.",CEDAR SWAMP & COOPER RDS,BRIDGEPORT,NJ,39.798331,-75.332781,N,0,0,0,0,1,0,1,1,1,1,0,1
D,03,PAD980692719,VOORTMAN FARM,VERA CRUZ RD,UPPER SAUCON TWP,PA,40.547,-75.4475,Y,0,0,0,0,0,0,0,0,0,0,0,1
F,07,MOD980631139,FULBRIGHT LANDFILL,BOLIVAR RD,SPRINGFIELD,MO,37.273056,-93.3125,Y,0,0,0,0,0,0,0,0,1,1,0,1
F,05,IND980904379,BECK'S LAKE,INTERSECTION OF WASHINGTON AND FALCON STREETS,SOUTH BEND,IN,41.676581,-86.297514,N,0,0,0,0,0,0,0,0,0,0,0,1
F,07,MOD980633010,ELLISVILLE SITE,NEAR ELLISVILLE,ELLISVILLE,MO,38.603331,-90.618331,Y,0,0,0,0,0,0,0,0,1,1,0,1
F,02,NJD047684451,"RADIATION TECHNOLOGY, INC.",108 LAKE DENMARK ROAD,ROCKAWAY TOWNSHIP,NJ,40.970831,-74.50555,N,1,0,0,0,0,0,0,0,0,0,1,0
F,03,PAD980693204,SALFORD QUARRY,610 QUARRY ROAD,LOWER SALFORD TOWNSHIP,PA,40.251944,-75.382222,N,0,0,0,0,0,0,0,0,1,0,0,1
F,05,IND980997639,"TIPPECANOE SANITARY LANDFILL, INC.","2801 NORTH 9TH RD, 1/2 MI N OF US 52",LAFAYETTE,IN,40.456111,-86.872219,Y,0,0,0,0,0,0,0,0,1,1,0,1
F,07,MOD980633176,ST. LOUIS AIRPORT/HAZELWOOD INTERIM STORAGE/FUTURA COATINGS CO.,BROWN ROAD N OF AIRPORT,ST. LOUIS,MO,38.759719,-90.360419,N,0,0,0,0,0,0,0,0,1,1,0,1
D,03,PAD980693907,TAYLOR BOROUGH DUMP,PRINCE STREET,TAYLOR BOROUGH,PA,41.407219,-75.718331,Y,0,0,0,0,0,0,0,0,0,0,1,0
F,05,IND980999635,GALEN MYERS DUMP/DRUM SALVAGE,11303 EDISON,OSCEOLA,IN,41.695839,-86.0875,Y,0,0,0,0,0,0,0,0,0,0,0,1
D,07,MOD980685226,TIMES BEACH,VARIOUS UNPAVED STREETS,TIMES BEACH,MO,38.508339,-90.601669,Y,0,0,0,0,0,0,0,0,1,1,0,1
F,02,NJD048044325,LANDFILL & DEVELOPMENT CO.,2023 RTE 38,MOUNT HOLLY,NJ,39.980561,-74.770839,Y,0,0,0,0,0,0,0,0,0,0,0,1
F,03,PAD980705107,BELL LANDFILL,325 PARKER ROAD,TERRY TOWNSHIP,PA,41.633061,-76.389169,Y,0,0,0,0,0,0,0,0,1,0,0,1
D,05,IND980999791,WHITEFORD SALES & SERVICE INC./NATIONALEASE,2020 WEST SAMPLE STREET,SOUTH BEND,IN,41.663889,-86.280281,Y,0,0,0,0,0,0,0,0,0,0,0,1
D,07,MOD980685838,SHENANDOAH STABLES,W 1/2 NE 1/4 SEC 17 T48N R1E,MOSCOW MILLS,MO,38.92445,-90.926939,Y,0,0,0,0,0,0,0,0,1,0,0,1
F,02,NJD048798953,CALDWELL TRUCKING CO.,222 PASSAIC AVENUE,FAIRFIELD,NJ,40.876389,-74.271389,N,0,0,0,0,0,0,0,0,1,1,0,1
F,07,MOD980686281,ORONOGO-DUENWEG MINING BELT,VARIOUS LOCATIONS,JOPLIN,MO,37.101111,-94.420561,N,0,0,0,0,0,0,0,0,0,0,0,1
F,03,PAD980706824,WATSON JOHNSON LANDFILL,E PUMPING STA RD,RICHLAND TOWNSHIP,PA,40.460139,-75.331861,N,0,0,0,0,0,0,0,0,1,0,0,1
F,02,NYD002232957,"ROBINTECH, INC./NATIONAL PIPE CO.",3421 OLD VESTAL ROAD,TOWN OF VESTAL,NY,42.1049,-75.9922,Y,0,0,0,0,0,0,0,0,0,0,1,0
F,07,MOD980741912,MINKER/STOUT/ROMAINE CREEK,4037 W ROCK CREEK RD & SWALLER,IMPERIAL,MO,38.44,-90.48,Y,0,0,0,0,0,0,0,0,0,0,0,1
D,03,PAD980712616,MCADOO ASSOCIATES,US 309 & OFF RAMP OF I 81,MCADOO BOROUGH,PA,40.878331,-76.001389,Y,0,0,0,0,0,0,0,0,0,0,0,1
F,02,NJD049860836,KIN-BUC LANDFILL,MEADOW ROAD,EDISON TOWNSHIP,NJ,40.4891,-74.3785,Y,1,0,1,1,1,0,1,1,1,1,0,1
F,02,NYD002920312,HOOKER CHEMICAL & PLASTICS CORP./RUCO POLYMER CORP.,NEW SOUTH ROAD,HICKSVILLE,NY,40.7575,-73.504169,Y,0,0,0,0,0,0,0,0,0,0,0,1
F,07,MOD980853519,LEE CHEMICAL,HWY 210 E OF HWY 291,LIBERTY,MO,39.201111,-94.3925,Y,0,0,0,0,0,0,0,0,1,1,0,0
F,03,PAD980712673,OSBORNE LANDFILL,0.5 MILES E OF TOWN,GROVE CITY,PA,41.161111,-80.058331,Y,0,0,0,0,0,0,0,0,0,0,0,1
F,02,NYD004986741,SAINT-GOBAIN PERFORMANCE PLASTICS,14 McCaffrey Street,VILLAGE OF HOOSICK FALLS,NY,42.8943,-73.3566,N,0,0,0,0,0,0,0,0,1,1,0,1
F,07,MOD980854111,"SOLID STATE CIRCUITS, INC.",MAIN ST,REPUBLIC,MO,37.118061,-93.480281,Y,0,0,0,0,0,0,0,0,0,0,0,1
D,03,PAD980712731,LEHIGH ELECTRIC & ENGINEERING CO.,BRIDGE & HOWARD STS,OLD FORGE,PA,41.357531,-75.740689,Y,0,0,0,0,0,0,0,0,0,0,1,0
F,02,NJD053102232,HIGGINS DISPOSAL,121 LAUREL AVE,KINGSTON,NJ,40.3875,-74.615281,Y,1,0,0,0,0,0,0,0,1,0,0,1
F,07,MOD980860522,BEE CEE MANUFACTURING CO.,MALDEN INDUSTRIAL PARK,MALDEN,MO,36.603292,-89.97905,Y,0,0,0,0,0,0,0,0,0,0,1,0
D,02,NYD010959757,MARATHON BATTERY CORP.,KEMBLE AVENUE,COLD SPRINGS,NY,41.416111,-73.954719,Y,0,1,1,1,1,0,1,1,1,1,0,1
F,03,PAD980712798,LINDANE DUMP,RTE 28 & SPRING HILL ROAD,HARRISON TOWNSHIP,PA,40.6257,-79.7155,Y,0,0,0,0,0,0,0,0,0,0,0,1
F,02,NJD053280160,GARDEN STATE CLEANERS CO.,"SUMMER ROAD, P.O. BOX 183",MINOTOLA,NJ,39.519031,-74.94945,Y,0,0,0,0,0,0,0,0,0,0,0,1
F,07,MOD980860555,QUALITY PLATING,RT 2,SIKESTON,MO,36.96305,-89.557219,Y,0,0,0,0,0,0,0,0,1,1,0,0
D,03,PAD980712855,BRUIN LAGOON,RTE 268,BRUIN BOROUGH,PA,41.051111,-79.725,Y,0,0,0,0,0,0,0,0,1,0,0,1
F,02,NYD010968014,CARROLL & DUBIES SEWAGE DISPOSAL,CANAL STREET,PORT JERVIS,NY,41.3942,-74.6681,Y,0,0,0,0,0,0,0,0,1,0,0,1
F,07,MOD980965982,MISSOURI ELECTRIC WORKS,S HIGHWAY 61 2 MI S HIGHWAY K,CAPE GIRARDEAU,MO,37.28625,-89.555056,N,0,0,0,0,0,0,0,0,1,1,0,1
D,03,PAD980829261,REESER'S LANDFILL,OLD RTE 22,UPPER MACUNGIE TWP,PA,40.5794,-75.6564,Y,0,0,0,0,0,0,0,0,1,0,0,1
F,02,NJD053292652,BRIDGEPORT RENTAL & OIL SERVICES,CEDAR SWAMP RD,BRIDGEPORT,NJ,39.801669,-75.321661,N,0,0,0,0,1,0,1,1,1,1,0,1
F,07,MOD980968341,VALLEY PARK TCE,HIGHWAY 141 N OF MERAMEC RIVER,VALLEY PARK,MO,38.552781,-90.466669,Y,0,0,0,0,0,0,0,0,1,1,0,1
D,03,PAD980829329,HEBELKA AUTO SALVAGE YARD,UNOBTAINABLE,WEISENBERG TOWNSHIP,PA,40.576669,-75.667781,Y,0,0,0,0,0,0,0,0,1,0,0,1
D,02,NYD013468939,LUDLOW SAND & GRAVEL,HOLMAN CITY RD,CLAYVILLE,NY,42.959169,-75.226389,Y,0,0,0,0,0,0,0,0,0,0,0,1
F,07,MOD981126899,BIG RIVER MINE TAILINGS/ST. JOE MINERALS CORP.,SECTION 25 26 35 & 36 T37N R4E,DESLOGE,MO,37.878097,-90.539344,N,0,0,0,0,0,0,0,0,1,0,0,1
F,03,PAD980829493,"JACKS CREEK/SITKIN SMELTING & REFINING, INC.",PO BOX 708,MAITLAND,PA,40.641531,-77.475281,Y,0,0,0,0,0,0,0,0,1,0,0,1
F,07,MOD981507585,NEWTON COUNTY MINE TAILINGS,ENTIRE TOWN OF,GRANBY,MO,36.9921,-94.3848,N,0,0,0,0,0,0,0,0,1,0,0,1
F,02,NJD054981337,"WALDICK AEROSPACE DEVICES, INC.",2121 ROUTE 35,WALL TOWNSHIP,NJ,40.143,-74.0613,Y,1,0,0,0,0,0,0,1,1,1,0,1
F,02,NYD047650197,STANTON CLEANERS AREA GROUND WATER CONTAMINATION,110 CUTTER MILL ROAD,GREAT NECK,NY,40.782361,-73.734139,Y,1,0,0,0,0,0,0,0,0,0,0,1
F,03,PAD980829527,WALSH LANDFILL,WALSH ROAD,HONEYBROOK TOWNSHIP,PA,40.119719,-75.915281,Y,0,0,0,0,0,0,0,0,0,0,0,1
F,07,MOD981717036,OAK GROVE VILLAGE WELL,"NE 1/4, SW 1/4, NW 1/4, SECTION 17",SULLIVAN,MO,38.220972,-91.149461,N,0,0,0,0,0,0,0,0,0,1,0,1
F,02,NJD057143984,"CURTIS SPECIALTY PAPERS, INC",404 FRENCHTOWN ROAD,MILFORD,NJ,40.561758,-75.089842,N,0,0,0,0,0,0,0,0,1,1,0,1
F,03,PAD980830533,EASTERN DIVERSIFIED METALS,LINCOLN AVENUE,HOMETOWN,PA,40.829439,-75.9975,Y,0,0,0,0,0,0,0,0,0,0,0,1
F,07,MOD981720246,RIVERFRONT,"PLUME, NEW HAVEN",NEW HAVEN,MO,38.613889,-91.214722,N,0,0,0,0,0,0,0,0,1,1,1,1
F,02,NYD048148175,"MERCURY REFINING, INC.",26 RAILROAD AVE,COLONIE,NY,42.689719,-73.804169,Y,0,0,0,0,0,0,0,0,1,0,0,1
F,02,NJD061843249,NL INDUSTRIES,PENNS GROVE-PEDRICKTOWN ROAD,PEDRICKTOWN (OLDMANS TOWN,NJ,39.758061,-75.424719,N,0,0,0,0,1,0,1,1,1,1,0,1
D,03,PAD980830715,YORK COUNTY SOLID WASTE AND REFUSE AUTHORITY LANDFILL,ROAD #3 - BOX 426,HOPEWELL TOWNSHIP,PA,39.782361,-76.607219,Y,0,0,0,0,0,0,0,0,0,0,0,1
F,07,MOD985798339,NEWTON COUNTY WELLS,3200 MOORHEAD DRIVE,JOPLIN,MO,37.044722,-94.473056,Y,0,0,0,0,0,0,0,0,0,0,0,1
F,03,PAD980830889,SHRIVER'S CORNER,RD #6 ALONG RTE 394,STRABAN TOWNSHIP,PA,39.8999,-77.2055,Y,0,0,0,0,0,0,0,0,1,0,0,1
F,02,NJD063157150,BOG CREEK FARM,SQUANRUM RD. (MONMOUTH CO. RT. 547),HOWELL TOWNSHIP,NJ,40.150831,-74.161111,Y,1,0,0,0,0,0,0,0,1,0,0,1
F,07,MON000705023,WASHINGTON COUNTY LEAD DISTRICT - POTOSI,500 FT EAST OF BELL ST AND VALLEY ROAD,Potosi,MO,37.9399,-90.7724,N,0,0,0,0,0,0,0,0,0,0,0,1
F,02,NYD066813064,HOPEWELL PRECISION,15 RYAN RD,HOPEWELL JUNCTION,NY,41.61156,-73.78177,N,1,0,0,0,0,0,0,0,1,1,0,1
F,03,PAD980830897,HUNTERSTOWN ROAD,RD #5,STRABAN TOWNSHIP,PA,39.85305,-77.206111,Y,0,0,0,0,0,0,0,0,0,0,0,1
F,07,MON000705027,WASHINGTON COUNTY LEAD DISTRICT - OLD MINES,INTERSECTION OF HIGHWAYS 21 AND 47,Old Mines,MO,38.075278,-90.738333,N,0,0,0,0,0,0,0,0,1,0,0,1
F,02,NJD063160667,GLOBAL SANITARY LANDFILL,ERNSTON ROAD,OLD BRIDGE TOWNSHIP,NJ,40.446389,-74.286111,Y,1,0,1,1,1,0,1,1,1,1,0,1
F,02,NYD067532580,DIAZ CHEMICAL,40 JACKSON ST. AREA A,HOLLEY,NY,43.222944,-78.029278,N,0,0,0,0,0,0,0,0,0,0,1,0
D,03,PAD980830921,LANSDOWNE RADIATION SITE,105/107 E STRATFORD AVE,LANSDOWNE,PA,39.9413,-75.2671,Y,0,0,0,0,0,0,0,0,0,0,0,1
F,07,MON000705032,WASHINGTON COUNTY LEAD DISTRICT - RICHWOODS,21 ACRES IN NORTHEAST WASHINGTON COUNTY,Richwoods,MO,38.16615,-90.814264,N,0,0,0,0,0,0,0,0,0,0,0,1
F,02,NJD064263817,SYNCON RESINS,77 JACOBUS AVE,SOUTH KEARNY,NJ,40.737781,-74.114719,N,0,1,1,1,1,0,1,1,1,1,0,0
F,03,PAD980831812,BROWN'S BATTERY BREAKING,446 FISHER DAM RD,HAMBURG,PA,40.519439,-76.001389,Y,0,0,0,0,0,0,0,0,1,1,0,1
F,07,MON000705443,SOUTHWEST JEFFERSON COUNTY MINING,"SLVR LK TRL & THNDR RDG RD,.5M W HWY WW",JEFFERSON COUNTY,MO,38.186794,-90.758975,N,0,0,0,0,0,0,0,0,0,0,0,1
F,02,NJD070281175,PRICE LANDFILL,MILL ROAD,PLEASANTVILLE,NJ,39.415281,-74.52695,N,1,0,0,0,0,0,0,1,0,0,1,1
D,02,NYD072366453,"ACTION ANODIZING, PLATING, & POLISHING CORP.",33 DIXON AVE.,COPIAGUE,NY,40.684439,-73.406111,Y,0,0,0,0,0,0,0,1,0,0,0,1
F,07,MON000705803,VIENNA WELLS,545-547 N. CHESTNUT STREET,VIENNA,MO,38.189597,-91.944158,N,0,0,0,0,0,0,0,0,0,0,1,0
F,03,PAD980926976,NORTH PENN - AREA 6,W 3RD ST,LANSDALE,PA,40.248331,-75.295639,N,0,0,0,0,0,0,0,0,1,1,0,1
D,02,NJD070415005,"RENORA, INC.",83 SOUTH MAIN ST,EDISON TOWNSHIP,NJ,40.519628,-74.358889,Y,0,0,0,0,0,0,0,0,1,1,0,1
F,02,NYD073675514,"FACET ENTERPRISES, INC.",RTE 14,ELMIRA,NY,42.1325,-76.829169,Y,0,0,0,0,0,0,0,0,0,0,1,0
F,07,MON000705842,WASHINGTON COUNTY LEAD DISTRICT - FURNACE CREEK,2 MI. N OF INT. OF BIG RIVER & HWY 21,CALEDONIA,MO,37.840531,-90.799556,N,0,0,0,0,0,0,0,0,0,0,0,1
F,03,PAD981033285,"RODALE MANUFACTURING CO., INC.",6TH & MINOR STREETS,EMMAUS BOROUGH,PA,40.531111,-75.493333,Y,0,0,0,0,0,0,0,0,0,0,0,1
F,07,MON000706143,COMPASS PLAZA WELL TCE,201 SOUTH MARSHALL STREET,ROGERSVILLE,MO,37.109009,-93.083168,N,0,0,0,0,0,0,0,0,0,0,0,1
F,02,NJD070565403,SCIENTIFIC CHEMICAL PROCESSING,216 PATERSON PLANK RD,CARLSTADT,NJ,40.82454,-74.074329,N,1,1,1,1,1,0,1,1,1,0,0,1
D,02,NYD075784165,KENMARK TEXTILE CORP.,921 CONKLIN ST (P.O. BOX 298),FARMINGDALE,NY,40.7384,-73.4264,Y,0,0,0,0,0,0,0,0,0,0,0,1
D,09,MPD980798318,PCB WAREHOUSE,LOWER BASE 1000/PHILIPINE SEA,GARAPAN,MP,15.2,145.75,Y,0,0,0,0,0,0,0,0,0,0,0,1
F,03,PAD981033459,RYELAND ROAD ARSENIC SITE,RYELAND ROAD,HEIDELBERG TWP,PA,40.35395,-76.175361,N,0,0,0,0,0,0,0,0,0,0,0,1
F,02,NJD073732257,ROEBLING STEEL CO.,2ND STREET,FLORENCE,NJ,40.120831,-74.770839,N,0,0,0,0,1,0,0,0,1,1,0,1
F,04,MSD000272385,RED PANTHER CHEMICAL COMPANY,1201 NORMANDY AVENUE,CLARKSDALE,MS,34.187408,-90.561625,N,0,0,0,0,0,0,0,0,0,1,0,0
F,02,NJD078251675,BROOK INDUSTRIAL PARK,100 WEST MAIN STREET,BOUND BROOK,NJ,40.560139,-74.536111,Y,0,0,0,0,0,0,1,1,1,1,0,1
D,03,PAD981034630,ROUTE 940 DRUM DUMP,OFF RTE 940,POCONO SUMMIT,PA,41.1105,-75.3825,Y,0,0,0,0,0,0,0,0,0,0,0,1
F,02,NYD091972554,GENERAL MOTORS (CENTRAL FOUNDRY DIVISION),ROOSEVELT TOURIN ROAD,MASSENA,NY,44.983889,-74.732781,N,0,0,0,0,0,0,0,0,0,0,1,0
F,04,MSD000828558,SOUTHEASTERN WOOD PRESERVING,NORTHERN SIDE OF COVINGTON DRIVE,CANTON,MS,32.618061,-90.018189,N,0,0,0,0,0,0,0,0,1,1,0,1
F,02,NJD079303020,LCP CHEMICALS INC.,FOOT OF SOUTH WOOD AVENUE,LINDEN,NJ,40.6075,-74.210278,N,0,1,1,1,1,0,1,1,1,1,0,1
F,04,MSD004006995,AMERICAN CREOSOTE WORKS INC (LOUISVILLE),RAILROAD AVE,LOUISVILLE,MS,33.111111,-89.058333,Y,0,0,0,0,0,0,0,0,1,1,0,1
F,03,PAD981034705,BUTZ LANDFILL,RD #5 TWP RTE 601,STROUDSBURG,PA,41.0335,-75.3438,Y,0,0,0,0,0,0,0,0,0,0,0,1
F,02,NYD125499673,COMPUTER CIRCUITS,145 MARCUS BOULEVARD,HAUPPAUGE,NY,40.813194,-73.24611,Y,0,0,0,0,0,0,0,0,0,0,0,1
D,02,NJD085632164,M&T DELISA LANDFILL,RTS 35 & 66,ASBURY PARK,NJ,40.229169,-74.045281,Y,0,0,0,0,0,0,0,0,1,1,0,1
F,04,MSD007037278,ROCKWELL INTERNATIONAL WHEEL & TRIM,HIGHWAY 332 EAST,GRENADA,MS,33.803244,-89.801661,N,0,0,0,0,0,0,0,0,1,0,0,0
F,02,NYD980421176,SOLVENT SAVERS,UNION VALLEY RD,LINCKLAEN,NY,42.665,-75.876661,N,0,0,0,0,0,0,0,0,1,0,0,1
F,04,MSD008154486,"CHEMFAX, INC.",THREE RIVERS ROAD AND CREOSOTE ROAD,GULFPORT,MS,30.428888,-89.089166,Y,1,0,0,0,1,0,0,1,1,1,0,1
F,03,PAD981034887,BORIT ASBESTOS,6 MAPLE STREET,AMBLER,PA,40.153472,-75.228625,Y,0,0,0,0,0,0,0,0,1,1,0,1
F,02,NJD092226000,DIAMOND HEAD OIL REFINERY DIV.,1401 HARRISON TURNPIKE,KEARNY,NJ,40.747222,-74.132194,N,1,0,0,0,1,0,1,1,1,0,0,1
D,02,NYD980506679,WARWICK LANDFILL,PENALUNA RD/OLD TUXEDO/DUTCH H,WARWICK,NY,41.238889,-74.27,Y,1,0,0,0,0,0,0,0,1,0,0,1
D,04,MSD046497012,DAVIS TIMBER COMPANY,107 JACKSON STREET,HATTIESBURG,MS,31.345192,-89.404461,Y,1,0,0,0,0,0,0,0,0,0,0,1
F,02,NJD094966611,COMBE FILL SOUTH LANDFILL,PARKER ROAD- BOX 418,CHESTER TOWNSHIP,NJ,40.771669,-74.738331,N,1,0,0,0,0,0,0,0,0,0,1,0
F,03,PAD981035009,CROYDON TCE,RIVER ROAD,CROYDON TOWNSHIP,PA,40.084934,-74.8892,Y,0,0,0,1,1,0,0,1,1,1,0,1
D,02,NYD980506810,HOOKER (102ND STREET),102 ST,NIAGARA FALLS,NY,43.070281,-78.942219,Y,0,0,0,0,0,0,0,0,1,1,0,1
F,04,MSD065490930,PICAYUNE WOOD TREATING SITE,403 DAVIS STREET,PICAYUNE,MS,30.524444,-89.689722,N,1,0,0,0,0,0,0,0,1,1,0,1
F,02,NJD097400998,JIS LANDFILL,901-999 CRANBURY SOUTH RIVER ROAD,SOUTH BRUNSWICK,NJ,40.365831,-74.465281,Y,0,0,0,0,0,0,0,0,0,0,0,1
F,02,NYD980506901,ISLIP MUNICIPAL SANITARY LANDFILL,BLYDENBURG RD/LG ISLAND MOTOR,ISLIP,NY,40.8178,-73.1829,Y,1,0,0,0,0,0,0,0,0,0,0,1
F,04,MSD086556388,SONFORD PRODUCTS,3600 PAYNE DRIVE,FLOWOOD,MS,32.29251,-90.14222,N,0,0,0,0,0,0,0,0,1,1,0,1
F,02,NJD980417976,SHERWIN-WILLIAMS/HILLIARDS CREEK,FOSTER AVENUE AND GIBBSBORO ROAD,Gibbsboro,NJ,39.835526,-74.964977,N,0,0,0,0,0,0,0,0,1,0,0,1
F,03,PAD981038052,"DELTA QUARRIES & DISPOSAL, INC./STOTLER LANDFILL",SAND BANK RD,ANTIS/LOGAN TWPS,PA,40.553611,-78.35445,Y,0,0,0,0,0,0,0,0,0,0,0,1
F,02,NYD980506927,JOHNSTOWN CITY LANDFILL,W FULTON S EXT,TOWN OF JOHNSTOWN,NY,43.043061,-74.393061,Y,0,0,0,0,0,0,0,0,0,0,1,0
D,04,MSD980710941,FLOWOOD SITE,STATE HWY 468,FLOWOOD,MS,32.3,-90.145839,Y,0,0,0,0,0,0,0,0,1,1,0,1
F,02,NJD980484653,CHEMICAL INSECTICIDE CORP.,30 WHITMAN AV,EDISON TOWNSHIP,NJ,40.5274,-74.368,Y,0,0,0,0,0,0,0,0,0,0,0,1
D,02,NYD980507495,PFOHL BROTHERS LANDFILL,PFOHL RD,CHEEKTOWAGA,NY,42.943889,-78.7025,Y,0,0,0,0,0,0,0,0,0,0,1,0
D,04,MSD980840045,"NEWSOM BROTHERS/OLD REICHHOLD CHEMICALS, INC.",WADE ST & PEARL ST,COLUMBIA,MS,31.244719,-89.826939,Y,1,0,0,0,0,0,0,0,1,1,0,1
F,03,PAD981740004,DUBLIN TCE SITE,120 MILL ST./ WHISTLEWOOD APT-ROUTE 313,DUBLIN BOROUGH,PA,40.370892,-75.204897,N,0,0,0,0,0,0,0,0,0,0,0,1
F,02,NYD980507677,SIDNEY LANDFILL,RICHARDSON HILL RD,SIDNEY,NY,42.2577,-75.243,Y,0,0,0,0,0,0,0,0,0,0,0,1
F,04,MSD990866329,KERR-MCGEE CHEMICAL CORP - COLUMBUS,EAST OF INT. OF N 14TH AVE & N 20TH ST,COLUMBUS,MS,33.509767,-88.409686,N,0,0,0,0,0,0,0,0,0,1,0,1
F,02,NJD980504997,BURNT FLY BOG,TYLERS LANE,MARLBORO TOWNSHIP,NJ,40.375,-74.279169,Y,1,0,0,0,0,0,0,0,1,0,0,1
D,02,NYD980507693,BATAVIA LANDFILL,GALLOWAY & KELSEY RD,BATAVIA,NY,43.0197,-78.2561,Y,0,0,0,0,0,0,0,0,0,0,1,0
F,04,MSN000403508,MISSISSIPPI PHOSPHATES CORPORATION,601 Industrial Road,PASCAGOULA,MS,30.372103,-88.491006,N,0,0,0,0,1,0,0,1,1,1,0,1
F,03,PAD981740061,CROSSLEY FARM,HUFF'S CHURCH ROAD & BLACKHEAD HILL,HEREFORD TOWNSHIP,PA,40.435417,-75.620611,N,0,0,0,0,0,0,0,0,1,0,0,1
F,02,NYD980507735,RICHARDSON HILL ROAD LANDFILL/POND,RICHARDSON HILL RD,SIDNEY CENTER,NY,42.252781,-75.249169,Y,0,0,0,0,0,0,0,0,0,0,0,1
F,08,MT0001096353,CARPENTER SNOW CREEK MINING DISTRICT,NO SPECIFIC ADDRESS,NEIHART,MT,46.956312,-110.709797,N,1,0,0,0,0,0,0,0,0,0,1,0
F,02,NJD980505176,BRICK TOWNSHIP LANDFILL,SALLY IKE ROAD,BRICK TOWNSHIP,NJ,40.1098,-74.1311,Y,1,0,0,0,0,0,0,0,0,0,0,1
F,03,PAD981938939,OLD WILMINGTON ROAD GW CONTAMINATION,OLD WILMINGTON ROAD,SADSBURYVILLE,PA,39.995833,-75.908333,N,0,0,0,0,0,0,0,0,0,0,0,1
F,08,MT0007623052,LOCKWOOD SOLVENT GROUND WATER PLUME,LOCKWOOD ROAD,BILLINGS,MT,45.801471,-108.457075,N,0,0,0,0,0,0,0,0,0,0,0,1
F,02,NYD980509285,"TRI-CITIES BARREL CO., INC.",ADJ. TO ROUTE 7,PORT CRANE,NY,42.15805,-75.811939,Y,0,0,0,0,0,0,0,0,0,0,1,0
F,08,MT0009083840,LIBBY ASBESTOS SITE,512 CALIFORNIA AVENUE,LIBBY,MT,48.389154,-115.530115,N,1,0,0,0,0,0,0,0,1,1,0,1
F,02,NJD980505192,ROLLING KNOLLS LF,35 BRITTEN RD,GREEN VILLAGE,NJ,40.729528,-74.447861,N,1,0,0,0,0,0,0,0,0,0,1,0
D,03,PAD981939200,PUBLICKER INDUSTRIES INC.,3223 S DELAWARE AVENUE,PHILADELPHIA,PA,39.90805,-75.135281,Y,0,1,1,1,1,0,1,1,1,1,0,1
F,02,NYD980509376,VOLNEY MUNICIPAL LANDFILL,SILK ROAD,TOWN OF VOLNEY,NY,43.36055,-76.379169,Y,0,0,0,0,0,0,0,0,1,0,0,1
F,08,MT0012694970,FLAT CREEK IMM,FLAT CREEK ROAD AND HALL GULCH ROAD,SUPERIOR,MT,47.226375,-114.871355,N,1,0,0,0,0,0,0,0,0,0,1,0
D,02,NJD980505283,JACKSON TOWNSHIP LANDFILL,LAKEHURST AVENUE,JACKSON TOWNSHIP,NJ,40.063331,-74.348611,Y,1,0,0,0,0,0,0,0,0,0,0,1
F,02,NYD980528335,GE MOREAU,FT EDWARD & WM ST,SOUTH GLENS FALLS,NY,43.28305,-73.629169,Y,0,0,0,0,0,0,0,0,0,0,1,0
F,08,MT6122307485,BARKER HUGHESVILLE MINING DISTRICT,FOREST SERVICE ROAD 6403,MONARCH,MT,47.071683,-110.643788,N,1,0,0,0,0,0,0,0,0,0,1,0
F,03,PAD982363970,VALMONT TCE SITE   (FORMER - VALMONT INDUSTRIAL PARK),DEER RUN ROAD,WEST HAZLETON,PA,40.967778,-76.015556,Y,0,0,0,0,0,0,0,0,0,0,0,1
F,02,NJD980505341,KING OF PRUSSIA,PINEY HOLLOW ROAD,WINSLOW TOWNSHIP,NJ,39.62695,-74.889439,Y,1,0,0,0,0,0,0,0,1,0,0,1
F,08,MTD006230346,EAST HELENA SITE,S OF E HELENA,EAST HELENA,MT,46.583866,-111.920692,N,0,0,0,0,0,0,0,0,1,0,0,1
F,02,NYD980528475,CORTESE LANDFILL,SOUTH OF ROUTE 97,VIL OF NARROWSBURG,NY,41.600561,-75.065,Y,0,0,0,0,0,0,0,0,1,1,0,1
F,02,NJD980505366,HELEN KRAMER LANDFILL,JESSUP MILL ROAD,MANTUA TOWNSHIP,NJ,39.7801,-75.2003,Y,1,0,0,0,0,0,0,1,1,0,0,1
D,03,PAD982366957,"METROPOLITAN MIRROR AND GLASS CO., INC.",INDUSTRIAL ROAD,FRACKVILLE,PA,40.775,-76.221667,Y,0,0,0,0,0,0,0,0,0,0,0,1
F,08,MTD006230635,MONTANA POLE AND TREATING,202 W GREENWOOD AVENUE,BUTTE,MT,45.99134,-112.548242,Y,0,0,0,0,0,0,0,0,1,0,0,1
F,02,NJD980505382,LANG PROPERTY,WHITESBOG-PASADENA ROAD,PEMBERTON TOWNSHIP,NJ,39.929161,-74.49445,Y,1,0,0,0,0,0,0,0,1,0,0,1
F,02,NYD980528657,OLEAN WELL FIELD,LAUREN ST,OLEAN,NY,42.069439,-78.404719,N,0,0,0,0,0,0,0,0,0,0,1,0
F,08,MTD006232276,IDAHO POLE CO.,CEDAR ST,BOZEMAN,MT,45.688454,-111.023672,Y,0,0,0,0,0,0,0,0,1,1,0,1
F,03,PAD987295276,SAFETY LIGHT CORPORATION,4150 A. OLD BERWICK ROAD,BLOOMSBURG,PA,41.015278,-76.376389,N,0,0,0,0,0,0,0,0,1,1,0,1
F,02,NJD980505416,LIPARI LANDFILL,RT 322,PITMAN,NJ,39.720281,-75.141939,Y,1,0,0,0,0,0,0,0,1,0,0,1
F,02,NYD980530265,PETER COOPER,PALMER STREET,GOWANDA,NY,42.458778,-78.927583,Y,0,0,0,0,0,0,0,0,1,1,0,1
F,08,MTD021997689,MOUAT INDUSTRIES,ADJACENT TO AIR STRIP IN CY,COLUMBUS,MT,45.633612,-109.245678,Y,0,0,0,0,0,0,0,0,0,0,0,1
F,02,NJD980505424,LONE PINE LANDFILL,BURKE ROAD,FREEHOLD TOWNSHIP,NJ,40.202781,-74.333339,Y,1,0,0,0,0,0,0,0,0,0,0,1
F,02,NYD980531727,OLD BETHPAGE LANDFILL,ROUND SWAMP RD,OYSTER BAY,NY,40.756939,-73.447219,Y,1,0,0,0,0,0,0,0,0,0,0,1
D,03,PAD987341716,AUSTIN AVENUE RADIATION SITE,133 AUSTIN AVE.,DELAWARE COUNTY,PA,39.943056,-75.261944,Y,0,0,0,0,0,0,0,0,0,0,0,1
F,08,MTD057561763,ANACONDA ALUMINUM CO COLUMBIA FALLS REDUCTION PLANT,EASTERN END OF ALUMINUM DRIVE,COLUMBIA FALLS,MT,48.39166,-114.136514,N,0,0,0,0,0,0,0,0,0,0,0,1
F,02,NJD980505648,PJP LANDFILL,400 SIP AVE,JERSEY CITY,NJ,40.734719,-74.085561,N,1,1,1,1,1,0,1,1,1,1,0,1
D,02,NYD980534556,JONES SANITATION,CARDINAL RD,HYDE PARK,NY,41.795,-73.902,Y,0,0,0,0,0,0,0,0,1,1,0,1
F,08,MTD093291599,ACM SMELTER AND REFINERY,"RIVER ROAD NORTH, 1 MILE E. OF 15TH ST",BLACK EAGLE,MT,47.52861,-111.24648,N,0,0,0,0,0,0,0,0,1,0,1,0
D,02,NJD980505671,MONROE TOWNSHIP LANDFILL,MATCHAPONIX AVE. BLOCK 148 LOT B7,MONROE TOWNSHIP,NJ,40.361669,-74.401389,Y,0,0,0,0,0,0,0,0,0,0,0,1
F,02,NYD980535124,MALTA ROCKET FUEL AREA,PLAINS RD,MALTA,NY,42.963889,-73.758331,Y,1,0,0,0,0,0,0,0,0,0,1,0
F,03,PAN000305679,PRICE BATTERY LEAD SMELTER,246 GRAND STREET,HAMBURG,PA,40.549507,-75.980228,N,0,0,0,0,0,0,0,0,1,1,0,1
F,08,MTD093291656,ANACONDA CO. SMELTER,3 MI SE OF ANACONDA,ANACONDA,MT,46.133576,-112.845493,N,0,0,0,0,0,0,0,0,0,0,1,0
D,02,NJD980505754,SAYREVILLE LANDFILL,JERNEES MILL RD,SAYREVILLE,NJ,40.445561,-74.358331,Y,1,1,1,1,1,0,1,1,1,1,0,1
F,02,NYD980535165,SARNEY FARM,BENSON HILL RD,AMENIA,NY,41.75555,-73.561389,Y,0,0,0,0,0,0,0,0,0,0,0,1
F,08,MTD980502736,LIBBY GROUND WATER CONTAMINATION,1119 & 1415 DAKOTA,LIBBY,MT,48.381158,-115.539627,Y,0,0,0,0,0,0,0,0,1,1,0,1
F,02,NJD980505762,SHARKEY LANDFILL,EDWARDS & SHARKEY ROAD,"PARSIPPANY, TROY HLS",NJ,40.8501,-74.3454,Y,0,0,0,0,0,0,0,0,0,0,1,0
F,02,NYD980535181,"SEALAND RESTORATION, INC.",PRAY RD,LISBON,NY,44.703611,-75.361531,Y,0,0,0,0,0,0,0,0,0,0,1,0
F,03,PAN000306939,BAGHURST DRIVE,NORTHERN INTERSECTION OF HENDRICKS,HARLEYSVILLE,PA,40.299483,-75.455133,N,0,0,0,0,0,0,0,0,1,1,0,1
F,08,MTD980502777,SILVER BOW CREEK/BUTTE AREA,BUTTE TO MILLTOWN RESERVIOR,BUTTE,MT,46.002307,-112.61698,N,0,0,0,0,0,0,0,0,1,1,0,1
F,02,NJD980505879,WOODLAND ROUTE 72 DUMP,"RTE 72, ON SOOEY ROAD",WOODLAND TOWNSHIP,NJ,39.821669,-74.447781,Y,1,0,0,0,0,0,0,0,1,0,0,1
F,02,NYD980535215,SINCLAIR REFINERY,S BROOKLYN AVE,WELLSVILLE,NY,42.1088,-77.9416,Y,0,0,0,0,0,0,0,0,0,0,1,0
F,08,MTD980717565,MILLTOWN RESERVOIR SEDIMENTS,ADJACENT TO SE SIDE OF TWN,MILLTOWN,MT,46.86452,-113.883364,N,1,0,0,0,0,0,0,0,1,1,0,1
F,02,NJD980505887,WOODLAND ROUTE 532 DUMP,ROUTE 532,WOODLAND TOWNSHIP,NJ,39.829169,-74.492231,Y,1,0,0,0,0,0,0,0,1,0,0,1
F,02,NYD980535652,APPLIED ENVIRONMENTAL SERVICES,ONE SHORE RD,GLENWOOD LANDING,NY,40.823054,-73.646693,Y,1,1,1,1,1,0,1,1,1,1,0,1
F,03,PASFN0305521,LOWER DARBY CREEK AREA,DARBY CRK BETWEEN,DARBY TWP,PA,39.885556,-75.267778,N,0,1,1,1,1,0,1,1,1,1,0,1
F,08,MTD982572562,BASIN MINING AREA,NORTH OF I-15,BASIN,MT,46.345479,-112.272079,N,1,0,0,0,0,0,0,0,0,0,1,0
F,02,NJD980528889,"CHEMSOL, INC.",FLEMING ST,PISCATAWAY,NJ,40.5625,-74.443339,N,0,0,0,0,0,0,0,0,0,0,0,1
D,02,NYD980592547,PETER COOPER CORPORATION (MARKHAMS),BENTLY ROAD,DAYTON,NY,42.392897,-79.012572,Y,0,0,0,0,0,0,0,0,0,0,1,0
F,08,MTSFN7578012,UPPER TENMILE CREEK MINING AREA,RIMINI ROAD,HELENA,MT,46.48091,-112.25399,N,1,0,0,0,0,0,0,0,0,0,0,1
F,02,NJD980528996,DIAMOND ALKALI CO.,80 LISTER AVE,NEWARK,NJ,40.739719,-74.136111,N,0,1,1,1,1,0,1,1,1,1,0,0
F,03,PASFN0305549,FRANKLIN SLAG PILE (MDC),3110 CASTOR AVENUE,PHILADELPHIA,PA,39.983194,-75.083889,N,0,1,1,1,1,0,0,1,1,1,0,1
F,04,NC0001606250,CRISTEX DRUM,500 W. INDUSTRY DR.,OXFORD,NC,36.2972,-78.6067,N,0,0,0,0,0,0,0,0,0,0,0,1
D,02,NYD980593099,FULTON TERMINALS,RTE 57,FULTON,NY,43.3569,-76.4274,Y,0,0,0,0,0,0,0,0,1,1,0,1
D,02,NJD980529002,DELILAH ROAD,DELILAH & MILL ROADS,EGG HARBOR TOWNSHIP,NJ,39.416669,-74.545831,Y,1,0,0,0,0,0,0,0,0,0,0,1
F,04,NC0002374445,HEMPHILL ROAD TCE,HEMPHILL ROAD,GASTONIA,NC,35.197933,-81.189852,N,1,0,0,0,0,0,0,0,0,0,0,1
F,02,NYD980650667,KENTUCKY AVENUE WELL FIELD,KENTUCKY AVE,HORSEHEADS,NY,42.145831,-76.828331,N,0,0,0,0,0,0,0,0,0,0,1,0
D,02,PRD090282757,GE WIRING DEVICES,KM 67 CARRETERA NO 149,JUANA DIAZ,PR,18.059439,-66.508889,Y,0,0,0,0,0,1,0,0,0,1,0,1
D,04,NCD001810365,"MARTIN-MARIETTA, SODYECO, INC.",HWY 27 W,CHARLOTTE,NC,35.29445,-81,Y,0,0,0,0,0,0,0,0,1,1,0,1
F,02,NJD980529085,ELLIS PROPERTY,SHARP ROAD,EVESHAM TOWNSHIP,NJ,39.905,-74.864719,Y,0,0,0,0,0,0,0,0,1,0,0,1
F,04,NCD003149556,"CTS OF ASHEVILLE, INC.",235 MILLS GAP ROAD,ASHEVILLE,NC,35.493075,-82.505953,N,0,0,0,0,0,0,0,0,0,0,0,1
F,02,NYD980651087,HOOKER (S AREA),BUFFALO AVE,NIAGARA FALLS,NY,43.0757,-79.0054,Y,0,0,0,0,0,0,0,0,1,0,0,1
F,02,PRD090290685,"PAPELERA PUERTORRIQUENA, INC.","RD 111 KM 1.8, VIVI ABAJO WARD",UTUADO,PR,18.265194,-66.694908,N,0,0,0,0,0,1,0,0,1,1,0,1
F,04,NCD003188828,CAPE FEAR WOOD PRESERVING,REILLY RD,FAYETTEVILLE,NC,35.04945,-79.020839,Y,1,0,0,0,0,0,0,0,0,0,0,1
D,02,NJD980529143,"FLORENCE LAND RECONTOURING, INC., LANDFILL",CEDAR LANE EXT,FLORENCE TOWNSHIP,NJ,40.069439,-74.773611,Y,0,0,0,0,0,0,0,0,1,0,0,1
D,02,NYD980652259,WIDE BEACH DEVELOPMENT,WIDE BEACH RD,BRANT,NY,42.586669,-79.128611,Y,0,0,0,0,0,0,0,0,0,0,1,0
F,04,NCD003188844,CAROLINA TRANSFORMER CO.,1416 MIDDLE RIVER LOOP,FAYETTEVILLE,NC,35.063331,-78.845,Y,0,0,0,0,0,0,0,0,1,1,0,0
D,02,PRD090370537,RCA DEL CARIBE,PR RD #2 KM 59.5,BARCELONETA,PR,18.43,-66.580561,Y,0,0,0,0,0,0,0,0,0,0,0,1
D,02,NYD980652267,VESTAL WATER SUPPLY WELL 4-2,605 VESTAL PKWY,VESTAL,NY,42.110281,-75.997219,Y,0,0,0,0,0,0,0,0,0,0,1,0
F,02,NJD980529192,GEMS LANDFILL,ERIAL & HICKSTOWN ROADS,GLOUCESTER TOWNSHIP,NJ,39.77945,-75.018889,Y,0,0,0,0,0,0,0,0,0,0,0,1
F,04,NCD003200383,"KOPPERS CO., INC. (MORRISVILLE PLANT)",HWY 54 W,MORRISVILLE,NC,35.8463,-78.8406,Y,0,0,0,0,0,0,0,0,0,0,0,1
F,02,NYD980652275,BREWSTER WELL FIELD,MAIN ST /SE,PUTNAM COUNTY,NY,41.401669,-73.6,Y,0,0,0,0,0,0,0,0,1,1,0,1
F,02,PRD980301154,UPJOHN FACILITY,RTE 2,BARCELONETA,PR,18.4292,-66.5901,Y,0,0,0,0,0,0,0,0,0,0,0,1
F,04,NCD003202603,WARD TRANSFORMER,6852 MT. HERMAN ROAD,RALEIGH,NC,35.901944,-78.773611,N,0,0,0,0,0,0,0,0,0,0,0,1
F,02,NYD980654206,PORT WASHINGTON LANDFILL,WEST SHORE RD,PORT WASHINGTON,NY,40.81805,-73.666661,Y,1,0,0,0,0,0,0,1,0,0,0,1
F,02,NJD980529408,"MONITOR DEVICES, INC./INTERCIRCUITS, INC.",AIRPORT ROAD,WALL TOWNSHIP,NJ,40.185281,-74.119719,Y,0,0,0,0,0,0,0,0,0,0,0,1
F,04,NCD003446721,CELANESE CORP. (SHELBY FIBER OPERATIONS),HWY 198,SHELBY,NC,35.208889,-81.528339,Y,0,0,0,0,0,0,0,0,0,0,0,1
F,02,NYD980664361,NIAGARA MOHAWK POWER CORP. (SARATOGA SPRINGS PLANT),EAST AVENUE & EXCELCIOR RD,SARATOGA SPRINGS,NY,43.09,-73.776111,N,0,0,0,0,0,0,0,0,0,0,1,0
D,02,PRD980509129,BARCELONETA LANDFILL,"ROAD # 666,FLORIDA AFUERA WARD",FLORIDA AFUERA,PR,18.41055,-66.547781,Y,0,0,0,0,0,0,0,0,0,0,0,1
F,02,NJD980529416,D'IMPERIO PROPERTY,RTE 322,HAMILTON TOWNSHIP,NJ,39.454439,-74.658889,Y,1,0,0,0,0,0,0,0,0,0,0,1
F,04,NCD024644494,ABC ONE HOUR CLEANERS,2127 LE JEUNE BLVD.,JACKSONVILLE,NC,34.7414,-77.3666,Y,0,0,0,0,0,0,0,0,0,0,0,1
F,02,NYD980753420,MACKENZIE CHEMICAL WORKS,1 CORDELLO AVENUE,CENTRAL ISLIP,NY,40.788889,-73.205278,Y,0,0,0,0,0,0,0,0,0,0,0,1
F,02,PRD980512362,JUNCOS LANDFILL,"BO CEIBA NORTE, ROAD 189",JUNCOS,PR,18.2232,-65.9087,Y,0,0,0,0,0,1,0,0,1,0,0,1
D,02,NYD980762520,NORTH SEA MUNICIPAL LANDFILL,MAJORS PATH,NORTH SEA,NY,40.929161,-72.401389,Y,0,0,0,0,0,0,0,0,0,0,0,1
F,04,NCD024766719,WRIGHT CHEMICAL CORPORATION,STATE RD. 1878,RIEGELWOOD,NC,34.3284,-78.2051,N,1,0,0,0,1,0,0,1,1,0,0,1
D,02,NJD980529598,PEPE FIELD,WOOTTON & HILLSIDE,BOONTON,NJ,40.912219,-74.411939,Y,1,0,0,0,0,0,0,0,0,0,1,0
F,04,NCD024900987,HOLCOMB CREOSOTE CO,5016 U.S. HIGHWAY 601,YADKINVILLE,NC,36.157875,-80.675236,N,0,0,0,0,0,0,0,0,1,0,0,1
F,02,NYD980763767,VESTAL WATER SUPPLY WELL 1-1,605 VESTAL PKWY,VESTAL,NY,42.0902,-76.0557,Y,0,0,0,0,0,0,0,0,0,0,1,0
F,04,NCD044440303,BYPASS 601 GROUND WATER CONTAMINATION,440 HWY 29 NORTH,CONCORD,NC,35.4096,-80.6093,Y,1,0,0,0,0,0,0,0,1,1,0,1
F,02,PRD980512669,VEGA BAJA SOLID WASTE DISPOSAL,"ROAD 674, KM 2",RIO ABAJO WARD,PR,18.434306,-66.389722,Y,0,0,0,0,0,0,0,0,0,0,0,1
F,02,NYD980763841,HUDSON RIVER PCBS,NO STREET APPLICABLE,HUDSON RIVER,NY,43.1102,-73.5765,N,0,0,0,0,0,0,0,0,0,0,1,0
F,02,NJD980529713,REICH FARMS,LAKEWOOD RD,PLEASANT PLAINS,NJ,40.0106,-74.2149,Y,1,0,0,0,0,0,0,0,0,0,0,1
F,04,NCD044447589,BLUE RIDGE PLATING COMPANY,171 GLENN BRIDGE ROAD,ARDEN,NC,35.462372,-82.528358,Y,1,0,0,0,0,0,0,0,0,0,0,1
D,02,NYD980768675,BEC TRUCKING,STEWART RD,VESTAL,NY,42.097639,-75.998339,Y,0,0,0,0,0,0,0,0,0,0,1,0
F,04,NCD062555792,SIGMON'S SEPTIC TANK SERVICE,1268 EUFOLA ROAD,STATESVILLE,NC,35.713611,-80.974583,Y,1,0,0,0,0,0,0,0,0,0,0,1
F,02,NJD980529739,RINGWOOD MINES/LANDFILL,PETERS MINE ROAD,RINGWOOD BOROUGH,NJ,41.136669,-74.2725,Y,1,0,0,0,0,0,0,0,0,0,0,1
D,02,PRD980640965,FRONTERA CREEK,"RIO ABAJO NEAR ROUTE 3, KM 76.9 - 78.6",RIO ABAJO,PR,18.15195,-65.790281,Y,0,0,0,0,0,0,0,0,1,1,0,1
D,02,NYD980768683,"BIOCLINICAL LABORATORIES, INC.",1585-I SMITHTOWN AVE,BOHEMIA,NY,40.783331,-73.110281,Y,1,0,0,0,0,0,0,0,0,0,0,1
F,04,NCD079044426,GENERAL ELECTRIC CO/SHEPHERD FARM,SPARTANBURG HWY,EAST FLAT ROCK,NC,35.272222,-82.411111,Y,0,0,0,0,0,0,0,0,1,0,0,1
F,02,NJD980529762,MAYWOOD CHEMICAL CO.,RTE 17 & GROVE ST,MAYWOOD/ROCHELLE PARK,NJ,40.8964,-74.0693,N,1,0,0,0,0,0,0,0,0,0,0,1
F,02,NYD980768691,COLESVILLE MUNICIPAL LANDFILL,EAST WINDSOR RD,TOWN OF COLESVILLE,NY,42.160419,-75.58945,Y,0,0,0,0,0,0,0,0,0,0,1,0
F,04,NCD095458527,"FCX, INC. (STATESVILLE PLANT)",1620 W. FRONT ST.,STATESVILLE,NC,35.7865,-80.9163,Y,1,0,0,0,0,0,0,0,0,0,0,1
F,02,PRD980763775,VEGA ALTA PUBLIC SUPPLY WELLS,HIGHWAY 2,VEGA ALTA,PR,18.418061,-66.330281,Y,0,0,0,0,0,0,0,0,1,1,0,1
D,02,NJD980529838,KRYSOWATY FARM,HACKENBERRY & 3 BRIDGES,HILLSBOROUGH TOWNSHIP,NJ,40.500281,-74.78,Y,0,0,0,0,0,0,0,0,0,0,0,1
F,04,NCD095459392,"CHEMTRONICS, INC.",OLD BEE TREE RD,SWANNANOA,NC,35.625,-82.434719,Y,1,0,0,0,0,0,0,0,1,1,0,1
F,02,NYD980768717,"GOLDISC RECORDINGS, INC.",725 BROADWAY,HOLBROOK,NY,40.7745,-73.0647,Y,1,0,0,0,0,0,0,0,0,0,0,1
F,02,NJD980529879,VENTRON/VELSICOL,ETHYL BOULEVARD,WOOD RIDGE BOROUGH,NJ,40.84,-74.079439,N,0,1,1,1,1,0,1,1,1,1,0,1
F,04,NCD122263825,JFD ELECTRONICS/CHANNEL MASTER,INDUSTRY DRIVE,OXFORD,NC,36.299719,-78.606389,Y,0,0,0,0,0,0,0,0,0,0,0,1
F,02,NYD980768774,PREFERRED PLATING CORP.,32 ALLEN BLVD,FARMINGDALE,NY,40.7158,-73.4253,Y,0,0,0,0,0,0,0,0,0,0,0,1
F,02,PRD980763783,FIBERS PUBLIC SUPPLY WELLS,RTE 3,JOBOS,PR,17.9632,-66.1461,Y,0,0,0,0,0,0,0,0,0,0,0,1
F,04,NCD980557656,"NORTH CAROLINA STATE UNIVERSITY (LOT 86, FARM UNIT #1)",CARTER-FINLEY STADIUM,RALEIGH,NC,35.801816,-78.713588,Y,0,0,0,0,0,0,0,0,0,0,0,1
F,02,NYD980780670,BYRON BARREL & DRUM,TOWN LINE ROAD,BYRON TOWNSHIP,NY,43.1191,-78.1103,Y,0,0,0,0,0,0,0,0,0,0,1,0
D,02,NJD980529887,VINELAND STATE SCHOOL,EAST LANDIS AVE,VINELAND,NJ,39.486111,-74.991669,Y,0,0,0,0,0,0,0,0,0,0,0,1
F,04,NCD980557805,KERR-MCGEE CHEMICAL CORP - NAVASSA,NORTH NAVASSA ROAD,NAVASSA,NC,34.247222,-77.999028,N,1,1,1,1,1,0,1,1,1,1,0,1
D,02,PRD987366101,V&M/ALBALADEJO,ROAD 160,ALMIRANTE NORTE WARD,PR,18.41,-66.38,Y,0,0,0,0,0,0,0,0,0,0,0,1
F,02,NYD980780746,ENDICOTT VILLAGE WELL FIELD,S. GRIPPEN AVENUE,VILLAGE OF ENDICOTT,NY,42.086111,-76.086111,Y,0,0,0,0,0,0,0,0,0,0,1,0
D,04,NCD980602163,ROADSIDE PCB SPILL,210 MILES OF NC HWY,210 MILES OF ROADS,NC,36.3381,-78.1661,Y,0,0,0,0,0,0,0,0,1,0,0,1
F,02,NJD980529945,WILLIAMS PROPERTY,"RR 1, SIEGTOWN ROAD",SWAINTON MIDDLE,NJ,39.1173,-74.8004,Y,0,0,0,0,0,0,0,1,0,0,0,1
F,02,PRD987367299,PESTICIDE WAREHOUSE III,ROAD 670 KM 3.7 PALO ALTO,MANATI,PR,18.429139,-66.458,N,0,0,0,0,0,0,0,0,0,0,0,1
F,02,NYD980780779,HERTEL LANDFILL,RTE 44/55 BEDELL AVE & TUCKERS,PLATTEKILL,NY,41.688061,-74.038889,Y,1,0,0,0,0,0,0,0,0,0,0,1
F,04,NCD980729602,JADCO-HUGHES FACILITY,NC HWY 2035,BELMONT,NC,35.275831,-81.041111,Y,1,0,0,0,0,0,0,0,1,0,0,1
F,04,NCD980840409,CHARLES MACON LAGOON AND DRUM STORAGE,COUNTY RD 1103,CORDOVA,NC,34.8925,-79.8375,Y,1,0,0,0,0,0,0,0,0,0,0,1
F,02,PRD987367349,PESTICIDE WAREHOUSE I,ROAD # 2 KM 59.7,ARECIBO,PR,18.435556,-66.6,N,0,0,0,0,0,0,0,0,0,0,0,1
F,02,NJD980530109,GOOSE FARM,RT. 539 BETWEEN RTS 537 & 528,PLUMSTEAD TOWNSHIP,NJ,40.09555,-74.4975,Y,1,0,0,0,0,0,0,0,1,0,0,1
D,02,NYD980780795,KATONAH MUNICIPAL WELL,JAY STREET,TOWN OF BEDFORD,NY,41.259169,-73.682911,Y,1,0,0,0,0,0,0,0,1,0,0,1
F,04,NCD980843346,ABERDEEN PESTICIDE DUMPS,OFF HWY 5 W,ABERDEEN,NC,35.1384,-79.4472,Y,1,0,0,0,0,0,0,0,0,0,0,1
D,02,NYD980780878,SUFFERN VILLAGE WELL FIELD,NORTH END OF RAMAPO AVENUE,VILLAGE OF SUFFERN,NY,41.1162,-74.159,Y,1,0,0,0,0,0,0,0,1,1,0,1
F,02,PRD987376662,"SCORPIO RECYCLING, INC.",STATE ROAD #2 KM. 19.7 (ACUNA STREET),CANDELERIA WARD,PR,18.409167,-66.231944,N,0,0,0,0,0,0,0,0,0,0,0,1
D,02,NJD980530596,COMBE FILL NORTH LANDFILL,GOLDMINE ROAD,MOUNT OLIVE TOWNSHIP,NJ,40.881939,-74.713331,Y,0,0,0,0,0,0,0,0,0,0,1,0
F,02,NYD980785661,HAVILAND COMPLEX,ROUTE 9G & HAVILAND ROAD,TOWN OF HYDE PARK,NY,41.771111,-73.908061,Y,1,0,0,0,0,0,0,0,1,1,0,1
D,04,NCD981021157,NEW HANOVER CNTY AIRPORT BURN PIT,GARDNER DRIVE,WILMINGTON,NC,34.275,-77.915281,Y,1,0,0,0,0,0,0,0,0,0,0,1
F,02,PRN000201872,DORADO GROUND WATER CONTAMINATION,PR-694 Km 4.5,DORADO,PR,18.429756,-66.27832,N,0,0,0,0,0,0,0,0,1,1,0,1
F,02,NYD981184229,CIRCUITRON CORP.,82 MILBAR BOULEVARD,EAST FARMINGDALE,NY,40.7495,-73.4195,Y,0,0,0,0,0,0,0,0,0,0,0,1
D,02,NJD980530679,SOUTH BRUNSWICK LANDFILL,NEW ROAD,SOUTH BRUNSWICK,NJ,40.402781,-74.56805,Y,1,0,0,0,0,0,0,0,0,0,0,1
F,04,NCD981023260,POTTER'S SEPTIC TANK SERVICE PITS,OFF 74-76 NEAR SANDY CREEK & NORTHWEST,MACO,NC,34.2846,-78.1578,Y,1,0,0,0,0,0,0,0,0,0,0,1
D,02,NYD981486947,CONKLIN DUMPS,ROUTE 7,CONKLIN,NY,42.05,-75.81805,Y,0,0,0,0,0,0,0,0,0,0,1,0
D,02,NJD980532808,PIJAK FARM,FISCHER ROAD,PLUMSTEAD TOWNSHIP,NJ,40.07555,-74.499439,Y,0,0,0,0,0,0,0,0,1,0,0,1
F,04,NCD981026479,"BENFIELD INDUSTRIES, INC.",RICHLAND ST.,HAZELWOOD,NC,35.477781,-83.004169,Y,0,0,0,0,0,0,0,0,1,1,0,1
F,02,PRN000204538,CIDRA GROUNDWATER CONTAMINATION,ROAD 171 (SOUTH OF THE VILLAGE OF CIDRA),CIDRA,PR,18.175277,-66.161944,N,0,0,0,0,0,1,0,0,0,0,0,1
F,02,NYD981486954,ROWE INDUSTRIES GROUND WATER CONTAMINATION,SAG HARBOR-BRIDGEHAMPTON TURNPIKE,NOYACK/SAG HARBOR,NY,40.982781,-72.3,Y,0,0,0,0,0,0,0,1,0,0,0,1
F,04,NCD981475932,"FCX, INC. (WASHINGTON PLANT)",GRIMES RD,WASHINGTON,NC,35.559581,-77.07445,Y,0,0,1,1,1,0,1,1,1,1,0,1
D,02,NJD980532816,SPENCE FARM,ROUTE 528 & MOOREHOUSE ROAD,PLUMSTEAD TOWNSHIP,NJ,40.0789,-74.5061,Y,1,0,0,0,0,0,0,0,1,0,0,1
D,02,NYD981560915,HITEMAN LEATHER,173 SOUTH STREET,WEST WINFIELD,NY,42.883333,-75.195833,Y,0,0,0,0,0,0,0,0,0,0,1,0
F,04,NCD981927502,GEIGY CHEMICAL CORP. (ABERDEEN PLANT),"RT.211,.4MI WEST OF SR 2063",ABERDEEN,NC,35.126111,-79.406669,Y,1,0,0,0,0,0,0,0,0,0,0,1
F,02,PRN000205831,MAUNABO URBANO PUBLIC WELLS,"STATE ROAD #3, KM 110.2",MAUNABO,PR,18.005611,-65.901417,N,0,0,0,0,0,0,0,0,1,1,0,1
F,02,NYD981560923,FOREST GLEN MOBILE HOME SUBDIVISION,"LISA LANE, CARRIE DRIVE AND T. MARK DRV.",NIAGARA FALLS,NY,43.1127,-78.9995,Y,0,0,0,0,0,0,0,0,1,1,0,1
D,02,NJD980532824,WILSON FARM,HAWKINS ROAD,PLUMSTEAD TOWNSHIP,NJ,40.072219,-74.445269,Y,1,0,0,0,0,0,0,0,1,0,0,1
F,04,NCD982096653,RAM LEATHER CARE SITE,15100 ALBEMARLE ROAD,CHARLOTTE,NC,35.231982,-80.602734,N,1,0,0,0,0,0,0,0,0,0,0,1
D,02,NYD981561954,C & J DISPOSAL LEASING CO. DUMP,ROUTE 12B,HAMILTON,NY,42.8638,-75.5687,Y,0,0,0,0,0,0,0,0,0,0,1,0
F,04,NCD986175644,DAVIS PARK ROAD TCE,2307 DAVIS PARK ROAD,GASTONIA,NC,35.231667,-81.218889,Y,0,0,0,0,0,0,0,0,0,0,0,1
D,02,NJD980532832,FRIEDMAN PROPERTY,INTERSECTION OF RTS 537 & 539,UPPER FREEHOLD TWP,NJ,40.1048,-74.5077,Y,1,0,0,0,0,0,0,0,1,0,0,1
F,02,PRN000205957,SAN GERMAN GROUND WATER CONTAMINATION,STATE ROAD #122 (ALSO KNOWN AS ROAD 119),San German,PR,18.084472,-67.035306,N,0,0,0,0,0,1,0,0,1,1,0,1
F,02,NYD981566417,GCL TIE AND TREATING INC.,DELAWARE AVENUE,VILLAGE OF SIDNEY,NY,42.300555,-75.413333,Y,0,0,0,0,0,0,0,0,1,1,0,1
D,04,NCD986187094,REASOR CHEMICAL COMPANY,NC 132,CASTLE HAYNE,NC,34.343472,-77.891944,Y,1,0,0,0,0,0,0,1,1,1,0,1
D,02,NJD980532840,HOPKINS FARM,ROUTE 539,PLUMSTEAD TOWNSHIP,NJ,40.088889,-74.4875,Y,1,0,0,0,0,0,0,0,0,0,0,1
F,02,NYD982272734,ROSEN BROTHERS SCRAP YARD/DUMP,PENDELTON ST.,CORTLAND,NY,42.591669,-76.175281,Y,0,0,0,0,0,0,0,0,1,0,0,1
F,04,NCD986187128,NORTH BELMONT PCE,WOODLAWN AVENUE,NORTH BELMONT,NC,35.273472,-81.05125,Y,0,0,0,0,0,0,0,0,1,0,0,1
F,02,NJD980654099,"IMPERIAL OIL CO., INC./CHAMPION CHEMICALS",ORCHARD RD,MORGANVILLE,NJ,40.383889,-74.245831,N,1,0,0,0,0,0,0,0,0,0,0,1
F,02,PRN000206319,CABO ROJO GROUND WATER CONTAMINATION,CROSS STR. CALLE BARBOSA & CALLE DEDIEGO,CABO ROJO,PR,18.090725,-67.148325,N,0,0,0,0,0,0,0,0,1,1,0,1
F,02,NYD986882660,LI TUNGSTEN CORP.,GARVIES POINT RD.,GLEN COVE,NY,40.860929,-73.640773,Y,1,1,1,1,1,0,1,1,1,1,0,1
F,04,NCD991278953,NATIONAL STARCH & CHEMICAL CORP.,CEDAR SPRINGS RD,SALISBURY,NC,35.6322,-80.5412,Y,1,0,0,0,0,0,0,0,0,0,0,1
F,02,NJD980654107,FAIR LAWN WELL FIELD,IND PARK/HENDERSON BLVD 11 ST,FAIR LAWN,NJ,40.9375,-74.131939,N,0,0,0,0,0,0,0,0,0,0,0,1
F,04,NCN000407447,ABERDEEN CONTAMINATED GROUND WATER,"HWY 211, OLD PEE DEE RD, BLUES BRG RD",Aberdeen,NC,35.1224,-79.4025,N,1,0,0,0,0,0,0,0,0,0,0,1
F,02,NYD986913580,ONONDAGA LAKE,Postal Address is unavailable for the Site,SYRACUSE,NY,43.069444,-76.208056,N,0,0,0,0,0,0,0,0,0,1,0,1
F,02,NJD980654115,ROCKAWAY BOROUGH WELL FIELD,"JACKSON,UNION & GARDEN STS",ROCKAWAY TOWNSHIP,NJ,40.905831,-74.515561,Y,1,0,0,0,0,0,0,0,0,0,1,0
F,02,PRN000206359,HORMIGAS GROUND WATER PLUME,CARRETERA 785 KM 4.9,CAGUAS,PR,18.2206,-66.101,Y,0,0,0,0,0,1,0,0,0,0,0,1
F,04,NCN000407480,HORTON IRON AND METAL,2216 US HIGHWAY 421 N,WILMINGTON,NC,34.26665,-77.954083,N,1,1,1,1,1,0,1,1,1,0,0,0
F,02,NYD986950012,MOHONK ROAD INDUSTRIAL PLANT,186 MOHONK ROAD,HIGH FALLS,NY,41.816667,-74.13444,Y,0,0,0,0,0,0,0,0,0,0,0,1
D,02,NJD980654123,BEACHWOOD/BERKELEY WELLS,ATLANTIC CITY BLVD,BERKELEY TOWNSHIP,NJ,39.924719,-74.196661,Y,0,0,0,0,0,0,0,0,0,0,0,1
F,04,NCN000409895,ORE KNOB MINE,"ORE KNOB MINE RD&LTTL PK CRK RD,N NC H88",Ashe County,NC,36.410011,-81.324606,N,0,0,0,0,0,0,0,0,0,0,0,1
F,02,PRN000206452,COROZAL WELL,[OFF OF] CARRETERA 811 KM 3.0,COROZAL,PR,18.295711,-66.286206,N,0,0,0,0,0,1,0,0,0,0,0,1
F,02,NYD986950251,LEHIGH VALLEY RAILROAD,GULF ROAD,LE ROY,NY,42.992028,-77.933306,N,0,0,0,0,0,0,0,0,0,0,1,0
F,04,NCN000410161,GMH ELECTRONICS,1800 VIRGILINA ROAD,ROXBORO,NC,36.416722,-78.941625,N,0,0,0,0,0,0,0,0,0,0,0,1
F,02,NJD980654131,DOVER MUNICIPAL WELL 4,272 ROUTE46,DOVER,NJ,40.8858,-74.5423,Y,0,0,0,0,0,0,0,0,0,0,1,0
F,04,NCSFN0406989,BARBER ORCHARD,U.S. HIGHWAY 23/74,WAYNESVILLE,NC,35.445833,-83.063889,Y,0,0,0,0,0,0,0,0,0,0,0,1
F,02,NYD986965333,CROWN CLEANERS OF WATERTOWN INC.,3595 STATE ROUTE 3,CARTHAGE,NY,44.022944,-75.651861,Y,0,0,0,0,0,0,0,0,0,0,1,0
F,02,PRR000004655,THE BATTERY RECYCLING COMPANY,ROAD 2 KM 72.2 BO. CAMBALACHE,ARECIBO,PR,18.453603,-66.694097,N,0,0,0,0,0,0,0,0,1,0,0,0
D,02,NJD980654149,ASBESTOS DUMP,TIFA SQUARE,MILLINGTON,NJ,40.6725,-74.525561,Y,0,0,0,0,0,0,0,0,1,0,1,1
D,02,NYD991292004,"PASLEY SOLVENTS & CHEMICALS, INC.",565 COMMERCIAL AVENUE,HEMPSTEAD,NY,40.729169,-73.612219,Y,0,0,0,0,0,0,0,0,0,0,0,1
D,08,NDD980716963,ARSENIC TRIOXIDE SITE,"LIDGERWOOD, RUTLND, WYNDMERE",SOUTHEAST,ND,46.125412,-97.250832,Y,0,0,0,0,0,0,0,0,0,0,0,1
F,01,RID009764929,WESTERN SAND & GRAVEL,DOUGLAS PIKE,BURRILLVILLE,RI,41.9727,-71.595,Y,0,0,0,0,0,0,0,0,1,0,0,1
F,02,NYN000201758,WAPPINGER CREEK,"Wappinger Creek, downstream of Wappingers Falls","WAPPINGER FALLS, TOWN OF WAPPINGER, TOWN OF POUGHKEEPSIE",NY,41.597684,-73.927136,N,1,1,1,1,1,0,0,1,1,1,0,1
D,08,NDD980959548,MINOT LANDFILL,"S27, T115N, R83W",MINOT,ND,48.217637,-101.326255,Y,0,0,0,0,0,0,0,0,0,0,1,0
F,02,NJD980654156,ROCKY HILL MUNICIPAL WELL,WASHINGTON STREET,ROCKY HILL BOROUGH,NJ,40.401669,-74.6475,Y,0,0,0,0,0,0,0,0,0,0,0,1
F,07,NE6211890011,NEBRASKA ORDNANCE PLANT (FORMER),.5 MI E OF,MEAD,NE,41.176669,-96.453331,N,0,0,0,0,0,0,0,0,0,0,0,1
F,01,RID055176283,"PETERSON/PURITAN, INC.",MARTIN ST,LINCOLN/CUMBERLAND,RI,41.929581,-71.4268,N,0,0,0,0,0,0,0,0,1,1,0,1
F,02,NYN000204289,CAYUGA GROUNDWATER CONTAMINATION SITE,STATE ROUTE 326,UNION SPRINGS,NY,42.880556,-76.6425,N,0,0,0,0,0,0,0,0,0,0,0,1
F,07,NED068645696,LINDSAY MANUFACTURING CO.,HWY 91,LINDSAY,NE,41.701669,-97.69,Y,0,0,0,0,0,0,0,0,1,0,0,1
F,02,NJD980654164,MONTGOMERY TOWNSHIP HOUSING DEVELOPMENT,"ROBIN DRIVE, ROUTE 206, SYCAMORE LANE",MONTGOMERY TOWNSHIP,NJ,40.408331,-74.644169,Y,0,0,0,0,0,0,0,0,0,0,0,1
F,02,NYN000204407,PENINSULA BOULEVARD GROUNDWATER PLUME,PENINSULA BOULEVARD AND,HEWLETT,NY,40.640392,-73.695667,N,0,0,0,0,1,0,1,1,1,1,0,1
F,01,RID093212439,"LANDFILL & RESOURCE RECOVERY, INC. (L&RR)",OXFORD RD,NORTH SMITHFIELD,RI,41.9795,-71.589,Y,0,0,0,0,0,0,0,0,1,0,0,1
F,07,NED084626100,SHERWOOD MEDICAL CO.,RT 4 S HWY 81 1 MI S OF,NORFOLK,NE,41.993611,-97.421389,Y,1,0,0,0,0,0,0,0,1,1,0,1
F,02,NYN000206222,GOWANUS CANAL,BUTLER ST (BETWEEN BOND ST AND NEVINS ST,BROOKLYN,NY,40.681639,-73.987333,N,0,1,1,1,1,0,1,1,1,1,0,1
F,01,RID980520183,CENTRAL LANDFILL,65 SHUN PIKE,JOHNSTON,RI,41.808331,-71.534719,Y,0,0,0,0,0,0,0,0,0,0,0,1
F,02,NJD980654172,U.S. RADIUM CORP.,ALDEN & HIGH STS AND OTHER ADDRESSES,ORANGE,NJ,40.781389,-74.228611,Y,1,0,0,0,0,0,0,0,1,1,0,1
F,07,NED980862668,HASTINGS GROUND WATER CONTAMINATION,E CENTRAL HASTINGS,HASTINGS,NE,40.583331,-98.383331,N,0,0,0,0,0,0,0,0,0,0,0,1
F,02,NYN000206282,NEWTOWN CREEK,SOUTH END OF IVY HILL ROAD,"BROOKLYN, QUEENS",NY,40.715192,-73.930762,N,0,1,1,1,1,0,1,1,1,1,0,1
F,01,RID980521025,ROSE HILL REGIONAL LANDFILL,ROSE HILL RD,SOUTH KINGSTOWN,RI,41.470831,-71.491669,Y,0,0,0,0,0,0,0,0,1,0,0,1
D,07,NED980862718,WAVERLY GROUND WATER CONTAMINATION,SEC 16 T11N R8E,WAVERLY,NE,40.917219,-96.529439,Y,0,0,0,0,0,0,0,0,1,0,0,1
F,02,NYN000206296,BLACK RIVER PCBS,END OF HEWITT DRIVE,TOWN OF CHAMPION,NY,43.984269,-75.627753,N,0,0,0,0,0,0,0,0,0,0,1,0
F,01,RID980523070,DAVIS LIQUID WASTE,TARKILN RD,SMITHFIELD,RI,41.922219,-71.577769,N,0,0,0,0,0,0,0,0,1,0,0,1
D,02,NJD980654180,MANNHEIM AVENUE DUMP,MANNHEIM AVENUE,GALLOWAY TOWNSHIP,NJ,39.538889,-74.533331,Y,1,0,0,0,0,0,0,0,0,0,1,0
F,07,NED981499312,CLEBURN STREET WELL,NORTH FRONT STREET,GRAND ISLAND,NE,40.925139,-98.347778,Y,0,0,0,0,0,0,0,0,0,0,0,1
F,02,NYN000206456,EIGHTEENMILE CREEK,198-300 MILL STREET,LOCKPORT,NY,43.1813,-78.689544,N,0,0,0,0,0,0,0,0,1,1,0,1
F,01,RID980579056,PICILLO FARM,PERRY HILL RD,COVENTRY,RI,41.671669,-71.709169,Y,0,0,0,0,0,0,0,0,0,0,0,1
F,07,NED981713829,BRUNO CO-OP ASSOCIATION/ASSOCIATED PROPERTIES,FREMONT ST & RAILROAD ST,BRUNO,NE,41.285486,-96.959531,Y,0,0,0,0,0,0,0,0,1,0,0,1
F,02,NJD980654198,MYERS PROPERTY,LOWER KINGTOWN ROAD,FRANKLIN TOWNSHIP,NJ,40.595,-74.9404,Y,0,0,0,0,0,0,0,0,1,0,0,1
F,02,NYSFN0204190,ELLENVILLE SCRAP IRON AND METAL,34 CAPE ROAD,ELLENVILLE,NY,41.724028,-74.4055,Y,0,0,0,0,0,0,0,0,1,0,0,1
F,07,NED981713837,10TH STREET SITE,28TH AVE & 10TH ST,COLUMBUS,NE,41.427194,-97.3595,Y,0,0,0,0,0,0,0,0,0,1,0,0
F,01,RID980731442,"STAMINA MILLS, INC.",MAIN ST,NORTH SMITHFIELD,RI,41.9964,-71.5647,Y,0,0,0,0,0,0,0,0,1,0,0,1
F,02,NYSFN0204234,OLD ROOSEVELT FIELD CONTAMINATED GW AREA,CLINTON ROAD/OLD COUNTRY ROAD,GARDEN CITY,NY,40.733611,-73.618472,N,1,0,0,0,0,0,0,0,0,0,0,1
F,07,NED986369247,OGALLALA GROUND WATER CONTAMINATION,SW CORNER OF W 1ST & C ST,OGALLALA,NE,41.123889,-101.736111,Y,0,0,0,0,0,0,0,0,1,1,0,1
F,02,NJD980654214,ROCKAWAY TOWNSHIP WELLS,GREEN POND ROAD,ROCKAWAY TOWNSHIP,NJ,40.913331,-74.499169,Y,1,0,0,0,0,0,0,0,0,0,1,0
D,01,RID980731459,DAVIS (GSR) LANDFILL,TARKILN RD.,GLOCESTER,RI,41.917469,-71.588111,Y,0,0,0,0,0,0,0,0,1,1,0,1
F,07,NED986373678,IOWA-NEBRASKA LIGHT & POWER CO,102-104 SOUTH 7TH STREET,NORFOLK,NE,42.0323,-97.417028,N,0,0,0,0,0,0,0,0,0,0,0,1
F,02,NYSFN0204269,SHENANDOAH ROAD GROUNDWATER CONTAMINATION,"SHENANDOAH RD & BURBANK RD, SEYMOUR LANE",EAST FISHKILL,NY,41.526111,-73.792222,Y,1,0,0,0,0,0,0,0,0,0,0,1
F,07,NEN000704272,OLD HWY 275 AND N 288TH STREET,U.S. HIGHWAY 275 AND N 288TH ST.,VALLEY,NE,41.329092,-96.367333,N,0,0,0,0,0,0,0,0,1,0,0,0
F,02,NJD980654222,EVOR PHILLIPS LEASING,OLD WATER WORKS ROAD,OLD BRIDGE TOWNSHIP,NJ,40.4375,-74.325,N,1,0,0,0,0,0,0,1,1,0,0,1
F,05,OH0000563122,COPLEY SQUARE PLAZA,2777 COPLEY ROAD,COPLEY,OH,41.092839,-81.617472,N,0,0,0,0,0,0,0,0,0,0,0,1
F,01,RID981063993,WEST KINGSTON TOWN DUMP/URI DISPOSAL AREA,PLAINS ROAD,SOUTH KINGSTOWN,RI,41.496667,-71.535278,Y,0,0,0,0,0,0,0,0,0,0,0,1
F,07,NEN000704351,GARVEY ELEVATOR,INDUSTRIAL PARK WEST-HIGHWAY 6 & SUMMIT,HASTINGS,NE,40.563611,-98.415556,N,0,0,0,0,0,0,0,0,0,0,0,1
F,05,OHD000377911,INDUSTRIAL EXCESS LANDFILL,4MI S INTER 619 & CLEVELAND AVENUE,UNIONTOWN,OH,40.968331,-81.404169,Y,0,0,0,0,0,0,0,0,1,0,0,1
F,02,NJD980663678,HORSESHOE ROAD,Postal Address is unavailable for the Site,SAYREVILLE,NJ,40.484722,-74.319444,N,1,0,1,1,1,0,1,1,1,1,0,1
F,07,NEN000704456,PARKVIEW WELL,INTERSECTION OF BLAINE STREET & STOLLEY,GRAND ISLAND,NE,40.895833,-98.365,Y,0,0,0,0,0,0,0,0,1,0,0,1
F,01,RID981203755,CENTREDALE MANOR RESTORATION PROJECT,2072 AND 2074 SMITH STREET (ROUTE 44),NORTH PROVIDENCE,RI,41.857667,-71.48725,N,0,0,0,0,0,0,0,0,1,1,0,1
F,05,OHD000382663,POWELL ROAD LANDFILL,SO SIDE OF POWELL RD 1MI W 202,DAYTON,OH,39.833331,-84.16,Y,0,0,0,0,0,0,0,0,1,0,0,1
F,07,NEN000704738,WEST HIGHWAY 6 & HIGHWAY 281,INDUSTRIAL PARK WEST-HIGHWAY 6 &,HASTINGS,NE,40.5712,-98.4095,N,0,0,0,0,0,0,0,0,0,0,0,1
F,02,NJD980755623,WHITE CHEMICAL CORP.,660 FRELINGHUYSEN AVE,NEWARK,NJ,40.698484,-74.198242,N,0,0,0,0,0,0,1,1,0,0,0,1
F,05,OHD004179339,"TRW, INC. (MINERVA PLANT)",3860 UNION AVE S,MINERVA,OH,40.745,-81.09,Y,0,0,0,0,0,0,0,0,1,1,0,1
F,07,NEN000706105,PCE/TCE NORTHEAST CONTAMINATION,522 W 26TH STREET,YORK,NE,40.888636,-97.600361,N,0,0,0,0,0,0,0,0,0,0,1,0
F,04,SCD000447268,BEAUNIT CORP. (CIRCULAR KNIT & DYEING PLANT),206 GEORGIA AVE,FOUNTAIN INN,SC,34.698061,-82.216111,Y,0,0,0,0,0,0,0,0,1,0,0,1
F,05,OHD004379970,ORMET CORP.,ST RTE #7,HANNIBAL,OH,39.705,-80.841669,Y,0,0,0,0,0,0,0,0,0,0,0,1
F,04,SCD000622787,SCRDI BLUFF ROAD,321 BLUFF RD S,COLUMBIA,SC,33.885419,-80.90875,Y,1,0,0,0,0,0,0,0,0,0,0,1
D,02,NJD980761357,TABERNACLE DRUM DUMP,"RD3, CARRANZA ROAD",TABERNACLE TOWNSHIP,NJ,39.82,-74.700839,Y,1,0,0,0,0,0,0,0,0,0,0,1
D,05,OHD017506171,ARCANUM IRON & METAL,POP-RITE LN 5MI OFF RTE 49,DARKE COUNTY,OH,39.98195,-84.549161,Y,0,0,0,0,0,0,0,0,0,0,0,1
F,07,NEN000706200,PCE SOUTHEAST CONTAMINATION,INTERSECTION OF 5TH STREET AND LINCOLN AVENUE,YORK,NE,40.859594,-97.580614,N,0,0,0,0,0,0,0,0,0,0,1,0
F,05,OHD018392928,"UNITED SCRAP LEAD CO., INC.",1425 S DIXIE HWY PO BOX 25,TROY,OH,40.008889,-84.198611,Y,0,0,0,0,0,0,0,0,1,1,0,1
F,07,NESFN0703481,OMAHA LEAD,INTERSECTION I480 & ABBOTT DRIVE,OMAHA,NE,41.267778,-95.929722,N,0,0,0,0,0,0,0,0,0,1,0,1
F,04,SCD002601656,"PARA-CHEM SOUTHERN, INC.",HWY 145,SIMPSONVILLE,SC,34.7134,-82.233,Y,0,0,0,0,0,0,0,0,0,0,0,1
F,02,NJD980761365,EWAN PROPERTY,WALLINGFORD WAY,SHAMONG TOWNSHIP,NJ,39.802781,-74.719439,Y,1,0,0,0,0,0,0,0,1,0,0,1
F,05,OHD043730217,ALLIED CHEMICAL & IRONTON COKE,3330 S 3RD ST,IRONTON,OH,38.5057,-82.658,Y,0,0,0,0,0,0,0,0,1,1,0,0
F,01,NHD001079649,FLETCHER'S PAINT WORKS & STORAGE,21 ELM ST.,MILFORD,NH,42.8358,-71.6554,Y,0,0,0,0,0,0,0,0,1,1,0,1
D,05,OHD057243610,ALSCO ANACONDA,ONE ANACONDA DR,GNADENHUTTEN,OH,40.361111,-81.440831,Y,0,0,0,0,0,0,0,0,1,1,0,1
D,04,SCD003353026,"KOPPERS CO., INC. (FLORENCE PLANT)",KOPPERS RD,FLORENCE,SC,34.2022,-79.7229,N,1,0,0,0,0,0,0,0,0,0,0,1
F,02,NJD980761373,DE REWAL CHEMICAL CO.,DELAWARE RIVER DR,KINGWOOD TOWNSHIP,NJ,40.5162,-75.0614,Y,0,0,0,0,0,0,0,0,1,1,0,1
F,01,NHD001091453,NEW HAMPSHIRE PLATING CO.,WRIGHT AVE.,MERRIMACK,NH,42.855833,-71.488888,Y,0,0,0,0,0,0,0,0,1,1,0,1
D,05,OHD061722211,LASKIN/POPLAR OIL CO.,717 N POPLAR STREET,JEFFERSON TOWNSHIP,OH,41.7436,-80.7815,Y,0,0,0,0,0,0,0,0,1,0,0,1
F,01,NHD018958140,BEEDE WASTE OIL,7 THROUGH 11 KELLEY ROAD,PLAISTOW,NH,42.855075,-71.105889,N,0,0,0,0,0,0,0,0,1,1,0,1
D,02,NJD980761381,COOPER ROAD,COOPER ROAD,VOORHEES TOWNSHIP,NJ,39.8478,-74.9455,Y,1,0,0,0,0,0,0,0,0,1,0,1
F,05,OHD063963714,SKINNER LANDFILL,8750 CINCINNATI DAYTON HIGHWAY,WEST CHESTER,OH,39.333331,-84.399719,Y,0,0,0,0,0,0,0,0,1,1,0,1
F,04,SCD003354412,"SANGAMO WESTON, INC./TWELVE-MILE CREEK/LAKE HARTWELL PCB CONTAMINATION",SANGAMO RD,PICKENS,SC,34.895,-82.7232,Y,0,0,0,0,0,0,0,0,1,0,0,1
F,01,NHD062002001,KEARSARGE METALLURGICAL CORP.,MILL ST-RTE 113,CONWAY,NH,43.9721,-71.1293,Y,0,0,0,0,0,0,0,0,1,0,0,1
F,05,OHD071650592,SOUTH POINT PLANT,OLD RTE 52 1MILE SOUTH OF OHIO RIVER,SOUTH POINT,OH,38.4375,-82.591669,Y,0,0,0,0,0,0,0,0,0,1,0,1
D,02,NJD980761399,UPPER DEERFIELD TOWNSHIP SANITARY LANDFILL,HUSTED STATION RD,UPPER DEERFIELD TOWNSHIP,NJ,39.494169,-75.184719,Y,0,0,0,0,0,0,0,0,0,0,0,1
F,01,NHD062004569,TINKHAM GARAGE,RTE 102,LONDONDERRY,NH,42.860831,-71.351111,Y,0,0,0,0,0,0,0,0,0,0,0,1
F,04,SCD003357589,SHURON INC.,100 CLINTON ST,BARNWELL,SC,33.236694,-81.375778,Y,0,0,0,0,0,0,0,0,1,0,0,1
F,05,OHD074727793,CHEM-DYNE,500 FORD BLVD,HAMILTON,OH,39.4079,-84.552,Y,0,0,0,0,0,0,0,0,1,1,0,1
F,02,NJD980766828,SOUTH JERSEY CLOTHING CO.,1 CENTRAL AVE,MINOTOLA,NJ,39.5206,-74.9491,Y,0,0,0,0,0,0,0,0,0,0,0,1
F,01,NHD064424153,COAKLEY LANDFILL,480 BREAKFAST HILL RD,NORTH HAMPTON,NH,43.001111,-70.817219,Y,0,0,0,0,0,0,0,0,0,0,0,1
F,05,OHD076773712,"PRISTINE, INC.",410 CAVETT AVENUE,READING,OH,39.236111,-84.437231,Y,0,0,0,0,0,0,0,0,1,1,0,1
D,02,NJD980769301,LODI MUNICIPAL WELL,VARIOUS LOC IN BORO,LODI,NJ,40.872919,-74.093611,Y,1,0,0,0,0,0,0,1,1,1,0,1
F,01,NHD092059112,KEEFE ENVIRONMENTAL SERVICES (KES),EXETER RD,EPPING,NH,43.024169,-71.033331,Y,0,0,0,0,0,0,0,0,0,0,0,1
F,04,SCD003358744,US FINISHING/CONE MILLS,3335 OLD BUNCOMBE ROAD,GREENVILLE,SC,34.883292,-82.426303,N,0,0,0,0,0,0,0,0,1,1,0,1
F,05,OHD093895787,"SANITARY LANDFILL CO. (INDUSTRIAL WASTE DISPOSAL CO., INC.)",1855 CARDINGTON ROAD,MORAINE,OH,39.716581,-84.201531,Y,0,0,0,0,0,0,0,0,0,0,0,1
D,02,NJD980769350,POMONA OAKS RESIDENTIAL WELLS,ROUTES 575 & 30,GALLOWAY TOWNSHIP,NJ,39.477781,-74.569439,Y,1,0,0,0,0,0,0,0,0,0,1,0
F,01,NHD099363541,SYLVESTER,GILSON RD,NASHUA,NH,42.7197,-71.523111,Y,0,0,0,0,0,0,0,0,0,1,0,1
D,05,OHD980509616,BOWERS LANDFILL,ROCK ISLAND ROAD,CIRCLEVILLE,OH,39.6375,-82.965281,Y,0,0,0,0,0,0,0,0,1,0,0,0
F,02,NJD980772727,EMMELL'S SEPTIC LANDFILL,128 ZURICH AVE,GALLOWAY TOWNSHIP,NJ,39.500694,-74.543611,N,1,0,0,0,0,0,0,0,0,0,1,0
F,04,SCD003360476,MACALLOY CORPORATION,1800 PITTSBURGH AVENUE,NORTH CHARLESTON,SC,32.838056,-79.951194,Y,0,1,1,1,1,0,1,1,0,0,1,0
F,01,NHD980503361,MOTTOLO PIG FARM,BLUEBERRY HILL RD,RAYMOND,NH,42.989581,-71.173189,Y,0,0,0,0,0,0,0,0,0,0,0,1
F,05,OHD980509657,BUCKEYE RECLAMATION,STATE ROUTE 214 1MI SOUTH OF I-90,ST. CLAIRSVILLE,OH,40.047219,-80.841669,Y,0,0,0,0,0,0,0,0,0,0,0,1
F,02,NJD980785638,CINNAMINSON TOWNSHIP (BLOCK 702) GROUND WATER CONTAMINATION,1017 UNION LANDING ROAD,CINNAMINSON TOWNSHIP,NJ,40.0175,-74.9862,N,0,0,0,0,0,0,0,0,0,0,0,1
F,01,NHD980520191,DOVER MUNICIPAL LANDFILL,TOLEND RD,DOVER,NH,43.2125,-70.953,Y,0,0,0,0,0,0,0,0,0,0,0,1
F,04,SCD003362217,PALMETTO WOOD PRESERVING,DIXIANNA RD,DIXIANA,SC,33.920831,-81.060281,Y,1,0,0,0,0,0,0,0,0,0,0,1
F,01,NHD980520217,TROY MILLS LANDFILL,OFF ROCKWOOD POND ROAD,TROY,NH,42.802583,-72.186944,Y,0,0,0,0,0,0,0,0,1,0,0,1
D,02,NJD980785646,GLEN RIDGE RADIUM SITE,CARTERET ST,GLEN RIDGE,NJ,40.788189,-74.2125,Y,1,0,0,0,0,0,0,0,1,0,0,1
D,05,OHD980509830,COSHOCTON LANDFILL,ST RTE 83,FRANKLIN TOWNSHIP,OH,40.225,-81.848611,Y,0,0,0,0,0,0,0,0,0,0,0,1
F,01,NHD980520225,SOMERSWORTH SANITARY LANDFILL,BLACKWATER RD,SOMERSWORTH,NH,43.2489,-70.8845,Y,0,0,0,0,0,0,0,0,1,0,0,1
D,02,NJD980785653,MONTCLAIR/WEST ORANGE RADIUM SITE,N/A,MONTCLAIR/WEST ORANGE,NJ,40.7929,-74.2257,Y,1,0,0,0,0,0,0,0,0,0,0,1
D,04,SCD004773644,INDEPENDENT NAIL CO.,40 Shanklin Road,BEAUFORT,SC,32.466389,-80.741111,Y,1,0,0,0,0,0,0,1,0,0,1,0
F,05,OHD980509947,E.H. SCHILLING LANDFILL,RTE 52 & PATRIC RD,HAMILTON TOWNSHIP,OH,38.5725,-82.75555,Y,0,0,0,0,0,0,0,0,0,0,0,1
F,01,NHD980524086,AUBURN ROAD LANDFILL,AUBURN RD,LONDONDERRY,NH,42.9302,-71.3529,Y,0,0,0,0,0,0,0,0,0,1,0,1
F,02,NJD981084767,PUCHACK WELL FIELD,WEST OF US 130; SOUTH OF STATE HWY 90,PENNSAUKEN TOWNSHIP,NJ,39.976667,-75.051944,N,0,0,0,0,0,0,0,1,1,1,0,1
F,05,OHD980510200,OLD MILL,MILL RD & STATION,ROCK CREEK,OH,41.6601,-80.8456,Y,0,0,0,0,0,0,0,0,0,0,0,1
D,02,NJD981178411,INDUSTRIAL LATEX CORP.,350 MT. PLEASANT AVENUE,WALLINGTON BOROUGH,NJ,40.8536,-74.0991,Y,1,0,0,0,0,0,0,0,0,0,0,1
D,04,SCD037398120,"PALMETTO RECYCLING, INC.",531 KOON STORE RD,COLUMBIA,SC,34.1228,-81.0117,Y,1,0,0,0,0,0,0,0,1,1,0,1
F,05,OHD980609994,SUMMIT NATIONAL,1240 ALLIANCE ROAD,DEERFIELD TOWNSHIP,OH,41.024,-81.0971,Y,0,0,0,0,0,0,0,0,0,0,0,1
F,02,NJD981179047,POHATCONG VALLEY GROUND WATER CONTAMINATION,ROUTE 643 TO ROUTE 31,WARREN COUNTY,NJ,40.75,-75,N,0,0,0,0,0,0,0,0,1,1,0,1
D,04,TND987767795,ICG ISELIN RAILROAD YARD,ISELIN ST,JACKSON,TN,35.6025,-88.797689,Y,0,0,0,0,0,0,0,0,1,1,0,1
F,04,SCD037405362,"WAMCHEM, INC.",US HWY 21 N OF AIR BASE,BURTON,SC,32.497219,-80.741669,Y,1,1,1,1,1,0,1,1,0,0,1,0
F,05,OHD980610018,NEASE CHEMICAL,BENTON RD AKA ST RTE 14A,SALEM,OH,40.916669,-80.891669,N,0,0,0,0,0,0,0,0,0,0,0,1
D,04,TND987768546,CHEMET CO.,Postal Address is unavailable for the Site,MOSCOW,TN,35.08361,-89.372499,Y,0,0,0,0,0,0,0,0,1,1,0,1
F,02,NJD981490261,HIGGINS FARM,ROUTE 518,FRANKLIN TOWNSHIP,NJ,40.406389,-74.602781,Y,1,0,0,0,0,0,0,0,0,0,0,1
F,05,OHD980610042,REILLY TAR & CHEMICAL CORP. (DOVER PLANT),THIRD ST,DOVER,OH,40.5175,-81.479,Y,0,0,0,0,0,0,0,0,1,1,0,1
F,04,TND987768587,CLINCH RIVER CORPORATION,728 EMORY DRIVE,HARRIMAN,TN,35.93195,-84.539381,N,0,0,0,0,0,0,0,0,1,1,0,1
F,04,SCD058753971,HELENA CHEMICAL CO. LANDFILL,HWY 321 S,FAIRFAX,SC,32.9412,-81.239,Y,1,0,0,0,0,0,0,0,0,0,0,1
F,02,NJD981557879,CORNELL DUBILIER ELECTRONICS INC.,333 HAMILTON BLVD,SOUTH PLAINFIELD,NJ,40.576389,-74.414167,N,1,0,0,0,0,0,0,0,1,1,0,1
F,05,OHD980611735,BIG D CAMPGROUND,3678 CREEK RD,KINGSVILLE,OH,41.904169,-80.652781,Y,0,0,0,0,0,0,0,0,1,0,0,1
F,04,TNN000402275,FORMER CUSTOM CLEANERS,3517 Southern Avenue,MEMPHIS,TN,35.115114,-89.945,N,0,0,0,0,0,0,0,0,0,0,0,1
F,02,NJD981558430,ATLANTIC RESOURCES,120 HORSESHOE ROAD,SAYREVILLE,NJ,40.486111,-74.319444,N,1,1,1,1,1,0,1,1,1,1,0,1
F,05,OHD980611800,MIAMI COUNTY INCINERATOR,2200 N COUNTY RD,TROY,OH,40.074169,-84.224169,Y,0,0,0,0,0,0,0,0,1,1,0,1
F,04,TNN000407378,SMALLEY-PIPER,719 PIPER STREET,COLLIERVILLE,TN,35.044444,-89.685833,N,0,0,0,0,0,0,0,0,0,0,0,1
F,04,SCD058754789,AQUA-TECH ENVIRONMENTAL INC (GROCE LABS),340 ROBINSON ROAD,GREER,SC,34.9328,-82.1725,Y,0,0,0,0,0,0,0,0,0,0,0,1
F,02,NJD986570992,FRANKLIN BURN,SIX LOCATIONS NEAR MARSHALL MILL ROAD,FRANKLIN TOWNSHIP,NJ,39.594444,-75.025,Y,1,0,0,0,0,0,0,0,0,0,0,1
F,05,OHD980611875,NORTH SANITARY LANDFILL,200 VALLEYCREST DRIVE,DAYTON,OH,39.78611,-84.1525,N,0,0,0,0,0,0,0,0,0,0,0,1
F,04,TNN000410124,"WALKER MACHINE PRODUCTS, INC.",459 WASHINGTON STREET,COLLIERVILLE,TN,35.041589,-89.653469,N,0,0,0,0,0,0,0,0,0,0,0,1
F,05,OHD980614572,FIELDS BROOK,WATER BED OF CREEK R3W T13N,ASHTABULA,OH,41.8915,-80.7754,N,0,0,0,0,0,0,0,0,0,0,0,1
F,02,NJD986620995,WELSBACH & GENERAL GAS MANTLE (CAMDEN RADIATION),6 AREAS IN CAMDEN AND GLOUCESTER CITY,CAMDEN AND GLOUCESTER CIT,NJ,39.919722,-75.121944,N,0,0,0,0,1,0,0,1,1,1,0,1
F,04,SCD094995503,KALAMA SPECIALTY CHEMICALS,PO BOX 908,BEAUFORT,SC,32.4734,-80.7401,Y,1,0,0,0,0,0,0,0,0,0,1,0
F,04,TNN000410203,ALAMO CONTAMINATED GROUND WATER,SOUTH BELLS STREET,ALAMO,TN,35.784153,-89.118022,N,0,0,0,0,0,0,0,0,0,0,0,1
F,05,OHD980794598,ZANESVILLE WELL FIELD,2200 LINDEN,ZANESVILLE,OH,39.967781,-81.992231,Y,0,0,0,0,0,0,0,0,1,0,0,1
F,04,TNN000410686,SOUTHSIDE CHATTANOOGA LEAD,Intersection of East 16th Street and Jefferson,CHATTANOOGA,TN,35.032552,-85.300559,N,0,0,0,0,0,0,0,0,0,1,0,1
F,02,NJD986643153,ZSCHIEGNER REFINING,1442 MAXIM-SOUTHARD ROAD,HOWELL TOWNSHIP,NJ,40.145833,-74.2,Y,1,0,0,0,0,0,0,0,1,1,0,1
F,05,OHD980794606,VAN DALE JUNKYARD,GOOSE RUN RD,MARIETTA,OH,39.43195,-81.4025,Y,0,0,0,0,0,0,0,0,0,0,0,1
F,04,SCD980310239,"KOPPERS CO., INC. (CHARLESTON PLANT)",CHARLESTON HEIGHTS,CHARLESTON,SC,32.822083,-79.958333,Y,1,1,1,1,1,0,1,1,0,0,1,0
F,06,TX0000605264,BRINE SERVICE COMPANY,NORTHEAST OF INTERSECTION AT IH-37 AND,CORPUS CHRISTI,TX,27.815372,-97.508606,N,0,0,0,0,0,0,0,1,0,0,1,0
F,02,NJN000200874,FORMER KIL-TONE COMPANY,527 East Chestnut Avenue,VINELAND,NJ,39.47841,-75.025489,N,0,0,0,0,0,0,0,0,1,0,0,1
D,02,NJN000204492,CROWN VANTAGE LANDFILL,ADJ. TO DELAWARE RIVER 1/2 MI. SOUTH OF,ALEXANDRIA TOWNSHIP,NJ,40.552028,-75.078917,Y,0,0,0,0,0,0,0,0,1,1,0,1
F,06,TX0000605329,PATRICK BAYOU,"N 29 43'55""/W 95 06'52.5""",DEER PARK,TX,29.731944,-95.114583,N,0,1,1,1,1,0,1,1,1,1,0,1
F,05,OHD980794614,NEW LYME LANDFILL,RTE 11 ON DODGEVILLE RD,NEW LYME,OH,41.584719,-80.729161,Y,0,0,0,0,0,0,0,0,0,0,0,1
F,04,SCD980558043,LEXINGTON COUNTY LANDFILL AREA,US 321 1 MILE S OF I-26,CAYCE,SC,33.919581,-81.074169,Y,1,0,0,0,0,0,0,0,0,0,0,1
F,06,TX0000605363,DONNA RESERVOIR AND CANAL SYSTEM,"SOUTH TEXAS, NORTH OF RIO GRANDE RIVER",Donna,TX,26.112286,-98.086469,N,0,0,0,0,0,0,0,0,0,0,1,0
F,02,NJN000206276,RARITAN BAY SLAG,BAYVIEW DRIVE,OLD BRIDGE TWP/SAYREVILLE,NJ,40.464589,-74.258017,N,1,1,1,1,1,0,1,1,1,1,0,1
F,05,OHD980794630,FULTZ LANDFILL,CO RD 52,JACKSON TOWNSHIP,OH,39.984719,-81.541661,Y,0,0,0,0,0,0,0,0,1,1,0,1
F,06,TX0001399435,CITY OF PERRYTON WELL NO. 2,NORTH AMHERST STREET AND SANTA FE AVENUE,PERRYTON,TX,36.400556,-100.804722,Y,0,0,0,0,0,0,0,0,0,0,1,0
F,02,NJN000206317,GARFIELD GROUND WATER CONTAMINATION,WILLARD STREET AND PIERRE AVENUE,GARFIELD,NJ,40.871858,-74.106431,N,0,0,0,0,0,0,0,1,1,1,0,1
F,04,SCD980558050,TOWNSEND SAW CHAIN CO.,STATE ROUTE 53 & I-20,PONTIAC,SC,34.10625,-80.834169,Y,1,0,0,0,0,0,0,0,0,0,0,1
D,05,OHD980903447,REPUBLIC STEEL CORP. QUARRY,525 15TH STREET,ELYRIA,OH,41.356189,-82.117839,Y,0,0,0,0,0,0,0,0,1,1,0,1
F,06,TX0001407444,SPRAGUE ROAD GROUND WATER PLUME,WEST 81ST ST AND MARY FRANCIS ST,ODESSA,TX,31.918611,-102.428333,Y,0,0,0,0,0,0,0,0,1,1,0,1
F,02,NJN000206345,MANSFIELD TRAIL DUMP,INTERSECTION OF BROOKWOOD AND ROSS ROADS,BYRAM,NJ,40.928944,-74.6996,N,1,0,0,0,0,0,0,0,0,0,0,1
F,05,OHD981537582,LAMMERS BARREL FACTORY,EAST PATTERSON & GRANGE HALL,BEAVERCREEK,OH,39.726389,-84.084306,N,0,0,0,0,0,0,0,0,1,1,0,1
F,06,TX0001414341,STAR LAKE CANAL,NEAR STATE HWY 366 & SARA JANE RD,PORT NECHES,TX,29.975,-93.917,N,1,0,0,1,1,0,1,1,0,0,1,0
F,04,SCD980558142,MEDLEY FARM DRUM DUMP,SC HIGHWAY 18,GAFFNEY,SC,34.9805,-81.6685,Y,0,0,0,0,0,0,0,0,0,0,0,1
F,06,TXD007330053,GARLAND CREOSOTING,3915 GARLAND ROAD,LONGVIEW,TX,32.442272,-94.710903,Y,1,0,0,0,0,0,0,0,0,0,0,1
F,05,OHD987051083,PETERS CARTRIDGE FACTORY,1415 GRANDIN ROAD,KINGS MILLS,OH,39.350694,-84.242222,Y,0,0,0,0,0,0,0,0,1,0,0,1
F,02,NJSFN0204232,RIVERSIDE INDUSTRIAL PARK,29 RIVERSIDE AVENUE,NEWARK,NJ,40.765722,-74.159084,N,1,1,1,1,1,0,1,1,1,1,0,1
F,06,TXD007357932,VAN DER HORST USA CORPORATION,410 AND 419 EAST GROVE STREET,TERRELL,TX,32.734167,-96.273889,N,0,0,0,0,0,0,0,0,0,0,0,1
F,05,OHN000508132,WEST TROY CONTAMINATED AQUIFER,ADAMS STREET AND CR 25A,TROY,OH,40.046408,-84.208928,N,0,0,0,0,0,0,0,0,1,1,0,1
F,02,NJSFN0204241,WHITE SWAN LAUNDRY AND CLEANER INC.,1322 SEA GIRT AVE,WALL TWP,NJ,40.135721,-74.06,N,1,0,0,0,0,0,0,0,1,0,0,1
F,04,SCD980558316,"CAROLAWN, INC.",S. OF SC HWY 9 ON CO. RD 841,FORT LAWN,SC,34.686111,-80.94305,Y,0,0,0,0,0,0,0,0,1,0,0,1
F,06,TXD008056152,TEXARKANA WOOD PRESERVING CO.,1001 LUBBOCK ST.,TEXARKANA,TX,33.408331,-94.053339,Y,0,0,0,0,0,0,0,0,1,0,0,1
F,02,NJSFN0204260,WOODBROOK ROAD DUMP,FOOT OF WOODBROOK ROAD (SOUTH END),SOUTH PLAINFIELD,NJ,40.561564,-74.402914,N,1,0,0,0,0,0,0,0,1,1,0,1
F,05,OHN000509238,NEW CARLISLE LANDFILL,715 N. DAYTON-LAKEVIEW ROAD,NEW CARLISLE,OH,39.923333,-84.033694,N,0,0,0,0,0,0,0,0,1,0,0,1
D,04,SCD980711279,GEIGER (C & M OIL),OFF SC RT 162,HOLLYWOOD,SC,32.773611,-80.159161,Y,0,0,0,0,1,0,0,1,0,0,1,0
F,06,TXD008083404,"MANY DIVERSIFIED INTERESTS, INC.",3617 BAER STREET,HOUSTON,TX,29.767778,-95.331667,Y,0,0,0,0,0,0,0,0,0,0,0,1
F,06,NM0000605386,MCGAFFEY AND MAIN GROUNDWATER PLUME,INTERSECTION OF SOUTH MAIN MCGAFFEY,ROSWELL,NM,33.379792,-104.518722,N,0,0,0,0,0,0,0,0,0,0,0,1
F,05,OHN000509950,LITTLE SCIOTO RIVER,HOLLAND ROAD AT LITTLE SCIOTO RIVER,MARION COUNTY,OH,40.593061,-83.183461,N,0,0,0,0,0,0,0,0,1,0,0,1
F,06,TXD008091951,CONROE CREOSOTING CO.,"HIGHWAY 105 EAST, BOX 9",CONROE,TX,30.318744,-95.435428,Y,0,0,0,0,0,0,0,0,1,1,0,1
F,06,NM0002271286,GRIGGS & WALNUT GROUND WATER PLUME,153 NORTH COTTONWOOD ST.,LAS CRUCES,NM,32.315556,-106.76,Y,0,0,0,0,0,0,0,0,0,0,0,1
F,05,OHN000510164,BEHR DAYTON THERMAL SYSTEM VOC PLUME,1600 WEBSTER ST,DAYTON,OH,39.784444,-84.179444,N,0,0,0,0,0,0,0,0,0,1,0,1
F,04,SCD980711394,SCRDI DIXIANA,OFF SC HWY 321,CAYCE,SC,33.90445,-81.063889,Y,1,0,0,0,0,0,0,0,0,0,0,1
F,06,NM0007271768,GRANTS CHLORINATED SOLVENTS,JEFFERSON AND NORTH FIRST STREETS,GRANTS,NM,35.155778,-107.843889,Y,0,0,0,0,0,0,0,0,1,1,0,1
F,06,TXD008096240,JASPER CREOSOTING COMPANY INC.,600 NORTH MCQUEEN STREET BOX 6021,JASPER,TX,30.933889,-93.9825,Y,1,0,0,0,0,0,0,0,1,1,0,1
F,05,OHN000510459,DONNELSVILLE CONTAMINATED AQUIFER,NORTH HAMPTON ROAD and U.S. 40,DONNELSVILLE,OH,39.920558,-83.948728,N,0,0,0,0,0,0,0,0,1,0,0,1
F,06,TXD008123168,ALCOA (POINT COMFORT)/LAVACA BAY,Postal Address is unavailable for the Site,POINT COMFORT,TX,28.650833,-96.562222,Y,0,1,1,1,1,0,1,1,1,1,0,1
F,06,NMD001829506,EAGLE PICHER CAREFREE BATTERY,EXIT 152 I-25,SOCORRO,NM,34.099517,-106.901239,N,0,0,0,0,0,0,0,0,1,1,0,1
F,05,OHN000510489,VALLEY PIKE VOCS,2949 VALLEY PIKE,RIVERSIDE,OH,39.797222,-84.1325,N,0,0,0,0,0,0,0,0,0,0,0,1
D,04,SCD980799456,GOLDEN STRIP SEPTIC TANK SERVICE,ROUTE 1 ADAMS MILL RD,SIMPSONVILLE,SC,34.785,-82.2466,Y,0,0,0,0,0,0,0,0,1,1,0,1
F,06,TXD050299577,HART CREOSOTING COMPANY,STATE HIGHWAY 96,JASPER,TX,30.893611,-93.995278,Y,0,0,0,0,0,0,0,0,1,0,0,1
F,05,OHSFN0507962,EAST TROY CONTAMINATED AQUIFER,EAST TROY ALONG WEST BANK OF MIAMI RIVER,TROY,OH,40.0381,-84.1961,N,0,0,0,0,0,0,0,0,1,1,0,1
F,06,NMD002899094,CHEVRON QUESTA MINE,NM HIGHWAY 38 RED RIVER CANYON,QUESTA,NM,36.700294,-105.497706,N,0,0,0,0,0,0,0,0,0,0,0,1
D,06,TXD055143705,TRIANGLE CHEMICAL CO.,HWY 87 3 MI N OF TOWN,BRIDGE CITY,TX,30.058,-93.8093,Y,0,1,1,1,1,0,1,1,0,0,1,0
F,05,OHSFN0507973,MILFORD CONTAMINATED AQUIFER,101 RACE STREET,MILFORD,OH,39.177814,-84.293786,N,0,0,0,0,0,0,0,0,1,1,0,1
F,06,NMD007860935,HOMESTAKE MINING CO.,HWY 53,MILAN,NM,35.243331,-107.8633,Y,0,0,0,0,0,0,0,0,1,0,0,1
F,04,SCD980839542,ELMORE WASTE DISPOSAL,117 HIGHLAND AVE,GREER,SC,34.935905,-82.216599,Y,0,0,0,0,0,0,0,0,1,0,0,1
F,06,TXD055144539,GULFCO MARINE MAINTENANCE,BRAZORIA COUNTY RD 756,FREEPORT,TX,28.966847,-95.289656,Y,1,1,1,1,1,0,1,1,0,0,1,0
F,06,OK0001010917,WILCOX OIL COMPANY,WEST 221ST STREET SOUTH/REFINERY ROAD,CREEK COUNTY,OK,35.840805,-96.380193,N,1,0,0,0,0,0,0,0,1,0,0,1
F,06,NMD030443303,UNITED NUCLEAR CORP.,HWY 566 21 MI NE OF GALLUP,CHURCH ROCK,NM,35.643331,-108.5,Y,0,0,0,0,0,0,0,0,0,0,0,1
D,06,TXD055337281,"STEWCO, INC.",FM 9 1 & 1/2 MI S OF I-20,WASKOM,TX,32.465831,-94.069169,Y,0,0,0,0,0,0,0,0,1,0,0,1
D,06,OK0002024099,IMPERIAL REFINING COMPANY,EAST OF REFINERY ROAD/S. HWY 42,ARDMORE,OK,34.195486,-97.107931,Y,0,0,0,0,0,0,0,0,1,0,0,1
D,04,SCD980840698,ROCHESTER PROPERTY,JCT LEDBETTER & WHITE HORSE ROAD,TRAVELERS REST,SC,34.9719,-82.5015,Y,0,0,0,0,0,0,0,0,0,0,0,1
D,06,NMD043158591,AT & SF (CLOVIS),SEC 18 & 19 T2N R36E,CLOVIS,NM,34.378331,-103.2117,Y,0,0,0,0,0,0,0,0,1,0,0,1
F,06,TXD057567216,"ELDORADO CHEMICAL CO., INC.",14350 LOOKOUT RD.,LIVE OAK,TX,29.568833,-98.350042,N,0,0,0,0,0,0,0,0,0,0,0,1
F,06,OKD000400093,HARDAGE/CRINER,3/4 MI W OF TOWN ON HWY 122,CRINER,OK,34.9764,-97.5809,Y,0,0,0,0,0,0,0,0,1,0,0,1
F,06,NMD980622773,PREWITT ABANDONED REFINERY,US HWY 66,PREWITT,NM,35.3596,-108.0348,Y,0,0,0,0,0,0,0,0,0,0,0,1
F,06,TXD062113329,TEX-TIN CORP.,STATE HGWY 146 & FARM RD 519,TEXAS CITY,TX,29.356667,-94.941667,Y,0,0,0,0,0,0,1,1,0,0,1,0
D,06,OKD007188717,DOUBLE EAGLE REFINERY CO.,301 N RHODE ISLAND,OKLAHOMA CITY,OK,35.468331,-97.478331,Y,0,0,0,0,0,0,0,0,0,1,0,1
F,04,SCD980844005,ROCK HILL CHEMICAL CO.,NORTH CHERRY RD,ROCK HILL,SC,34.9661,-80.9985,Y,0,0,0,0,0,0,0,0,1,1,0,1
F,06,NMD980622864,AT&SF (ALBUQUERQUE),"3300 2ND STREET , SW",ALBUQUERQUE,NM,35.033333,-106.655278,Y,0,0,0,0,0,0,0,0,1,1,0,0
F,06,TXD062132147,SHERIDAN DISPOSAL SERVICES,CLARK BOTTOM RD,HEMPSTEAD,TX,30.2074,-96.1357,Y,0,0,0,0,0,0,0,0,1,0,0,0
F,06,OKD082471988,HUDSON REFINERY,400 W MAIN ST,CUSHING,OK,35.985556,-96.779722,Y,0,0,0,0,0,0,0,0,0,0,0,1
F,06,NMD980745558,SOUTH VALLEY,BROADWAY & WOODWARD,ALBUQUERQUE,NM,35.0441,-106.6411,Y,0,0,0,0,0,0,0,0,1,0,0,1
F,06,TXD066379645,ROCKWOOL INDUSTRIES INC.,1741 TAYLOR'S VALLEY ROAD,BELL COUNTY,TX,31.051667,-97.438056,Y,0,0,0,0,0,0,0,0,1,1,0,1
F,04,SCD987577913,BREWER GOLD MINE,1/2 MI. N.OFINTERSECTION OF SR 265&CR110,JEFFERSON,SC,34.652194,-80.411472,N,1,0,0,0,0,0,0,0,0,0,0,1
F,06,OKD091598870,OKLAHOMA REFINING CO.,SOUTH BASKETT ST,CYRIL,OK,34.898331,-98.193339,N,0,0,0,0,0,0,0,0,1,0,0,1
D,06,TXD068104561,PALMER BARGE LINE,8700 FERRY ROAD,PORT ARTHUR,TX,29.961453,-93.855083,Y,0,1,1,1,1,0,0,1,0,0,1,0
F,06,NMD980749378,CIMARRON MINING CORP.,EAST OF HWY 380,CARRIZOZO,NM,33.643469,-105.8647,Y,0,0,0,0,0,0,0,0,0,0,0,1
D,06,OKD980620868,MOSLEY ROAD SANITARY LANDFILL,MOSELEY RD BTWN NE 23 & NE 36,OKLAHOMA CITY,OK,35.5025,-97.414861,Y,0,0,0,0,0,0,0,0,1,1,0,1
F,06,TXD079348397,RSR CORPORATION,WESTMORELAND RD & SINGLETON BLVD,DALLAS,TX,32.776944,-96.8725,Y,0,0,0,0,0,0,0,0,0,0,0,1
D,06,NMD980749980,PAGANO SALVAGE,UNKNOWN,LOS LUNAS,NM,34.7896,-106.7205,Y,1,0,0,0,0,0,0,0,1,0,0,0
F,04,SCD991279324,"LEONARD CHEMICAL CO., INC.",5080 CURETON FERRY RD,ROCK HILL,SC,34.851669,-80.904169,N,0,0,0,0,0,0,0,0,1,0,0,1
D,06,OKD980620967,TENTH STREET DUMP/JUNKYARD,3200 NE 10TH ST,OKLAHOMA CITY,OK,35.47805,-97.451939,Y,0,0,0,0,0,0,0,0,1,1,0,1
F,06,TXD086278058,FALCON REFINERY,FM 2725 AT BISHOP ROAD,INGLESIDE,TX,27.860725,-97.179306,N,0,0,0,1,1,0,1,1,1,1,0,1
D,06,NMD981155930,CLEVELAND MILL,"FOREST ROUTE 804, 1.5 MI",SILVER CITY,NM,32.8626,-108.2558,Y,1,0,0,0,0,0,0,0,0,0,0,1
F,04,SCN000404896,BURLINGTON INDUSTRIES CHERAW,650 CHESTERFIELD HIGHWAY,CHERAW,SC,34.698689,-79.912786,N,1,0,0,0,0,0,0,0,1,1,0,1
D,06,OKD980620983,COMPASS INDUSTRIES (AVERY DRIVE),7600 W 26TH ST,TULSA,OK,36.126389,-96.083339,Y,0,0,0,0,0,0,0,0,0,0,0,1
D,06,TXD089793046,"DIXIE OIL PROCESSORS, INC.",2505 CHOATE RD,FRIENDSWOOD,TX,29.5686,-95.2047,Y,0,0,0,0,0,0,0,1,1,1,0,0
F,06,NMD986668911,FRUIT AVENUE PLUME,NEAR INTERSECTION OF EDITH AND GRAND AVE,ALBUQUERQUE,NM,35.086444,-106.640611,Y,0,0,0,0,0,0,0,0,0,0,0,1
F,06,OKD980629844,TAR CREEK (OTTAWA COUNTY),MIAMI/PICHER/SURROUNDINGS,OTTAWA COUNTY,OK,36.943603,-94.841914,N,0,0,0,0,0,0,0,0,0,0,0,1
F,04,SCN000407714,BARITE HILL/NEVADA GOLDFIELDS,NORTHERN SIDE OF SECONDARY HWY S-33-30,MCCORMICK,SC,33.87309,-82.30067,N,0,0,0,0,0,0,0,0,0,0,0,1
D,06,TXD099801102,STATE MARINE OF PORT ARTHUR,OLD YATCH CLUB ROAD ON PLEASURE ISLET,JEFFERSON COUNTY,TX,29.960833,-93.859167,Y,0,1,1,1,1,0,1,1,0,0,1,0
D,06,OKD980696470,FOURTH STREET ABANDONED REFINERY,22OO BLOCK NE 4TH,OKLAHOMA CITY,OK,35.470278,-97.473056,Y,0,0,0,0,0,0,0,0,0,1,0,0
F,06,NMD986670156,NORTH RAILROAD AVENUE PLUME,162 NORTH RAILROAD AVENUE,ESPANOLA,NM,35.9914,-106.081384,Y,0,0,0,0,0,0,0,0,1,1,0,1
D,06,OKD980748446,SAND SPRINGS PETROCHEMICAL COMPLEX,2 BLKS S 198 E MORRO,SAND SPRINGS,OK,36.130831,-96.101389,Y,0,0,0,0,0,0,0,0,1,1,0,0
D,06,TXD980340889,"BIO-ECOLOGY SYSTEMS, INC.",4100 E JEFFERSON,GRAND PRAIRIE,TX,32.743331,-96.936669,Y,0,0,0,0,0,0,0,0,1,0,0,0
D,08,SDD000823559,WILLIAMS PIPE LINE CO. DISPOSAL PIT,5300 W 12TH ST,SIOUX FALLS,SD,43.545281,-96.795869,Y,0,0,0,0,0,0,0,0,0,0,0,1
F,06,NMN000607033,JACKPILE-PAGUATE URANIUM MINE,"SR279 NEAR PAGUATE, LAGUNA PUEBLO",LAGUNA PUEBLO,NM,35.133728,-107.347372,N,0,0,0,0,0,0,0,0,1,0,1,0
F,06,OKD987096195,TULSA FUEL AND MANUFACTURING,1.3 MILES SOUTH OF DOWNTOWN COLLINSVILLE,COLLINSVILLE,OK,36.34625,-95.848611,Y,0,0,0,0,0,0,0,0,0,0,0,1
D,08,SDD980717136,WHITEWOOD CREEK,18 MI PART OF STREAM,WHITEWOOD,SD,44.54896,-103.555723,Y,0,0,0,0,0,0,0,0,0,0,1,0
F,06,NMN000607057,LEA AND WEST SECOND STREET,LEA AND WEST SECOND STREET,ROSWELL,NM,33.394079,-104.529951,N,0,0,0,0,0,0,0,0,0,0,0,1
D,06,TXD980513808,OLD ESCO MANUFACTURING,500 FORRESTER STREET,GREENVILLE,TX,33.1383,-96.0755,Y,0,0,0,0,0,0,0,0,1,0,0,1
F,06,OKN000607068,EAGLE INDUSTRIES,10901 S.E. 29th St.,MIDWEST CITY,OK,35.435631,-97.337507,N,0,0,0,0,0,0,0,0,0,0,0,1
F,09,NVD980813646,CARSON RIVER MERCURY SITE,River from Mexican Dam to terminal wetlands,DAYTON,NV,39.23195,-119.5892,N,1,0,0,0,0,0,0,0,1,1,0,1
F,08,SDD987673985,GILT EDGE MINE,4 MILES SE OF TOWN,LEAD,SD,44.332324,-103.668728,N,0,0,0,0,0,0,0,0,0,0,0,1
F,10,OR0000515759,BLACK BUTTE MINE,LONDON ROAD,COTTAGE GROVE,OR,43.579516,-123.066808,N,0,0,0,0,0,0,0,0,0,0,0,1
F,02,NY0000110247,FULTON AVENUE,150 FULTON AVENUE,GARDEN CITY PARK,NY,40.737337,-73.657844,N,0,0,0,0,0,0,0,0,0,0,0,1
F,04,TND007018799,"AMERICAN CREOSOTE WORKS, INC. (JACKSON PLANT)",MEADOW ST,JACKSON,TN,35.61,-88.8355,Y,0,0,0,0,0,0,0,0,1,1,0,0
F,10,ORD009020603,MCCORMICK & BAXTER CREOSOTING CO. (PORTLAND PLANT),6900 N EDGEWATER ROAD,PORTLAND,OR,45.579443,-122.73944,Y,0,1,1,1,1,0,0,0,1,1,0,1
D,04,TND980558894,NORTH HOLLYWOOD DUMP,1700-2000 BLKS/N. HOLLYWOOD ST,MEMPHIS,TN,35.18555,-89.979161,Y,0,0,0,0,0,0,0,0,1,0,0,1
F,02,NY0001095363,NEW CASSEL/HICKSVILLE GROUND WATER CONTAMINATION,SOUTHERN END OF IRIS PLACE,NEW CASSEL/HICKSVILLE,NY,40.752446,-73.559781,N,0,0,0,0,0,0,0,0,0,0,0,1
F,10,ORD009042532,TAYLOR LUMBER AND TREATING,22125 SOUTHWEST ROCK CREEK ROAD,SHERIDAN,OR,45.097222,-123.426944,Y,0,0,0,0,0,0,0,0,1,1,0,1
F,04,TND044062222,CARRIER AIR CONDITIONING CO.,97 S BYHALIA RD,COLLIERVILLE,TN,35.043331,-89.690411,Y,0,0,0,0,0,0,0,0,0,0,0,1
F,02,NY0001233634,LITTLE VALLEY,"INTERSECT OF RTES 242, 353, AND BAKER RD",LITTLE VALLEY,NY,42.236667,-78.766944,Y,0,0,0,0,0,0,0,0,0,0,1,0
F,04,TND980559033,VELSICOL CHEMICAL CORP. (HARDEMAN COUNTY),TOONE-TEAGUE RD,TOONE,TN,35.381939,-88.926389,Y,0,0,0,0,0,0,0,0,0,0,0,1
F,10,ORD009043001,"UNITED CHROME PRODUCTS, INC.",2000 AIRPORT RD,CORVALLIS,OR,44.5042,-123.2861,Y,0,0,0,0,0,0,0,0,0,0,0,1
F,04,TND071516959,TENNESSEE PRODUCTS,Postal Address is unavailable for the Site,CHATTANOOGA,TN,34.998889,-85.314444,Y,0,0,0,0,0,0,0,0,1,1,0,1
F,02,NY0002318889,SMITHTOWN GROUND WATER CONTAMINATION,"ST. JAMES, NISSEQUOGUE & HEAD OF HARBOR",SMITHTOWN,NY,40.887806,-73.174778,Y,1,0,0,0,0,0,0,0,0,0,0,1
F,04,TND075453688,MALLORY CAPACITOR CO.,BELEW DRIVE,WAYNESBORO,TN,35.317638,-87.758611,Y,0,0,0,0,0,0,0,0,1,1,0,1
F,10,ORD009049412,UNION PACIFIC RAILROAD CO. TIE-TREATING PLANT,TIE PLANT RD-IN CITY LIMITS,THE DALLES,OR,45.5986,-121.1651,Y,0,0,0,0,0,0,0,0,0,0,1,0
F,04,TND980728836,MURRAY-OHIO DUMP,GLENN SPRINGS RD,LAWRENCEBURG,TN,35.2275,-87.361111,Y,0,0,0,0,0,0,0,0,1,1,0,1
F,04,TND096070396,ROSS METALS INC.,100 N RAILROAD STREET,ROSSVILLE,TN,35.049167,-89.548611,Y,0,0,0,0,0,0,0,0,1,1,0,1
D,02,NY0002455756,CONSOLIDATED IRON AND METAL,EAST END OF WASHINGTON STREET,NEWBURGH,NY,41.498028,-74.005639,Y,0,1,1,1,1,0,1,1,1,1,0,1
D,10,ORD009051442,"ALLIED PLATING, INC.",8135 NE UNION AV,PORTLAND,OR,45.583331,-122.6617,Y,0,1,1,1,1,0,0,0,1,1,0,1
F,04,TND098071061,SMOKEY MOUNTAIN SMELTERS,1508 MARYVILLE PIKE,KNOXVILLE,TN,35.919444,-83.925833,N,0,0,0,0,0,0,0,0,0,0,0,1
F,10,ORD009412677,REYNOLDS METALS COMPANY,SUNDIAL ROAD,TROUTDALE,OR,45.5569,-122.399161,Y,0,0,0,0,0,0,0,0,0,1,0,0
F,02,NYC200400810,WOLFF-ALPORT CHEMICAL COMPANY,1125-1139 IRVING AVENUE,RIDGEWOOD,NY,40.692672,-73.901997,N,0,0,0,0,0,0,0,0,0,0,0,1
D,04,TND980728992,GALLAWAY PITS,OFF HWY 70,GALLAWAY,TN,35.359719,-89.601939,Y,0,0,0,0,0,0,0,0,0,0,0,1
F,04,TND980468557,ARLINGTON BLENDING & PACKAGING,12121 HWY 70,ARLINGTON,TN,35.2996,-89.6577,Y,0,0,0,0,0,0,0,0,1,1,0,1
F,10,ORD050955848,TELEDYNE WAH CHANG,1600 OLD SALEM RD NE,ALBANY,OR,44.66,-123.0633,Y,0,0,0,0,0,0,0,0,1,1,0,1
D,04,TND980729115,LEWISBURG DUMP,CRUSHER RD,LEWISBURG,TN,35.481389,-86.784161,Y,0,0,0,0,0,0,0,0,1,1,0,1
F,02,NYD000337295,LIBERTY INDUSTRIAL FINISHING,55 MOTOR PARKWAY,FARMINGDALE,NY,40.72625,-73.448889,Y,0,0,0,0,0,0,0,0,0,0,0,1
D,10,ORD052221025,MARTIN-MARIETTA ALUMINUM CO.,3313 W 2ND ST,THE DALLES,OR,45.624439,-121.2056,Y,0,0,0,0,0,0,0,0,0,0,1,0
D,04,TND980729172,AMNICOLA DUMP,AMNICOLA HWY,CHATTANOOGA,TN,35.0625,-85.276389,Y,1,0,0,0,0,0,0,0,1,1,0,1
D,02,NYD000511360,SYOSSET LANDFILL,150 MILLER PLACE,OYSTER BAY,NY,40.798889,-73.509719,Y,0,0,0,0,0,0,0,0,0,0,0,1
D,10,ORD068782820,JOSEPH FOREST PRODUCTS,RUSSELL LANE 1 MI OFF HWY 82,JOSEPH,OR,45.359439,-117.2472,Y,1,0,0,0,0,0,0,0,0,0,1,0
F,04,TND980844781,WRIGLEY CHARCOAL PLANT,OLD CHARCOAL RD 1 MI S OF LYLE,WRIGLEY,TN,35.9025,-87.353194,N,0,0,0,0,0,0,0,0,0,0,0,1
F,02,NYD000511451,"NEPERA CHEMICAL CO., INC.",COUNTY RT 4,MAYBROOK,NY,41.4643,-74.2447,Y,1,0,0,0,0,0,0,0,1,1,0,1
D,10,ORD071803985,HARBOR OIL INC.,AKA CHEMPRO OF OREGON INC,PORTLAND,OR,45.606389,-122.691389,Y,0,0,0,0,0,0,0,0,1,1,0,0
F,02,NYD000511493,RAMAPO LANDFILL,RTE 59,RAMAPO,NY,41.14,-74.161389,Y,1,0,0,0,0,0,0,0,1,0,0,1
D,02,NYD000511576,CLOTHIER DISPOSAL,SOUTH GRANBY ROAD COUNTY ROAD 55,TOWN OF GRANBY,NY,43.247219,-76.412781,Y,0,0,0,0,0,0,0,0,1,0,0,1
D,10,ORD095003687,"GOULD, INC.",5909 NW 61ST AV,PORTLAND,OR,45.5692,-122.7483,Y,0,0,0,0,0,0,0,0,0,0,0,1
D,02,NYD000831644,HOOKER (HYDE PARK),HYDE PARK BLVD,NIAGARA FALLS,NY,43.131111,-79.036669,Y,0,0,0,0,0,0,0,0,0,0,0,1
F,02,NYD000511659,POLLUTION ABATEMENT SERVICES,55 SENECA ST,OSWEGO,NY,43.47,-76.483331,Y,0,0,0,0,0,0,0,0,1,1,0,1
F,10,ORD980988307,NORTHWEST PIPE & CASING/HALL PROCESS COMPANY,SE MATHER RD AT SE INDUSTRIAL,CLACKAMAS,OR,45.416333,-122.563889,Y,0,0,0,0,0,0,0,0,0,0,0,1
F,02,NYD000511733,YORK OIL CO.,N LAWRENCE RD,MOIRA,NY,44.8225,-74.5751,Y,0,0,0,0,0,0,0,0,0,0,1,0
D,02,NYD001344456,JACKSON STEEL,435 FIRST STREET,MINEOLA/NORTH HEMPSTEAD,NY,40.738806,-73.652694,Y,1,0,0,0,0,0,0,0,0,0,0,1
F,02,NYD000511857,FMC CORP. (DUBLIN ROAD LANDFILL),DUBLIN ROAD,TOWN OF SHELBY,NY,43.2172,-78.4417,Y,0,0,0,0,0,0,0,0,0,0,1,0
F,10,ORN001002476,NORTH RIDGE ESTATES,OLD FORT ROAD AND NORTH RIDGE DRIVE,KLAMATH FALLS,OR,42.2648,-121.7465,N,0,0,0,0,0,0,0,0,0,0,1,0
D,02,NYD001485226,ANCHOR CHEMICALS,500 WEST JOHN STREET,HICKSVILLE,NY,40.766389,-73.546389,Y,1,0,0,0,0,0,0,0,0,0,0,1
F,02,NYD000512335,DEWEY LOEFFEL LANDFILL,MEAD ROAD,NASSAU,NY,42.560957,-73.560496,N,1,0,0,0,0,0,0,0,0,0,1,0
F,10,ORN001002616,FORMOSA MINE,"T31 S R6W SEC23, WILLAMETTE MERIDIAN",RIDDLE,OR,42.854472,-123.382611,N,1,0,0,0,0,0,0,0,0,0,1,0
F,02,NYD000512459,"MATTIACE PETROCHEMICAL CO., INC.",GARVIES POINT ROAD,GLEN COVE,NY,40.8608,-73.6432,Y,1,1,1,1,1,0,1,1,1,1,0,1
D,02,NYD001533165,"SMS INSTRUMENTS, INC.",120 MARCUS BLVD,DEER PARK,NY,40.760002,-73.318491,Y,0,0,0,0,0,0,0,0,0,0,0,1
D,02,NYD000514257,NIAGARA COUNTY REFUSE,WITMER RD,WHEATFIELD,NY,43.06055,-78.906111,Y,0,0,0,0,0,0,0,0,1,0,0,1
F,10,ORSFN1002155,PORTLAND HARBOR,BETWEEN RM 1.9 AND 11.8 IN PORTLAND,PORTLAND,OR,45.615278,-122.793056,N,0,1,1,1,1,0,0,0,1,1,0,1
D,02,NYD001667872,"RADIUM CHEMICAL CO., INC.",66-06 27TH STREET,QUEENS,NY,40.76,-73.9025,Y,1,0,0,0,0,0,0,1,0,0,0,1
D,02,NYD000606947,LOVE CANAL,E OF 97TH ST/W OF 99TH ST,NIAGARA FALLS,NY,43.079719,-78.94945,Y,0,0,0,0,0,0,0,0,0,1,0,1
F,03,PAD000436261,CENTRE COUNTY KEPONE,201 STRUBLE ROAD,STATE COLLEGE,PA,40.823611,-77.808331,Y,0,0,0,0,0,0,0,0,0,0,0,1
F,02,NYD000813428,"JONES CHEMICALS, INC.",100 SUNNY SOL BLVD,CALEDONIA,NY,42.976531,-77.845561,Y,0,0,0,0,0,0,0,0,0,0,1,0
F,02,NYD002041531,"LAWRENCE AVIATION INDUSTRIES, INC.",SHEEP PASTURE ROAD,PORT JEFFERSON STATION,NY,40.928139,-73.069194,Y,1,0,0,0,0,0,0,0,0,0,0,1
D,03,PAD000436436,AMBLER ASBESTOS PILES,LOCUST STREET,AMBLER,PA,40.149719,-75.227219,Y,0,0,0,0,0,0,0,0,1,1,0,1
F,02,NYD002044584,CLAREMONT POLYCHEMICAL,501 WINDING ROAD,OLD BETHPAGE,NY,40.7576,-73.4432,Y,1,0,0,0,0,0,0,0,0,0,0,1
D,03,PAD000439083,"RIVER ROAD LANDFILL (WASTE MANAGEMENT, INC.)",RTE 846 RIVER RD,HERMITAGE,PA,41.266669,-80.4875,Y,0,0,0,0,0,0,0,0,1,0,0,1
F,02,NYD002050110,GENZALE PLATING CO.,288 NEW HYDE PARK ROAD,FRANKLIN SQUARE,NY,40.7153,-73.6777,Y,0,0,0,0,0,0,0,0,0,0,0,1
D,02,NYD002059517,"TRONIC PLATING CO., INC.",168 CENTRAL AVENUE,FARMINGDALE,NY,40.7538,-73.4077,Y,1,0,0,0,0,0,0,0,0,0,0,1
F,03,PAD000441337,STRASBURG LANDFILL,STRASBURG ROAD,NEWLIN TOWNSHIP,PA,39.944439,-75.768061,Y,0,0,0,0,0,0,0,0,1,0,0,1
F,02,NYD002066330,AMERICAN THERMOSTAT CO.,RTE 23 B,SOUTH CAIRO,NY,42.266939,-73.941111,Y,0,0,0,0,0,0,0,0,1,1,0,1
D,03,PAD000651810,BERKS LANDFILL,RD 8348,SPRING TOWNSHIP,PA,40.291389,-76.031111,Y,0,0,0,0,0,0,0,0,0,0,0,1
F,03,PAD001222025,"JACKSON CERAMIX, INC",ROUTE 950,FALLS CREEK,PA,41.139167,-78.801944,N,0,0,0,0,0,0,0,0,1,0,0,1
F,03,PAD001933175,SHARON STEEL CORP (FARRELL WORKS DISPOSAL AREA),300 OHIO STREET,HERMITAGE,PA,41.198611,-80.510278,N,0,0,0,0,0,0,0,0,1,1,0,1
F,03,PAD002323848,CHEM-FAB,300 NORTH BROAD STREET,Doylestown,PA,40.315958,-75.136003,N,0,0,0,0,0,0,0,0,1,1,0,1
F,03,PAD002338010,HAVERTOWN PCP,EAGLE ROAD RC DRAWER F,HAVERFORD,PA,39.982781,-75.318611,Y,0,0,0,0,0,0,0,0,0,0,0,1
F,03,PAD002342475,NORTH PENN - AREA 2,1 SPRING AVE,HATFIELD,PA,40.293889,-75.297781,Y,0,0,0,0,0,0,0,0,1,1,0,1
F,03,PAD002345817,FISCHER & PORTER CO.,JACKSONVILLE & ST RD,WARMINSTER,PA,40.183889,-75.0925,Y,0,0,0,0,0,0,0,0,0,0,0,1
D,03,PAD002353969,RECTICON/ALLIED STEEL CORP.,RTE 724 & WELLS RD,E COVENTRY TWP,PA,40.203469,-75.589031,Y,0,0,0,0,0,0,0,0,1,1,0,1
F,03,PAD002360444,"CRYOCHEM, INC.",ROUTE 562,WORMAN TOWNSHIP,PA,40.317219,-75.691669,Y,0,0,0,0,0,0,0,0,0,0,0,1
F,03,PAD002384865,DOUGLASSVILLE DISPOSAL,RTE 724,DOUGLASSVILLE,PA,40.2575,-75.735281,Y,0,0,0,0,0,0,0,0,1,1,0,1
F,03,PAD002390748,HELLERTOWN MANUFACTURING CO.,1770 MAIN ST,HELLERTOWN,PA,40.595417,-75.340947,Y,0,0,0,0,0,0,0,0,1,1,0,1
F,03,PAD002395887,PALMERTON ZINC PILE,211 FRANKLIN ST,PALMERTON,PA,40.808331,-75.583339,N,0,0,0,0,0,0,0,0,1,1,0,1
F,03,PAD002498632,NORTH PENN - AREA 7,WISSAHICKON AVE,NORTH WALES,PA,40.218061,-75.278889,N,0,0,0,0,0,0,0,0,1,1,0,1
F,03,PAD003005014,WHITMOYER LABORATORIES,19 N RAILROAD ST,JACKSON TOWNSHIP,PA,40.364719,-76.325,Y,0,0,0,0,0,0,0,0,1,1,0,1
F,03,PAD003047974,BENDIX FLIGHT SYSTEMS DIVISION,MONTROSE PLT,SOUTH MONTROSE,PA,41.797361,-75.88625,Y,0,0,0,0,0,0,0,0,1,0,0,1
F,03,PAD003053709,AVCO LYCOMING (WILLIAMSPORT DIVISION),652 OLIVER ST,WILLIAMSPORT,PA,41.244031,-77.041111,Y,0,0,0,0,0,0,0,0,0,1,0,1
F,03,PAD003058047,DRAKE CHEMICAL,180 MYRTLE ST,LOCK HAVEN,PA,41.129169,-77.443611,Y,0,0,0,0,0,0,0,0,1,1,0,1
F,03,PAD004351003,A.I.W. FRANK/MID-COUNTY MUSTANG,INT RTE 202 & RTE 30,EXTON,PA,40.031811,-75.6032,Y,0,0,0,0,0,0,0,0,1,1,0,1
F,03,PAD005000575,WESTINGHOUSE ELECTRIC CORP. (SHARON PLANT),469 SHARPSVILLE AVE,SHARON,PA,41.2434,-80.5058,Y,0,0,0,0,0,0,0,0,1,1,0,1
F,03,PAD009862939,HENDERSON ROAD,372 S HENDERSON ROAD,UPPER MERION TOWNSHIP,PA,40.086939,-75.35555,Y,0,0,0,0,0,0,0,0,1,0,0,1
F,03,PAD014269971,STANLEY KESSLER,103 QUEENS DR,KING OF PRUSSIA,PA,40.083889,-75.355,Y,0,0,0,0,0,0,0,0,1,0,0,1
F,03,PAD014353445,MALVERN TCE,258 N PHOENIXVILLE PK,MALVERN,PA,40.061669,-75.56805,Y,0,0,0,0,0,0,0,0,0,0,0,1
D,03,PAD021449244,C & D RECYCLING,R.D. #1 - SANDY RUN,FOSTER TOWNSHIP,PA,41.031389,-75.841669,Y,0,0,0,0,0,0,0,0,0,0,0,1
F,03,PAD039017694,RAYMARK,220 JACKSONVILLE RD,HATBORO,PA,40.179719,-75.098611,Y,0,0,0,0,0,0,0,0,0,0,0,1
D,03,PAD041421223,"AMP, INC. (GLEN ROCK FACILITY)",OLD RTE 11 - SUSQUEHANNA RD,GLEN ROCK,PA,39.8218,-76.6944,Y,0,0,0,0,0,0,0,0,0,0,0,1
F,03,PAD043882281,WESTINGHOUSE ELEVATOR CO. PLANT,"1200BIGLERSVILLE RD, RTE 34 N",GETTYSBURG,PA,39.857219,-77.24,Y,0,0,0,0,0,0,0,0,0,0,0,1
F,03,PAD044545895,METRO CONTAINER CORPORATION,CORNER OF WEST 2ND ST. AND PRICE STREET,TRAINER,PA,39.824981,-75.399047,N,0,1,1,1,1,0,1,1,1,1,0,1
F,03,PAD046557096,METAL BANK,COTTMAN & DELAWARE AVE,PHILADELPHIA,PA,40.024169,-75.027781,Y,0,1,1,1,1,0,0,1,1,1,0,1
F,03,PAD047726161,BOARHEAD FARMS,LONELY COTTAGE DRIVE,BRIDGETON TOWNSHIP,PA,40.545831,-75.125,Y,0,0,0,0,0,0,0,0,0,0,0,1
F,03,PAD051395499,REVERE CHEMICAL CO.,SOUTHEAST SIDE OF ROUTE 611,NOCKAMIXON TOWNSHIP,PA,40.502781,-75.168889,Y,0,0,0,0,0,0,0,0,1,0,0,1
F,03,PAD054142781,KEYSTONE SANITATION LANDFILL,RD #1,UNION TOWNSHIP,PA,39.72445,-77.036111,Y,0,0,0,0,0,0,0,0,0,0,0,1
F,03,PAD057152365,NORTH PENN - AREA 12,TROOPER RD,WORCESTER,PA,40.1807,-75.3537,Y,0,0,0,0,0,0,0,0,0,0,0,1
F,03,PAD061105128,BALLY GROUND WATER CONTAMINATION,ROUTE 100 20 N THIRD STREET,BALLY,PA,40.3984,-75.5933,Y,0,0,0,0,0,0,0,0,1,0,0,1
D,03,PAD063766828,RESIN DISPOSAL,TOP OF STILLEY AVENUE,JEFFERSON BOROUGH,PA,40.2705,-79.9124,Y,0,0,0,0,0,0,0,0,0,0,0,1
F,03,PAD073613663,TONOLLI CORP.,RTE 54,NESQUEHONING,PA,40.850561,-75.881111,Y,0,0,0,0,0,0,0,0,1,1,0,1
